{"type":"FeatureCollection","features":[{"type":"Feature","properties":{"id":"tail-of-the-dragon","name":"Tail of the Dragon \u00b7 US 129","difficulty":3,"character":"Technical"},"geometry":{"type":"Point","coordinates":[-83.9288046,35.4928502]}},{"type":"Feature","properties":{"id":"cherohala-skyway","name":"Cherohala Skyway","difficulty":2,"character":"Medium speed"},"geometry":{"type":"Point","coordinates":[-84.0810633,35.3562315]}},{"type":"Feature","properties":{"id":"back-of-the-dragon","name":"Back of the Dragon \u00b7 VA 16","difficulty":3,"character":"Technical"},"geometry":{"type":"Point","coordinates":[-81.529776,36.988532]}}]}
