{"type":"FeatureCollection","features":[{"type":"Feature","properties":{"id":"tail-of-the-dragon","name":"Tail of the Dragon \u00b7 US 129","difficulty":3,"character":"Technical"},"geometry":{"type":"MultiLineString","coordinates":[[[-83.94141,35.45018],[-83.94131,35.45038],[-83.94096,35.45043],[-83.93905,35.44936],[-83.93808,35.44928],[-83.93766,35.44911],[-83.93701,35.44926],[-83.93544,35.4493],[-83.93391,35.45015],[-83.93262,35.45044],[-83.93175,35.4511],[-83.9308,35.45061],[-83.93027,35.45055],[-83.92981,35.45065],[-83.92909,35.45135],[-83.92792,35.45221],[-83.9259,35.45396],[-83.92555,35.45442],[-83.92516,35.45522],[-83.92424,35.45578],[-83.92353,35.45645],[-83.92301,35.45732],[-83.92289,35.45798],[-83.92242,35.45843],[-83.92194,35.45929],[-83.92209,35.45972],[-83.92291,35.46019],[-83.92292,35.46042],[-83.9217,35.46132],[-83.92161,35.46186],[-83.92133,35.46235],[-83.92056,35.46247],[-83.91988,35.46308],[-83.92006,35.46357],[-83.92092,35.46478],[-83.92077,35.46502],[-83.92015,35.46529],[-83.9199,35.46566],[-83.92008,35.46827],[-83.92026,35.46847],[-83.92131,35.46899],[-83.92176,35.4698],[-83.92164,35.46999],[-83.92113,35.46994],[-83.92082,35.47014],[-83.92039,35.47126],[-83.92039,35.47205],[-83.92066,35.47258],[-83.92123,35.47314],[-83.92127,35.47331],[-83.92083,35.47388],[-83.92034,35.4742],[-83.92045,35.47465],[-83.92033,35.47501],[-83.9204,35.47574],[-83.92028,35.47594],[-83.92008,35.47599],[-83.9187,35.47588],[-83.91815,35.47575],[-83.91796,35.47586],[-83.918,35.47606],[-83.91843,35.47632],[-83.91953,35.47639],[-83.92068,35.47704],[-83.92263,35.47714],[-83.92391,35.47707],[-83.92489,35.47725],[-83.92531,35.47744],[-83.92545,35.47795],[-83.92564,35.47808],[-83.92712,35.47765],[-83.92836,35.47768],[-83.92948,35.47806],[-83.92993,35.47861],[-83.93053,35.47867],[-83.93099,35.47892],[-83.93179,35.47891],[-83.9323,35.47907],[-83.93299,35.4794],[-83.9331,35.47953],[-83.93288,35.48006],[-83.93246,35.48055],[-83.9325,35.48071],[-83.93293,35.48101],[-83.933,35.48175],[-83.93357,35.48214],[-83.93421,35.48294],[-83.93414,35.48312],[-83.93344,35.48352],[-83.93317,35.48415],[-83.93294,35.48433],[-83.93255,35.48434],[-83.93203,35.4842],[-83.93136,35.48374],[-83.93102,35.48364],[-83.93086,35.48373],[-83.93071,35.48407],[-83.93017,35.48441],[-83.93027,35.48465],[-83.93148,35.48498],[-83.93182,35.48522],[-83.93194,35.48553],[-83.93142,35.48604],[-83.93142,35.48642],[-83.93165,35.48659],[-83.93214,35.48648],[-83.93237,35.48653],[-83.9325,35.48675],[-83.93246,35.48711],[-83.93233,35.48731],[-83.93187,35.48762],[-83.93189,35.48817],[-83.93122,35.4887],[-83.93104,35.48936],[-83.93052,35.48954],[-83.93015,35.48997],[-83.93015,35.49049],[-83.92947,35.49088],[-83.92944,35.49128],[-83.92976,35.49174],[-83.92927,35.49214],[-83.92915,35.4925],[-83.9288,35.4928],[-83.92917,35.49338],[-83.92914,35.4936],[-83.92864,35.49393],[-83.92774,35.49417],[-83.92778,35.49493],[-83.9274,35.49511],[-83.92721,35.49553],[-83.92659,35.4961],[-83.92655,35.49631],[-83.92716,35.49698],[-83.92789,35.49726],[-83.92918,35.49653],[-83.92981,35.49658],[-83.93142,35.49631],[-83.93211,35.49647],[-83.93377,35.49645],[-83.934,35.49629],[-83.93401,35.49592],[-83.93433,35.49549],[-83.93478,35.49519],[-83.93508,35.49511],[-83.93526,35.49524],[-83.9355,35.49588],[-83.93533,35.49644],[-83.93529,35.49819],[-83.93516,35.49845],[-83.93401,35.49938],[-83.93398,35.49958],[-83.93415,35.49973],[-83.93438,35.49972],[-83.9363,35.49894],[-83.93687,35.49887],[-83.93693,35.49867],[-83.93667,35.49821],[-83.93669,35.4979],[-83.93691,35.4974],[-83.93721,35.49722],[-83.93879,35.49739],[-83.93936,35.49774],[-83.93984,35.49753],[-83.94005,35.49753],[-83.94176,35.49821],[-83.94192,35.49854],[-83.94167,35.49898],[-83.9417,35.49917],[-83.94196,35.49917],[-83.94256,35.49888],[-83.94277,35.49895],[-83.94291,35.49913],[-83.94259,35.50041],[-83.94266,35.50078],[-83.94287,35.50092],[-83.94322,35.5008],[-83.9432,35.50039],[-83.94337,35.50015],[-83.9436,35.49998],[-83.94389,35.49994],[-83.94413,35.50015],[-83.94398,35.50054],[-83.94406,35.50071],[-83.94443,35.50087],[-83.94519,35.50082],[-83.94536,35.501],[-83.94544,35.50137],[-83.94585,35.50144],[-83.9461,35.50132],[-83.94652,35.50038],[-83.94738,35.49975],[-83.94835,35.49969],[-83.94971,35.49995],[-83.94977,35.50015],[-83.94952,35.50053],[-83.94868,35.50083],[-83.94833,35.50115],[-83.94865,35.50161],[-83.94839,35.50203],[-83.94839,35.5022],[-83.94892,35.50246],[-83.94904,35.50276],[-83.94892,35.50295],[-83.94828,35.5032],[-83.94851,35.50378],[-83.94797,35.50418],[-83.94845,35.50481],[-83.94835,35.50567],[-83.94894,35.50575],[-83.9495,35.50616],[-83.94896,35.50748],[-83.94895,35.50768],[-83.94905,35.50775],[-83.95041,35.50712],[-83.95108,35.50717],[-83.95194,35.50682],[-83.95258,35.50674],[-83.95294,35.50687],[-83.95337,35.50773],[-83.95365,35.50777],[-83.95373,35.50765],[-83.95349,35.50723],[-83.95376,35.50666],[-83.95373,35.50639],[-83.95396,35.50622],[-83.95445,35.5063],[-83.95462,35.5062],[-83.95474,35.50585],[-83.95505,35.50547],[-83.95495,35.50486],[-83.95531,35.50431],[-83.95558,35.50422],[-83.95583,35.50448],[-83.95599,35.50451],[-83.95655,35.50417],[-83.9571,35.5041],[-83.95723,35.50416],[-83.95732,35.50456],[-83.95748,35.5047],[-83.95941,35.50425],[-83.95968,35.5043],[-83.95979,35.50446],[-83.95954,35.50513],[-83.95878,35.50532],[-83.95897,35.5059],[-83.95864,35.50623],[-83.95839,35.50674],[-83.9576,35.50708],[-83.95765,35.5073],[-83.95857,35.50762],[-83.95943,35.50819],[-83.95996,35.50837],[-83.96037,35.50831],[-83.96173,35.50776],[-83.96327,35.50774],[-83.96382,35.50737],[-83.96447,35.50727],[-83.96481,35.50711],[-83.96521,35.50666],[-83.96525,35.50621],[-83.96567,35.50553],[-83.96653,35.50512],[-83.96672,35.5047],[-83.96773,35.50436],[-83.96789,35.50393],[-83.96773,35.50312],[-83.96787,35.50296]]]}},{"type":"Feature","properties":{"id":"cherohala-skyway","name":"Cherohala Skyway","difficulty":2,"character":"Medium speed"},"geometry":{"type":"MultiLineString","coordinates":[[[-84.30163,35.36687],[-84.30026,35.36706],[-84.29829,35.36696],[-84.29777,35.3668],[-84.29631,35.36584],[-84.29587,35.36564],[-84.29434,35.36546],[-84.29377,35.3653],[-84.29209,35.36436],[-84.28847,35.36315],[-84.28702,35.36295],[-84.28474,35.36301],[-84.28374,35.36293],[-84.28287,35.36268],[-84.28146,35.36207],[-84.28003,35.36164],[-84.27945,35.36135],[-84.27815,35.36036],[-84.27797,35.36007],[-84.2779,35.35951],[-84.27757,35.35901],[-84.27494,35.35739],[-84.27252,35.35743],[-84.27022,35.3569],[-84.26988,35.35671],[-84.26903,35.35583],[-84.26849,35.35557],[-84.25939,35.35302],[-84.25642,35.35163],[-84.2544,35.35037],[-84.25347,35.34859],[-84.25303,35.34807],[-84.25257,35.34781],[-84.25196,35.34779],[-84.25141,35.34806],[-84.25121,35.34841],[-84.25097,35.34936],[-84.25045,35.34991],[-84.24993,35.3501],[-84.24921,35.35003],[-84.24866,35.34965],[-84.24835,35.34911],[-84.24821,35.34762],[-84.24784,35.3471],[-84.2474,35.34689],[-84.24493,35.34622],[-84.24334,35.34558],[-84.24294,35.34558],[-84.24264,35.34574],[-84.2425,35.34607],[-84.24261,35.34633],[-84.24397,35.34734],[-84.24542,35.3482],[-84.24587,35.34869],[-84.24612,35.34917],[-84.2463,35.34986],[-84.24626,35.35053],[-84.24602,35.35098],[-84.24554,35.35127],[-84.24479,35.3513],[-84.24317,35.35066],[-84.24196,35.35053],[-84.24132,35.3503],[-84.24086,35.34989],[-84.24008,35.34835],[-84.23858,35.34666],[-84.23798,35.34617],[-84.2376,35.34601],[-84.23698,35.34595],[-84.2363,35.3461],[-84.23602,35.34629],[-84.23574,35.34669],[-84.23537,35.34757],[-84.23431,35.34853],[-84.23314,35.35019],[-84.23274,35.35059],[-84.23207,35.35088],[-84.23158,35.351],[-84.23102,35.35099],[-84.23037,35.35083],[-84.22984,35.35053],[-84.2296,35.35013],[-84.22956,35.34973],[-84.22983,35.34851],[-84.22981,35.34811],[-84.22948,35.34774],[-84.22891,35.34761],[-84.22847,35.34774],[-84.2251,35.35054],[-84.22436,35.35104],[-84.22187,35.35183],[-84.22008,35.35206],[-84.21952,35.35199],[-84.21915,35.35171],[-84.21901,35.35137],[-84.21887,35.35029],[-84.21787,35.34874],[-84.21745,35.3485],[-84.21694,35.3485],[-84.21625,35.34896],[-84.2158,35.34911],[-84.2154,35.34908],[-84.2145,35.34883],[-84.21404,35.34885],[-84.21367,35.34912],[-84.21295,35.35027],[-84.21242,35.35051],[-84.21168,35.35054],[-84.21097,35.35036],[-84.2106,35.35017],[-84.20852,35.34851],[-84.20813,35.34834],[-84.20763,35.34836],[-84.20623,35.34899],[-84.20564,35.34916],[-84.20482,35.3492],[-84.20411,35.34904],[-84.20345,35.3487],[-84.20105,35.34676],[-84.2003,35.34649],[-84.19968,35.34645],[-84.19894,35.34662],[-84.19852,35.34685],[-84.19672,35.34861],[-84.19468,35.35022],[-84.19307,35.35121],[-84.19222,35.3515],[-84.191,35.35141],[-84.18896,35.35066],[-84.18846,35.35068],[-84.18693,35.35101],[-84.1864,35.35091],[-84.18544,35.35053],[-84.18416,35.35041],[-84.18293,35.35075],[-84.18046,35.35196],[-84.17954,35.35214],[-84.17813,35.35219],[-84.17762,35.35203],[-84.17724,35.35175],[-84.17665,35.35047],[-84.17602,35.34999],[-84.1744,35.3493],[-84.17336,35.34918],[-84.17245,35.34935],[-84.17193,35.34959],[-84.17137,35.35001],[-84.17063,35.35094],[-84.17005,35.35125],[-84.16963,35.35134],[-84.169,35.35129],[-84.16712,35.35037],[-84.16635,35.35032],[-84.16589,35.35046],[-84.16309,35.35199],[-84.16234,35.3522],[-84.16014,35.35257],[-84.15828,35.35364],[-84.15665,35.35418],[-84.1549,35.35533],[-84.15345,35.35599],[-84.151,35.35735],[-84.14953,35.35847],[-84.14802,35.35938],[-84.14773,35.35963],[-84.14744,35.36006],[-84.14724,35.3613],[-84.14696,35.36175],[-84.14436,35.36305],[-84.14287,35.36441],[-84.14215,35.36466],[-84.13977,35.36462],[-84.13906,35.36494],[-84.13865,35.36565],[-84.13896,35.3672],[-84.13894,35.36748],[-84.13872,35.3679],[-84.13839,35.36813],[-84.13799,35.36827],[-84.13639,35.36821],[-84.13575,35.36846],[-84.13252,35.37212],[-84.13223,35.37264],[-84.13206,35.37325],[-84.13229,35.37508],[-84.13222,35.37555],[-84.13192,35.37605],[-84.13141,35.37644],[-84.12977,35.37707],[-84.129,35.37756],[-84.12405,35.38261],[-84.12349,35.38287],[-84.1224,35.38307],[-84.12186,35.38326],[-84.12146,35.38367],[-84.12078,35.38493],[-84.12016,35.38521],[-84.1196,35.38516],[-84.11917,35.38489],[-84.11891,35.38435],[-84.1189,35.38322],[-84.11917,35.38212],[-84.11985,35.38084],[-84.12097,35.37948],[-84.12119,35.37796],[-84.12143,35.37769],[-84.12252,35.3769],[-84.12305,35.37609],[-84.12311,35.37543],[-84.12266,35.37412],[-84.12265,35.37373],[-84.12277,35.37333],[-84.12318,35.37296],[-84.12446,35.37215],[-84.12481,35.37155],[-84.12479,35.37093],[-84.12456,35.37061],[-84.12394,35.37009],[-84.12378,35.36972],[-84.12397,35.36889],[-84.1242,35.36848],[-84.12455,35.36807],[-84.12497,35.36787],[-84.12624,35.3679],[-84.12681,35.3677],[-84.12709,35.36738],[-84.12744,35.36648],[-84.12782,35.36621],[-84.12833,35.3661],[-84.12961,35.36637],[-84.13003,35.36629],[-84.13055,35.366],[-84.1309,35.36556],[-84.13111,35.3648],[-84.13108,35.36427],[-84.13074,35.36284],[-84.13082,35.36231],[-84.13121,35.36196],[-84.13255,35.3615],[-84.13346,35.36103],[-84.13451,35.36004],[-84.13494,35.35923],[-84.1349,35.35874],[-84.13472,35.35841],[-84.13435,35.35813],[-84.13366,35.35793],[-84.13204,35.35792],[-84.13161,35.3577],[-84.1314,35.35747],[-84.13099,35.35544],[-84.13106,35.35408],[-84.13098,35.35381],[-84.13072,35.3535],[-84.13034,35.35332],[-84.12985,35.35326],[-84.1293,35.35335],[-84.12883,35.3536],[-84.12848,35.35402],[-84.12731,35.35603],[-84.12482,35.358],[-84.12415,35.35901],[-84.12299,35.35991],[-84.12254,35.36068],[-84.12226,35.36095],[-84.12024,35.36152],[-84.11807,35.36287],[-84.11367,35.36476],[-84.11258,35.36501],[-84.1116,35.36512],[-84.10978,35.3646],[-84.109,35.36445],[-84.10768,35.36441],[-84.10721,35.36418],[-84.10689,35.36392],[-84.10658,35.36299],[-84.10636,35.36269],[-84.10535,35.36207],[-84.10516,35.36182],[-84.10512,35.36145],[-84.10537,35.36056],[-84.10533,35.36027],[-84.10505,35.36],[-84.10433,35.35957],[-84.10362,35.35866],[-84.10326,35.35854],[-84.10186,35.35866],[-84.1009,35.35854],[-84.10032,35.35828],[-84.09937,35.35733],[-84.099,35.35715],[-84.09851,35.3571],[-84.0966,35.35758],[-84.09569,35.35764],[-84.0949,35.3574],[-84.09386,35.35683],[-84.09345,35.35679],[-84.09307,35.35687],[-84.09105,35.35783],[-84.09051,35.35794],[-84.08987,35.35795],[-84.08917,35.35783],[-84.08719,35.3567],[-84.08647,35.35655],[-84.08579,35.35664],[-84.0847,35.35705],[-84.08372,35.35719],[-84.08285,35.35714],[-84.08246,35.35702],[-84.08106,35.35623],[-84.07942,35.35556],[-84.0788,35.35515],[-84.07822,35.35454],[-84.07795,35.35402],[-84.07775,35.35329],[-84.07742,35.35291],[-84.07715,35.35279],[-84.07563,35.35266],[-84.07415,35.3518],[-84.07215,35.35169],[-84.07008,35.35179],[-84.06924,35.35153],[-84.0674,35.34961],[-84.06737,35.34891],[-84.06771,35.34815],[-84.06761,35.34779],[-84.0673,35.34752],[-84.06702,35.34741],[-84.06557,35.34726],[-84.0654,35.34718],[-84.06504,35.34671],[-84.06473,35.34583],[-84.06439,35.34565],[-84.06394,35.34561],[-84.06208,35.34638],[-84.06096,35.34666],[-84.05983,35.34667],[-84.05767,35.34632],[-84.05726,35.34642],[-84.05659,35.34685],[-84.05612,35.34692],[-84.05382,35.34611],[-84.05345,35.34611],[-84.05216,35.34651],[-84.05112,35.34634],[-84.05072,35.34642],[-84.05004,35.34711],[-84.04972,35.34731],[-84.04943,35.34735],[-84.04909,35.34731],[-84.04787,35.3466],[-84.04742,35.34659],[-84.04571,35.3472],[-84.04275,35.34667],[-84.0423,35.34675],[-84.03985,35.3479],[-84.03865,35.34821],[-84.03827,35.34821],[-84.0379,35.3481],[-84.03755,35.3478],[-84.03708,35.34682],[-84.03618,35.346],[-84.0356,35.34495],[-84.03535,35.34468],[-84.03488,35.34448],[-84.03357,35.34428],[-84.03223,35.34351],[-84.02937,35.34266],[-84.02894,35.34226],[-84.02891,35.34189],[-84.02913,35.34156],[-84.03081,35.34086],[-84.03143,35.34097],[-84.03243,35.34178],[-84.03292,35.34198],[-84.03356,35.34189],[-84.03407,35.34155],[-84.03542,35.34035],[-84.03573,35.33988],[-84.03556,35.33936],[-84.03494,35.33883],[-84.03437,35.33811],[-84.03392,35.33786],[-84.03267,35.33761],[-84.03123,35.33653],[-84.03069,35.3363],[-84.03006,35.33618],[-84.02921,35.33618],[-84.02836,35.33634],[-84.02775,35.33657],[-84.02599,35.33752],[-84.02546,35.33759],[-84.02502,35.33748],[-84.02471,35.33717],[-84.02466,35.33679],[-84.02569,35.33516],[-84.02576,35.33483],[-84.02568,35.33452],[-84.02548,35.33424],[-84.02515,35.33401],[-84.02338,35.3332],[-84.02295,35.33255],[-84.02295,35.33213],[-84.02309,35.3319],[-84.02429,35.33128],[-84.02453,35.33089],[-84.02439,35.32975],[-84.02471,35.32884],[-84.02473,35.32852],[-84.0246,35.32823],[-84.02386,35.32744],[-84.0237,35.32689],[-84.02377,35.32644],[-84.02417,35.32592],[-84.02465,35.32565],[-84.0252,35.3255],[-84.02598,35.32544],[-84.02655,35.3255],[-84.0272,35.32576],[-84.02793,35.32643],[-84.02854,35.3268],[-84.0293,35.32702],[-84.03029,35.32705],[-84.03126,35.32675],[-84.0319,35.32632],[-84.03237,35.3257],[-84.03254,35.32496],[-84.03242,35.32451],[-84.03214,35.32408],[-84.03002,35.32227],[-84.02978,35.32189],[-84.02987,35.32134],[-84.03155,35.31921],[-84.03174,35.31883],[-84.03172,35.31853],[-84.03155,35.31826],[-84.03047,35.31756],[-84.03039,35.31717],[-84.03063,35.31617],[-84.03045,35.31577],[-84.03021,35.31556],[-84.02973,35.31538],[-84.02916,35.31535],[-84.0286,35.31545],[-84.02806,35.31566],[-84.02684,35.31654],[-84.0254,35.31795],[-84.02513,35.31809],[-84.02462,35.31818],[-84.02186,35.31745],[-84.02155,35.31715],[-84.02121,35.31634],[-84.021,35.31611],[-84.01993,35.31571],[-84.01963,35.31542],[-84.01959,35.31488],[-84.02008,35.31427],[-84.02073,35.31396],[-84.02256,35.31345],[-84.023,35.31313],[-84.02319,35.31286],[-84.02339,35.31165],[-84.02393,35.31052],[-84.0239,35.30947],[-84.02429,35.30855],[-84.0238,35.30762],[-84.02378,35.30735],[-84.024,35.30699],[-84.02476,35.30638],[-84.02489,35.30609],[-84.02487,35.30577],[-84.02465,35.30531],[-84.02392,35.30446],[-84.02374,35.30358],[-84.02351,35.30315],[-84.02273,35.3026],[-84.02216,35.30241],[-84.02156,35.30233],[-84.02025,35.30239],[-84.01874,35.30266],[-84.01709,35.3033],[-84.01599,35.30415],[-84.01546,35.30478],[-84.01438,35.30645],[-84.01386,35.30672],[-84.01332,35.30666],[-84.01301,35.30643],[-84.0129,35.30617],[-84.0128,35.3051],[-84.01235,35.30464],[-84.01165,35.3045],[-84.00983,35.30464],[-84.00924,35.30458],[-84.0087,35.30434],[-84.00755,35.30357],[-84.00647,35.30331],[-84.00511,35.30342],[-84.0035,35.3038],[-83.99717,35.30614],[-83.99556,35.30719],[-83.99398,35.30878],[-83.99259,35.30996],[-83.99242,35.31039],[-83.99256,35.31129],[-83.99243,35.31175],[-83.99169,35.31258],[-83.9911,35.31355],[-83.99003,35.31435],[-83.98871,35.31599],[-83.98867,35.31639],[-83.98894,35.3172],[-83.98882,35.31761],[-83.98861,35.31785],[-83.9876,35.31843],[-83.9861,35.31887],[-83.98511,35.31901],[-83.98354,35.3189],[-83.983,35.31898],[-83.98273,35.31919],[-83.98262,35.31945],[-83.98273,35.32036],[-83.98251,35.32081],[-83.98077,35.32169],[-83.97954,35.32248],[-83.97888,35.32277],[-83.97793,35.32293],[-83.97704,35.32265],[-83.97649,35.32205],[-83.97638,35.32165],[-83.97642,35.3214],[-83.9767,35.32109],[-83.97701,35.32096],[-83.97867,35.32076],[-83.9793,35.32059],[-83.9799,35.32031],[-83.98041,35.31994],[-83.9806,35.31958],[-83.9805,35.31914],[-83.97966,35.31837],[-83.97953,35.31811],[-83.97961,35.3177],[-83.97983,35.31746],[-83.98017,35.3173],[-83.98075,35.3172],[-83.98225,35.3174],[-83.98258,35.3173],[-83.98287,35.31703],[-83.98295,35.31668],[-83.98285,35.31638],[-83.98218,35.31578],[-83.98208,35.31539],[-83.98227,35.315],[-83.9835,35.31364],[-83.98357,35.31338],[-83.98345,35.313],[-83.9831,35.31273],[-83.98278,35.31267],[-83.97971,35.31297],[-83.97901,35.31331],[-83.97826,35.31401],[-83.9778,35.31417],[-83.97719,35.31403],[-83.97662,35.31335],[-83.97613,35.31315],[-83.97562,35.3132],[-83.9744,35.31363],[-83.97302,35.31386],[-83.97263,35.314],[-83.97214,35.31433],[-83.97023,35.31635],[-83.96903,35.31725],[-83.96853,35.31736],[-83.96749,35.31719],[-83.96696,35.31724],[-83.96579,35.31781],[-83.96471,35.31864],[-83.96428,35.31887],[-83.96308,35.31911],[-83.9621,35.31959],[-83.96175,35.31968],[-83.96139,35.31968],[-83.96037,35.31945],[-83.96003,35.31952],[-83.95976,35.3197],[-83.95959,35.31994],[-83.95957,35.32023],[-83.95986,35.32077],[-83.96071,35.3215],[-83.96288,35.32299],[-83.9631,35.32322],[-83.96315,35.32368],[-83.96299,35.32394],[-83.96272,35.32411],[-83.96096,35.32427],[-83.95945,35.32495],[-83.95837,35.32502],[-83.95691,35.3254],[-83.95565,35.32544],[-83.95534,35.32561],[-83.95477,35.3263],[-83.95413,35.32686],[-83.95308,35.32743],[-83.94872,35.32852],[-83.94819,35.32883],[-83.94747,35.32949],[-83.94714,35.32967],[-83.94668,35.3297],[-83.94567,35.32947],[-83.94463,35.32965],[-83.94397,35.32994],[-83.94231,35.33097],[-83.94187,35.33112],[-83.94146,35.33109],[-83.94081,35.3308],[-83.94017,35.3303],[-83.93936,35.32939],[-83.93905,35.32922],[-83.93862,35.32913],[-83.93802,35.32924],[-83.93683,35.32995],[-83.93605,35.33027],[-83.93527,35.33047],[-83.93453,35.33049],[-83.93416,35.33029],[-83.93397,35.32995],[-83.93411,35.32919],[-83.93403,35.32878],[-83.9338,35.32847],[-83.9333,35.32813],[-83.93259,35.32788],[-83.93165,35.32778],[-83.93059,35.32784],[-83.92981,35.32802],[-83.92869,35.32851],[-83.92566,35.33059],[-83.92474,35.33196],[-83.92326,35.33303],[-83.92254,35.33383],[-83.92197,35.33473],[-83.92194,35.33582],[-83.9216,35.33622],[-83.92096,35.33633],[-83.91991,35.33605],[-83.91959,35.33566],[-83.9196,35.33475],[-83.91942,35.33441],[-83.91897,35.3342],[-83.91807,35.33417],[-83.9158,35.3343],[-83.91454,35.3345],[-83.91305,35.33505],[-83.91143,35.33601],[-83.91037,35.33631],[-83.90953,35.3364],[-83.90713,35.33633],[-83.90566,35.33661],[-83.90468,35.33713],[-83.90368,35.33833],[-83.90207,35.34057],[-83.90194,35.34157],[-83.90176,35.34192],[-83.90141,35.34211],[-83.89997,35.34249],[-83.8987,35.34341],[-83.89786,35.34387],[-83.89559,35.34461],[-83.89468,35.34535],[-83.8942,35.34558]]]}},{"type":"Feature","properties":{"id":"back-of-the-dragon","name":"Back of the Dragon \u00b7 VA 16","difficulty":3,"character":"Technical"},"geometry":{"type":"MultiLineString","coordinates":[[[-81.51585,36.83584],[-81.5158,36.83649],[-81.51564,36.8369],[-81.51489,36.83801],[-81.51454,36.83833],[-81.51344,36.8386],[-81.51198,36.83917],[-81.50952,36.83928],[-81.5087,36.83945],[-81.50809,36.83981],[-81.50656,36.8413],[-81.50191,36.84394],[-81.50269,36.84506],[-81.50325,36.84554],[-81.50369,36.84573],[-81.50523,36.84602],[-81.5058,36.84624],[-81.50641,36.84662],[-81.50701,36.84763],[-81.50758,36.84887],[-81.50808,36.8496],[-81.50915,36.85043],[-81.51156,36.85168],[-81.51232,36.85234],[-81.51293,36.8532],[-81.51343,36.85462],[-81.51378,36.85596],[-81.51372,36.85724],[-81.51386,36.85772],[-81.51408,36.85801],[-81.51437,36.8582],[-81.51511,36.85842],[-81.51692,36.85839],[-81.51882,36.85954],[-81.52137,36.86024],[-81.52183,36.86064],[-81.52214,36.86154],[-81.52234,36.86172],[-81.52314,36.86167],[-81.52428,36.86201],[-81.52576,36.86208],[-81.5261,36.86218],[-81.52636,36.86243],[-81.5268,36.86331],[-81.52774,36.86449],[-81.52804,36.86549],[-81.52791,36.86627],[-81.52618,36.86953],[-81.52584,36.86992],[-81.52529,36.87034],[-81.52259,36.87158],[-81.52229,36.87209],[-81.52237,36.87259],[-81.52289,36.87352],[-81.523,36.87432],[-81.52345,36.87572],[-81.52361,36.87688],[-81.52528,36.87962],[-81.52559,36.88032],[-81.52572,36.88125],[-81.52559,36.88281],[-81.52584,36.88338],[-81.52822,36.88469],[-81.52952,36.88526],[-81.532,36.88599],[-81.53352,36.88656],[-81.53375,36.88685],[-81.53414,36.88781],[-81.53396,36.88837],[-81.53344,36.88879],[-81.5333,36.889],[-81.53334,36.88925],[-81.53364,36.88942],[-81.53598,36.88945],[-81.53679,36.8896],[-81.53715,36.88951],[-81.53754,36.88922],[-81.53786,36.88912],[-81.53874,36.88925],[-81.53986,36.88899],[-81.54087,36.88908],[-81.54198,36.88862],[-81.54357,36.88868],[-81.54639,36.88816],[-81.54657,36.8883],[-81.54571,36.88893],[-81.54463,36.88915],[-81.54388,36.88972],[-81.54286,36.89011],[-81.54232,36.89045],[-81.542,36.89089],[-81.54207,36.89155],[-81.54231,36.8921],[-81.54227,36.89235],[-81.5419,36.89245],[-81.54055,36.89214],[-81.54,36.8923],[-81.53847,36.89365],[-81.53837,36.89404],[-81.53847,36.89497],[-81.53836,36.89525],[-81.53813,36.89534],[-81.5373,36.89539],[-81.53679,36.89556],[-81.5365,36.89577],[-81.53603,36.89645],[-81.53545,36.89677],[-81.53517,36.89706],[-81.53514,36.89749],[-81.53582,36.89899],[-81.53679,36.90028],[-81.53691,36.90064],[-81.53678,36.90073],[-81.5366,36.90071],[-81.53475,36.89979],[-81.53419,36.89967],[-81.53371,36.8999],[-81.53316,36.90055],[-81.53311,36.90076],[-81.53331,36.90083],[-81.534,36.90038],[-81.53444,36.90035],[-81.5349,36.90057],[-81.53569,36.90129],[-81.5364,36.90313],[-81.53684,36.90362],[-81.53747,36.90463],[-81.53789,36.90491],[-81.5377,36.90532],[-81.53768,36.90577],[-81.53753,36.90585],[-81.53713,36.90575],[-81.53656,36.9058],[-81.53588,36.90624],[-81.5358,36.9064],[-81.53587,36.90693],[-81.53541,36.9074],[-81.53544,36.90821],[-81.53474,36.90826],[-81.53436,36.90879],[-81.53361,36.90869],[-81.53299,36.90896],[-81.53299,36.90934],[-81.53361,36.91032],[-81.53346,36.91043],[-81.53306,36.91039],[-81.5329,36.91051],[-81.53327,36.91164],[-81.53322,36.91192],[-81.53279,36.91189],[-81.53194,36.9115],[-81.53174,36.91157],[-81.53177,36.91184],[-81.53235,36.91298],[-81.53241,36.91337],[-81.53231,36.91369],[-81.53195,36.91423],[-81.53173,36.91566],[-81.53149,36.91592],[-81.53091,36.9162],[-81.53062,36.9162],[-81.53004,36.91598],[-81.52986,36.91602],[-81.5298,36.91615],[-81.5299,36.91655],[-81.5298,36.91686],[-81.52872,36.91719],[-81.52854,36.91749],[-81.5287,36.91782],[-81.52979,36.91829],[-81.53064,36.91886],[-81.53122,36.9194],[-81.53172,36.92041],[-81.53225,36.92221],[-81.53212,36.92235],[-81.53185,36.92229],[-81.53145,36.92204],[-81.53082,36.92139],[-81.53051,36.92142],[-81.5305,36.92179],[-81.53139,36.92368],[-81.53139,36.92399],[-81.53115,36.92421],[-81.53034,36.92452],[-81.52997,36.92455],[-81.52952,36.92441],[-81.52928,36.92444],[-81.52893,36.92495],[-81.52802,36.92519],[-81.52762,36.92561],[-81.52765,36.92632],[-81.52834,36.92876],[-81.52784,36.93151],[-81.52849,36.93254],[-81.52896,36.93414],[-81.52902,36.93497],[-81.5289,36.93549],[-81.52872,36.93574],[-81.52823,36.93608],[-81.52665,36.93687],[-81.52646,36.93709],[-81.52639,36.9375],[-81.52765,36.93926],[-81.52934,36.94105],[-81.53074,36.94438],[-81.53408,36.94846],[-81.53432,36.9488],[-81.53441,36.94922],[-81.5343,36.94968],[-81.53403,36.9501],[-81.53275,36.95161],[-81.53192,36.9523],[-81.53129,36.95262],[-81.53028,36.9529],[-81.5282,36.95304],[-81.52765,36.95318],[-81.52698,36.9536],[-81.52657,36.95431],[-81.52597,36.95662],[-81.52644,36.95783],[-81.5264,36.95927],[-81.52741,36.96093],[-81.52761,36.96196],[-81.52796,36.96223],[-81.52881,36.96226],[-81.52932,36.96271],[-81.53027,36.96323],[-81.5308,36.964],[-81.53158,36.96474],[-81.53231,36.96575],[-81.53234,36.96689],[-81.53224,36.96711],[-81.53146,36.9676],[-81.53015,36.96773],[-81.52974,36.96795],[-81.5296,36.96818],[-81.52954,36.96866],[-81.52907,36.96931],[-81.52866,36.9701],[-81.529,36.97045],[-81.52963,36.97147],[-81.53009,36.97294],[-81.53037,36.97351],[-81.53151,36.97504],[-81.53213,36.97683],[-81.53197,36.97723],[-81.5316,36.97753],[-81.52913,36.9785],[-81.52863,36.9788],[-81.52698,36.98019],[-81.52518,36.98152],[-81.52492,36.98183],[-81.52484,36.98216],[-81.52492,36.98248],[-81.52539,36.98318],[-81.52629,36.9841],[-81.52655,36.98423],[-81.52688,36.98421],[-81.52749,36.98378],[-81.528,36.98364],[-81.52833,36.98376],[-81.52832,36.98423],[-81.52857,36.98441],[-81.52974,36.9845],[-81.53008,36.98413],[-81.53059,36.98399],[-81.53103,36.98428],[-81.53162,36.98403],[-81.53196,36.98415],[-81.532,36.98443],[-81.53167,36.9849],[-81.52946,36.98629],[-81.52931,36.98665],[-81.52984,36.98877],[-81.53005,36.98913],[-81.53123,36.99001],[-81.53188,36.99033],[-81.53218,36.99039],[-81.53351,36.99032],[-81.53378,36.99053],[-81.53376,36.99121],[-81.53221,36.99288],[-81.53184,36.99306],[-81.53056,36.99322],[-81.53034,36.99336],[-81.53027,36.99356],[-81.5304,36.99379],[-81.53061,36.99389],[-81.53332,36.99424],[-81.53355,36.99436],[-81.53382,36.99564],[-81.53364,36.99696],[-81.53332,36.99755],[-81.53278,36.99804],[-81.53282,36.99864],[-81.53247,36.99913],[-81.53244,36.99994],[-81.53226,36.99999],[-81.53145,36.99984],[-81.53119,36.99996],[-81.53079,37.00038],[-81.52988,37.00045],[-81.5293,37.00167],[-81.52911,37.00175],[-81.52845,37.0017],[-81.52826,37.00178],[-81.52782,37.00272],[-81.52722,37.00262],[-81.52665,37.0023],[-81.52633,37.00231],[-81.52602,37.00264],[-81.52562,37.00345],[-81.52513,37.00356],[-81.52446,37.00343],[-81.52427,37.00357],[-81.524,37.00403],[-81.52378,37.00415],[-81.52314,37.00382],[-81.52255,37.00398],[-81.52221,37.0037],[-81.522,37.00369],[-81.52169,37.00388],[-81.52141,37.0044],[-81.52123,37.00449],[-81.52021,37.00393],[-81.51982,37.00388],[-81.5194,37.00396],[-81.51898,37.00433],[-81.51882,37.00495],[-81.51917,37.00565],[-81.51977,37.0063],[-81.51972,37.00657],[-81.5188,37.00658],[-81.51856,37.00649],[-81.51761,37.00539],[-81.51734,37.00521],[-81.51716,37.00529],[-81.51708,37.0057],[-81.51667,37.00595],[-81.51662,37.00635],[-81.51593,37.00648],[-81.51573,37.00669],[-81.51666,37.00785],[-81.51789,37.0091],[-81.5187,37.00976],[-81.51914,37.01],[-81.51987,37.01094],[-81.52023,37.01172],[-81.52083,37.01206],[-81.52138,37.01278],[-81.52168,37.01268],[-81.522,37.01228],[-81.5214,37.01158],[-81.52144,37.01141],[-81.52169,37.01123],[-81.52176,37.01107],[-81.52116,37.01065],[-81.52135,37.01021],[-81.5209,37.00953],[-81.52098,37.00938],[-81.52115,37.00932],[-81.52226,37.00952],[-81.52284,37.00981],[-81.523,37.01009],[-81.52269,37.01074],[-81.52285,37.01113],[-81.52344,37.01189],[-81.52416,37.0124],[-81.52474,37.0132],[-81.52548,37.01388],[-81.52602,37.01418],[-81.52727,37.01424],[-81.52936,37.01409],[-81.53274,37.01247],[-81.53306,37.01238],[-81.53338,37.01247],[-81.53351,37.01265],[-81.53347,37.01288],[-81.53211,37.01384],[-81.53184,37.01439],[-81.53191,37.01463],[-81.53232,37.01516],[-81.5328,37.01735],[-81.53266,37.01747],[-81.53247,37.01743],[-81.53211,37.0169],[-81.53186,37.01683],[-81.53157,37.01714],[-81.53165,37.0176],[-81.53157,37.01781],[-81.53128,37.01791],[-81.53083,37.01777],[-81.53059,37.01779],[-81.52996,37.01831],[-81.53028,37.01931],[-81.52955,37.02],[-81.52924,37.02142],[-81.52866,37.02222],[-81.5286,37.02246],[-81.52889,37.02305],[-81.52886,37.02376],[-81.52916,37.0245],[-81.52937,37.02477],[-81.53013,37.02535],[-81.53044,37.0261],[-81.53047,37.02658],[-81.53025,37.02682],[-81.52968,37.02697],[-81.52925,37.02696],[-81.52852,37.02673],[-81.52821,37.02682],[-81.52776,37.02797],[-81.52686,37.02856],[-81.5266,37.02895],[-81.52671,37.02922],[-81.52746,37.02993],[-81.52797,37.0308],[-81.52802,37.03141],[-81.52779,37.03153],[-81.52731,37.03148],[-81.52695,37.03159],[-81.52575,37.03267],[-81.52489,37.03315],[-81.52408,37.03397],[-81.52399,37.03417],[-81.52402,37.03556],[-81.52387,37.03578],[-81.52303,37.03592],[-81.52234,37.03635],[-81.52114,37.03645],[-81.5208,37.03668],[-81.52072,37.03689],[-81.52083,37.03737],[-81.52076,37.03827],[-81.51924,37.03934],[-81.5189,37.04025],[-81.51829,37.04092],[-81.51829,37.04108],[-81.5186,37.04139],[-81.51871,37.04169],[-81.51874,37.04213],[-81.51863,37.04256],[-81.51778,37.04416],[-81.51673,37.04502],[-81.51663,37.04579],[-81.51649,37.04605],[-81.5162,37.04619],[-81.51513,37.04624],[-81.51451,37.04703],[-81.51274,37.0475],[-81.51144,37.04833],[-81.51121,37.0487],[-81.5114,37.04903],[-81.51185,37.04913],[-81.51216,37.04905],[-81.51338,37.04839],[-81.51404,37.04834],[-81.5168,37.0493],[-81.51782,37.04999],[-81.51949,37.05158],[-81.51992,37.05226],[-81.52049,37.05369],[-81.52099,37.05422],[-81.5215,37.05445],[-81.52366,37.05504],[-81.5247,37.05554],[-81.52832,37.0586],[-81.52887,37.05867],[-81.52976,37.05829],[-81.53014,37.05821],[-81.53059,37.05831],[-81.53083,37.05852],[-81.53181,37.06068],[-81.53178,37.06154],[-81.53098,37.063],[-81.52934,37.06473],[-81.52839,37.06662],[-81.52743,37.06769],[-81.5271,37.06849],[-81.52693,37.07336],[-81.52712,37.07405],[-81.52828,37.07665],[-81.52829,37.07732],[-81.52784,37.07894],[-81.528,37.07963],[-81.52841,37.0802],[-81.5292,37.08069],[-81.53145,37.08134],[-81.53275,37.08154],[-81.53379,37.08154],[-81.53569,37.08135],[-81.53851,37.0806],[-81.54087,37.08024],[-81.54354,37.07963],[-81.54609,37.07931],[-81.54788,37.07878],[-81.54842,37.07878],[-81.54913,37.07903],[-81.54958,37.07946],[-81.54976,37.07994],[-81.54981,37.08254],[-81.54998,37.08308],[-81.55095,37.08463],[-81.55139,37.08505],[-81.55224,37.0855],[-81.55295,37.08657],[-81.553,37.08696],[-81.55281,37.0894],[-81.55389,37.09146],[-81.55435,37.09455],[-81.55468,37.09487],[-81.55505,37.09501],[-81.55788,37.09546],[-81.55851,37.09591],[-81.55878,37.0966],[-81.5585,37.09865],[-81.55833,37.09889],[-81.5562,37.09951],[-81.55181,37.10161],[-81.54923,37.10351],[-81.53957,37.10833],[-81.5322,37.11288],[-81.53098,37.11331],[-81.52644,37.11429],[-81.52385,37.11524],[-81.52204,37.11557]]]}},{"type":"Feature","properties":{"id":"devils-whip","name":"Devil's Whip \u00b7 NC 80","difficulty":3,"character":"Technical"},"geometry":{"type":"MultiLineString","coordinates":[[[-82.16472,35.77073],[-82.16443,35.77053],[-82.16431,35.77024],[-82.16439,35.76991],[-82.16482,35.76933],[-82.16496,35.76875],[-82.16495,35.76815],[-82.16467,35.76757],[-82.16477,35.76741],[-82.16549,35.76725],[-82.16576,35.76711],[-82.16616,35.76661],[-82.16618,35.76625],[-82.16603,35.76621],[-82.16581,35.76665],[-82.16541,35.76693],[-82.16467,35.76687],[-82.16351,35.76694],[-82.16334,35.76703],[-82.16334,35.76728],[-82.16374,35.76773],[-82.16381,35.76858],[-82.16366,35.76885],[-82.16295,35.76923],[-82.16278,35.76915],[-82.16277,35.76899],[-82.16345,35.76874],[-82.16352,35.7686],[-82.16343,35.76834],[-82.1631,35.7678],[-82.16198,35.76714],[-82.16187,35.76694],[-82.16196,35.76677],[-82.16269,35.7662],[-82.16374,35.76586],[-82.16379,35.76575],[-82.16369,35.76564],[-82.16261,35.76587],[-82.16153,35.76628],[-82.16101,35.76687],[-82.161,35.76706],[-82.16127,35.7676],[-82.16113,35.76775],[-82.16038,35.76773],[-82.15986,35.76723],[-82.1591,35.76705],[-82.15912,35.76686],[-82.15953,35.76631],[-82.15945,35.76586],[-82.15809,35.76438],[-82.15742,35.76401],[-82.15745,35.76383],[-82.15797,35.76348],[-82.15804,35.76325],[-82.15727,35.76209],[-82.15644,35.76146],[-82.15649,35.76103],[-82.15671,35.76059],[-82.15631,35.76019],[-82.15621,35.7594],[-82.15592,35.75915],[-82.1553,35.75894],[-82.15499,35.7587],[-82.15496,35.75846],[-82.15525,35.75785],[-82.1551,35.75755],[-82.15455,35.75716],[-82.15398,35.75705],[-82.15374,35.75673],[-82.15368,35.75651],[-82.1538,35.75619],[-82.15374,35.75589],[-82.15386,35.75562],[-82.15389,35.75462],[-82.15376,35.75446],[-82.15328,35.75436],[-82.15315,35.75418],[-82.1531,35.75359],[-82.15323,35.75319],[-82.1527,35.75287],[-82.15276,35.75233],[-82.15246,35.75192],[-82.15254,35.75116],[-82.15242,35.7509],[-82.15221,35.75074],[-82.15192,35.75072],[-82.15086,35.75133],[-82.15029,35.75151],[-82.14961,35.75197],[-82.14897,35.7528],[-82.14825,35.7535],[-82.14804,35.7535],[-82.14793,35.75341],[-82.14801,35.75284],[-82.14871,35.75077],[-82.15051,35.74873],[-82.15052,35.74772],[-82.15011,35.74636],[-82.15002,35.74554],[-82.14909,35.74445],[-82.14775,35.74367],[-82.14706,35.74303],[-82.14665,35.74247],[-82.14633,35.74168],[-82.1455,35.74069],[-82.14503,35.73992],[-82.14375,35.73905],[-82.14298,35.73888],[-82.14248,35.73865],[-82.14212,35.73801],[-82.14193,35.73794],[-82.13793,35.73785],[-82.13729,35.73774],[-82.13578,35.73721],[-82.13539,35.73717],[-82.13504,35.73726],[-82.13483,35.73747],[-82.13504,35.73812],[-82.13492,35.73832],[-82.13445,35.73856],[-82.13381,35.73856],[-82.13315,35.7383],[-82.13252,35.73791],[-82.13016,35.73577],[-82.12977,35.73558],[-82.12825,35.7358],[-82.1243,35.73772],[-82.12235,35.7381],[-82.12162,35.73816],[-82.12127,35.738],[-82.1208,35.7375],[-82.12074,35.73724],[-82.12083,35.73657],[-82.12065,35.73629],[-82.12042,35.73624],[-82.11966,35.73646],[-82.11907,35.73643],[-82.11759,35.73507],[-82.11729,35.73511],[-82.11679,35.73549],[-82.11628,35.73551],[-82.11551,35.73463],[-82.11384,35.73396],[-82.11324,35.73321],[-82.11199,35.73293],[-82.11159,35.73253],[-82.11133,35.73248],[-82.11026,35.73278],[-82.10926,35.73346],[-82.10883,35.73358],[-82.10714,35.73312],[-82.10654,35.73263],[-82.10624,35.73249],[-82.10591,35.7326],[-82.10547,35.73304],[-82.10508,35.73311],[-82.10362,35.73301],[-82.10272,35.73262],[-82.10212,35.73255],[-82.10192,35.73271],[-82.10193,35.73298],[-82.103,35.73439],[-82.10301,35.73476],[-82.10282,35.73498],[-82.10241,35.73515],[-82.10103,35.73499],[-82.09881,35.73389],[-82.09704,35.73315],[-82.09685,35.7329],[-82.09647,35.73181],[-82.0961,35.73141],[-82.09572,35.73125],[-82.09424,35.73098],[-82.09395,35.73083],[-82.09332,35.72908],[-82.09289,35.72848],[-82.09256,35.72821],[-82.09187,35.72793],[-82.09098,35.72815],[-82.09034,35.72787],[-82.09005,35.7274],[-82.09,35.72708],[-82.09015,35.72413],[-82.08998,35.72374],[-82.08959,35.72337],[-82.08902,35.7232],[-82.08695,35.7229],[-82.08617,35.72302],[-82.08554,35.72347],[-82.08443,35.72324],[-82.0842,35.72307],[-82.08397,35.7223],[-82.08287,35.72151],[-82.08304,35.72087],[-82.08294,35.72068],[-82.08276,35.7206],[-82.08251,35.72061],[-82.08221,35.72082],[-82.08132,35.72217],[-82.0806,35.72277],[-82.08025,35.72279],[-82.07998,35.72265],[-82.07908,35.72136],[-82.07829,35.721],[-82.07779,35.72043],[-82.07771,35.72006],[-82.07776,35.71922],[-82.07765,35.71878],[-82.0774,35.71841],[-82.07692,35.718],[-82.07616,35.71764],[-82.07182,35.71675],[-82.07129,35.71651],[-82.07111,35.7163],[-82.07096,35.7159],[-82.07091,35.71345],[-82.06938,35.70459],[-82.0693,35.70368],[-82.06788,35.6978],[-82.06746,35.69725],[-82.06192,35.6921]]]}},{"type":"Feature","properties":{"id":"wolf-pen-gap","name":"Wolf Pen Gap Road \u00b7 GA 180","difficulty":2,"character":"Technical"},"geometry":{"type":"MultiLineString","coordinates":[[[-84.02234,34.68886],[-84.02174,34.6891],[-84.01912,34.69091],[-84.01798,34.69274],[-84.01766,34.69446],[-84.01734,34.69468],[-84.01596,34.69507],[-84.01557,34.69529],[-84.01515,34.6966],[-84.01452,34.69766],[-84.01428,34.69784],[-84.01328,34.69828],[-84.01284,34.69871],[-84.01262,34.69928],[-84.01248,34.70037],[-84.01228,34.70074],[-84.01165,34.70128],[-84.01107,34.70201],[-84.00972,34.70302],[-84.00762,34.70506],[-84.00615,34.70596],[-84.00552,34.70621],[-84.00404,34.70644],[-84.00219,34.70646],[-84.00062,34.70659],[-83.99791,34.7073],[-83.99741,34.70751],[-83.99676,34.70935],[-83.9974,34.71039],[-83.99745,34.71147],[-83.99592,34.71541],[-83.99566,34.71585],[-83.9945,34.71665],[-83.99307,34.71806],[-83.99192,34.7185],[-83.99023,34.71959],[-83.98871,34.72013],[-83.9878,34.7209],[-83.98695,34.72141],[-83.98616,34.72168],[-83.98488,34.72195],[-83.98427,34.72225],[-83.98383,34.72271],[-83.983,34.72408],[-83.98091,34.72509],[-83.97845,34.72718],[-83.97825,34.72748],[-83.97799,34.72824],[-83.9775,34.73087],[-83.97731,34.73131],[-83.97676,34.73209],[-83.97661,34.73246],[-83.97651,34.73325],[-83.97655,34.73387],[-83.97743,34.7349],[-83.97771,34.73568],[-83.97768,34.73608],[-83.97728,34.73706],[-83.97718,34.73762],[-83.9772,34.73846],[-83.97743,34.73913],[-83.9774,34.73935],[-83.97709,34.73999],[-83.97685,34.74022],[-83.97586,34.74043],[-83.97495,34.74107],[-83.97438,34.74183],[-83.97429,34.74201],[-83.9743,34.74326],[-83.97405,34.74451],[-83.97415,34.74509],[-83.97435,34.74542],[-83.97638,34.74724],[-83.9773,34.74853],[-83.97745,34.74908],[-83.97754,34.75029],[-83.97709,34.75117],[-83.97648,34.75192],[-83.97555,34.75228],[-83.97357,34.75364],[-83.97339,34.75405],[-83.97329,34.75485],[-83.97308,34.75509],[-83.97253,34.75528],[-83.97149,34.75523],[-83.97096,34.75539],[-83.96966,34.75622],[-83.96668,34.75788],[-83.96579,34.75873],[-83.96521,34.75901],[-83.96485,34.75893],[-83.96459,34.75842],[-83.96428,34.75814],[-83.9626,34.75761],[-83.9623,34.75762],[-83.96139,34.75848],[-83.96096,34.75904],[-83.9604,34.75934],[-83.96007,34.75997],[-83.95985,34.76008],[-83.95926,34.75996],[-83.95902,34.76014],[-83.9585,34.76086],[-83.95792,34.7608],[-83.95753,34.76086],[-83.9572,34.76064],[-83.95682,34.76061],[-83.95629,34.76074],[-83.95438,34.76163],[-83.95418,34.76191],[-83.95357,34.76389],[-83.95336,34.76407],[-83.95259,34.7639],[-83.95011,34.76424],[-83.94981,34.76421],[-83.9497,34.76408],[-83.94979,34.76361],[-83.94971,34.76339],[-83.94894,34.76304],[-83.94863,34.76246],[-83.94829,34.7621],[-83.94794,34.76209],[-83.94728,34.76229],[-83.94702,34.76243],[-83.94684,34.76266],[-83.94641,34.76286],[-83.9462,34.76346],[-83.94528,34.76446],[-83.94495,34.76521],[-83.94483,34.76584],[-83.94394,34.76666],[-83.9432,34.76687],[-83.94255,34.76719],[-83.94136,34.76691],[-83.94017,34.76696],[-83.93995,34.76687],[-83.93972,34.76652],[-83.93958,34.76602],[-83.93991,34.76473],[-83.93986,34.76454],[-83.93965,34.76449],[-83.93949,34.76521],[-83.93914,34.7658],[-83.93907,34.76636],[-83.93961,34.76792],[-83.93953,34.76806],[-83.93911,34.76801],[-83.93853,34.76773],[-83.93559,34.76665],[-83.9351,34.76595],[-83.93464,34.76579],[-83.93407,34.7658],[-83.93389,34.76538],[-83.93344,34.765],[-83.93327,34.76499],[-83.93267,34.76529],[-83.93217,34.76481],[-83.93177,34.76477],[-83.93121,34.76499],[-83.93119,34.76555],[-83.93105,34.76568],[-83.92984,34.76568],[-83.92961,34.76597],[-83.92908,34.76611],[-83.92866,34.76651],[-83.92799,34.76642],[-83.92636,34.76721],[-83.92617,34.76716],[-83.92585,34.76686],[-83.92535,34.76671],[-83.92475,34.76688],[-83.92423,34.76727],[-83.92414,34.76755],[-83.92417,34.7681],[-83.92375,34.76878],[-83.92356,34.76893],[-83.92282,34.7687],[-83.92163,34.76873],[-83.91958,34.76929],[-83.9187,34.76984],[-83.91794,34.77048],[-83.91741,34.77122],[-83.91705,34.77199],[-83.91678,34.7723],[-83.9164,34.77252],[-83.91577,34.77261],[-83.91533,34.77253],[-83.91423,34.77186]]]}},{"type":"Feature","properties":{"id":"richard-russell-scenic-highway","name":"Richard B. Russell Scenic Highway \u00b7 GA 348","difficulty":2,"character":"Medium speed"},"geometry":{"type":"MultiLineString","coordinates":[[[-83.77055,34.69368],[-83.77128,34.6934],[-83.77178,34.69344],[-83.77221,34.69364],[-83.7744,34.69507],[-83.77631,34.69506],[-83.77756,34.6953],[-83.77792,34.69549],[-83.77812,34.69584],[-83.77832,34.69663],[-83.77851,34.69684],[-83.77953,34.6974],[-83.77995,34.69831],[-83.78065,34.69921],[-83.78076,34.70072],[-83.78044,34.70164],[-83.78043,34.70198],[-83.7806,34.70222],[-83.7811,34.70245],[-83.78216,34.7028],[-83.78292,34.70319],[-83.78328,34.70314],[-83.78348,34.70302],[-83.78406,34.70229],[-83.78496,34.70195],[-83.78526,34.70173],[-83.78576,34.70078],[-83.78604,34.70054],[-83.78645,34.70046],[-83.78693,34.70064],[-83.78714,34.70095],[-83.78732,34.70227],[-83.78754,34.70255],[-83.78821,34.70292],[-83.78841,34.70327],[-83.78837,34.70352],[-83.78767,34.70455],[-83.78732,34.70486],[-83.78703,34.70493],[-83.78627,34.70488],[-83.78593,34.70498],[-83.78573,34.70515],[-83.78566,34.70542],[-83.78599,34.70613],[-83.78603,34.70657],[-83.78576,34.70689],[-83.78403,34.70822],[-83.78403,34.70854],[-83.78437,34.70921],[-83.78361,34.71008],[-83.78356,34.71032],[-83.78366,34.71051],[-83.78528,34.71126],[-83.7855,34.71125],[-83.78581,34.71109],[-83.78637,34.71012],[-83.78683,34.70995],[-83.78712,34.70999],[-83.78823,34.71115],[-83.78859,34.71253],[-83.78878,34.71274],[-83.78927,34.7128],[-83.79001,34.71227],[-83.7902,34.71224],[-83.79049,34.71229],[-83.79121,34.71272],[-83.79132,34.71293],[-83.79119,34.71366],[-83.79193,34.71496],[-83.79202,34.71592],[-83.79219,34.71627],[-83.79283,34.71671],[-83.79398,34.71716],[-83.79488,34.71776],[-83.79521,34.71788],[-83.79603,34.71789],[-83.79629,34.71779],[-83.79675,34.71731],[-83.79705,34.71724],[-83.7973,34.71728],[-83.79758,34.71768],[-83.79809,34.7193],[-83.79874,34.71963],[-83.80033,34.71954],[-83.8008,34.71972],[-83.80097,34.72048],[-83.80113,34.72065],[-83.80239,34.72096],[-83.80264,34.72109],[-83.80297,34.72185],[-83.80404,34.72283],[-83.80624,34.72368],[-83.80775,34.72472],[-83.80855,34.72548],[-83.80856,34.72611],[-83.80893,34.72646],[-83.80948,34.72641],[-83.81022,34.72593],[-83.81099,34.72577],[-83.81141,34.72599],[-83.81382,34.72795],[-83.81423,34.72814],[-83.81457,34.72822],[-83.81657,34.72835],[-83.817,34.72863],[-83.81771,34.72945],[-83.81839,34.72975],[-83.81903,34.7297],[-83.81985,34.72949],[-83.82026,34.72945],[-83.82057,34.72952],[-83.82193,34.73016],[-83.82358,34.73119],[-83.82403,34.73109],[-83.82476,34.7306],[-83.82509,34.73048],[-83.8257,34.73043],[-83.82683,34.7306],[-83.8272,34.73054],[-83.82775,34.73016],[-83.82792,34.72983],[-83.82797,34.72938],[-83.82799,34.72675],[-83.82843,34.72618],[-83.82905,34.72582],[-83.83021,34.72579],[-83.83139,34.72613],[-83.83259,34.72658],[-83.83444,34.72781],[-83.8349,34.72792],[-83.83526,34.7279],[-83.83632,34.72774],[-83.83708,34.72737],[-83.83722,34.72723],[-83.83733,34.72684],[-83.83701,34.72604],[-83.83704,34.72569],[-83.83776,34.72501],[-83.83846,34.72497],[-83.84103,34.72638],[-83.84245,34.72737],[-83.84349,34.72794],[-83.84385,34.72869],[-83.84429,34.72883],[-83.84461,34.72874],[-83.84501,34.72847],[-83.84612,34.72711],[-83.8467,34.72664],[-83.84745,34.7263],[-83.84786,34.72637],[-83.84806,34.72653],[-83.84822,34.72701],[-83.84863,34.72977],[-83.84847,34.7315],[-83.84848,34.73316],[-83.84817,34.73417],[-83.84827,34.73515],[-83.84822,34.73536],[-83.84752,34.73642],[-83.84733,34.73763],[-83.84687,34.73873],[-83.84696,34.74044],[-83.84668,34.74186],[-83.84628,34.7426],[-83.84606,34.74332],[-83.84519,34.74439],[-83.84539,34.74544],[-83.84532,34.74563],[-83.84453,34.74635],[-83.84419,34.74684],[-83.8442,34.74822],[-83.84469,34.74904],[-83.84537,34.74985],[-83.84578,34.75009],[-83.84665,34.75031],[-83.84772,34.75045],[-83.84826,34.75067],[-83.84844,34.75081],[-83.84894,34.75173],[-83.84964,34.7523],[-83.85149,34.7535],[-83.8548,34.75493],[-83.85526,34.75525],[-83.85643,34.75645],[-83.85707,34.75673],[-83.85864,34.7568],[-83.85904,34.75694],[-83.85948,34.75751],[-83.85945,34.75846],[-83.85959,34.75879],[-83.86048,34.75977],[-83.86164,34.76076],[-83.86219,34.76093],[-83.86502,34.76064],[-83.86626,34.76081],[-83.86929,34.76161],[-83.86971,34.76179],[-83.87057,34.76242],[-83.87171,34.76267],[-83.87303,34.76317],[-83.87449,34.76392],[-83.87814,34.76648],[-83.87879,34.76664],[-83.88085,34.76669],[-83.88171,34.76705],[-83.88244,34.76773],[-83.88389,34.77014],[-83.88371,34.77076],[-83.88216,34.77219],[-83.88052,34.77515],[-83.87996,34.77821],[-83.87931,34.7852],[-83.87913,34.7859],[-83.87825,34.78757],[-83.87761,34.79106],[-83.87764,34.79148],[-83.87838,34.79263],[-83.87847,34.79315],[-83.87831,34.79346],[-83.87746,34.79447],[-83.87739,34.79507]]]}},{"type":"Feature","properties":{"id":"moonshiner-28","name":"Moonshiner 28 \u00b7 NC 28","difficulty":3,"character":"Technical"},"geometry":{"type":"MultiLineString","coordinates":[[[-83.9193,35.4647],[-83.91862,35.46422],[-83.91825,35.46421],[-83.91807,35.46438],[-83.91776,35.46518],[-83.91757,35.4654],[-83.91556,35.46673],[-83.91477,35.46738],[-83.91429,35.46753],[-83.91339,35.46736],[-83.91247,35.46758],[-83.91155,35.46746],[-83.91134,35.46765],[-83.91128,35.46823],[-83.91108,35.4684],[-83.91081,35.46842],[-83.91013,35.46796],[-83.90944,35.46772],[-83.90792,35.46785],[-83.90717,35.46781],[-83.90674,35.46741],[-83.90496,35.46669],[-83.90432,35.46621],[-83.90362,35.46601],[-83.90318,35.4657],[-83.90276,35.46571],[-83.90238,35.46582],[-83.90148,35.46632],[-83.90113,35.46639],[-83.90095,35.46627],[-83.90077,35.46578],[-83.90002,35.4656],[-83.89987,35.465],[-83.89904,35.46424],[-83.89685,35.46346],[-83.89584,35.46321],[-83.89528,35.46273],[-83.89487,35.46266],[-83.89322,35.46302],[-83.8923,35.46336],[-83.89104,35.46352],[-83.89017,35.46375],[-83.88945,35.4637],[-83.88903,35.46376],[-83.88844,35.46409],[-83.88793,35.46423],[-83.88741,35.4646],[-83.88715,35.4646],[-83.88653,35.46419],[-83.88618,35.46414],[-83.8844,35.46416],[-83.88246,35.46453],[-83.88202,35.4648],[-83.88175,35.46554],[-83.88113,35.46618],[-83.88079,35.46634],[-83.88018,35.46633],[-83.87953,35.46699],[-83.87918,35.46708],[-83.87907,35.46695],[-83.87914,35.46656],[-83.87958,35.46584],[-83.8802,35.4652],[-83.88001,35.46471],[-83.88012,35.46398],[-83.87993,35.46386],[-83.8791,35.46376],[-83.87787,35.46313],[-83.87623,35.46267],[-83.8753,35.4617],[-83.87344,35.46117],[-83.8721,35.46004],[-83.87058,35.45935],[-83.86992,35.45876],[-83.86929,35.45835],[-83.86865,35.4572],[-83.86775,35.45647],[-83.86744,35.45585],[-83.86673,35.45497],[-83.86654,35.45335],[-83.86658,35.45182],[-83.86637,35.45089],[-83.86578,35.44975],[-83.86526,35.44945],[-83.86433,35.44937],[-83.86361,35.44948],[-83.86182,35.45],[-83.86027,35.45057],[-83.85923,35.45079],[-83.85759,35.45098],[-83.85586,35.45153],[-83.85491,35.45218],[-83.85371,35.45254],[-83.85147,35.45293],[-83.85021,35.45291],[-83.8484,35.45304],[-83.84704,35.45354],[-83.84589,35.45381],[-83.84509,35.45414],[-83.84446,35.45423],[-83.8436,35.45416],[-83.84242,35.45374],[-83.84034,35.45334],[-83.84031,35.45306],[-83.84075,35.45222],[-83.8407,35.45194],[-83.83977,35.45057],[-83.83857,35.44958],[-83.83812,35.44941],[-83.83747,35.44944],[-83.83565,35.44979],[-83.83467,35.45029],[-83.83319,35.45162],[-83.83218,35.45197],[-83.83136,35.45209],[-83.82699,35.45155],[-83.82535,35.45103],[-83.82485,35.4511],[-83.82381,35.45149],[-83.82327,35.45155],[-83.8217,35.45148],[-83.81907,35.45111],[-83.81806,35.45109],[-83.81779,35.45099],[-83.81585,35.44916],[-83.81569,35.44884],[-83.81577,35.44847],[-83.81828,35.44626],[-83.81882,35.44621],[-83.81965,35.44665],[-83.81996,35.4466],[-83.82015,35.44647],[-83.82035,35.44582],[-83.82009,35.44449],[-83.8203,35.44398],[-83.82161,35.44295],[-83.82254,35.44197],[-83.82339,35.44147],[-83.82529,35.43995],[-83.82545,35.43973],[-83.82545,35.43939],[-83.82499,35.43874],[-83.82456,35.43734],[-83.8241,35.43687],[-83.8235,35.4366],[-83.82116,35.43624],[-83.81983,35.43582],[-83.81675,35.43513],[-83.81596,35.43511],[-83.81491,35.43535],[-83.81389,35.43523],[-83.81351,35.43538],[-83.81325,35.43571],[-83.81321,35.43597],[-83.81338,35.43656],[-83.81328,35.43685],[-83.81242,35.43744],[-83.81243,35.43767],[-83.8127,35.43802],[-83.81269,35.43822],[-83.8122,35.43855],[-83.81217,35.43907],[-83.81176,35.43935],[-83.81141,35.43981],[-83.81034,35.43962],[-83.80983,35.44013],[-83.80957,35.44022],[-83.80937,35.44017],[-83.80894,35.43977],[-83.80872,35.43975],[-83.80856,35.43984],[-83.80834,35.44035],[-83.80736,35.44056],[-83.80635,35.44125],[-83.80574,35.44141],[-83.80529,35.44136],[-83.8045,35.44098],[-83.80405,35.44091],[-83.80307,35.44108],[-83.80144,35.44118],[-83.80066,35.44137],[-83.80051,35.44118],[-83.80032,35.44112],[-83.79778,35.44096],[-83.79675,35.44095],[-83.79469,35.44117],[-83.79401,35.44114],[-83.79329,35.44086],[-83.79234,35.44016],[-83.79177,35.43998],[-83.79053,35.43988],[-83.78882,35.43993],[-83.78701,35.43961],[-83.78555,35.43968],[-83.78506,35.43956],[-83.78476,35.43932],[-83.7846,35.43899],[-83.7846,35.43671],[-83.78442,35.43638],[-83.78389,35.4361],[-83.78338,35.43612],[-83.78252,35.43659],[-83.78202,35.43672],[-83.7806,35.43641],[-83.77958,35.43632],[-83.77889,35.43639],[-83.77758,35.43681],[-83.77713,35.43685],[-83.77586,35.43678],[-83.77478,35.43689],[-83.77423,35.43686],[-83.77279,35.43633],[-83.77242,35.43634],[-83.77137,35.4366],[-83.77102,35.43658],[-83.77067,35.43644],[-83.76992,35.43574],[-83.76976,35.43541],[-83.76977,35.43505],[-83.77006,35.43462],[-83.77192,35.43283],[-83.77213,35.43235],[-83.772,35.43193],[-83.77133,35.43118],[-83.77096,35.43033],[-83.7706,35.43002],[-83.77012,35.42991],[-83.76968,35.42999],[-83.76837,35.43105],[-83.76537,35.43207],[-83.76464,35.43215],[-83.76349,35.43205],[-83.76304,35.43185],[-83.7628,35.43162],[-83.76267,35.43127],[-83.76277,35.43089],[-83.76387,35.43],[-83.76403,35.42972],[-83.76405,35.4294],[-83.76372,35.42893],[-83.76275,35.42856],[-83.76231,35.42818],[-83.76232,35.42744],[-83.76288,35.42619],[-83.76307,35.4255],[-83.76307,35.42452],[-83.76295,35.42409],[-83.76269,35.4237],[-83.76207,35.42316],[-83.76147,35.42288],[-83.75984,35.42299],[-83.7586,35.42251],[-83.75817,35.42246],[-83.75771,35.42259],[-83.75712,35.423],[-83.75661,35.42318],[-83.7555,35.42312],[-83.75417,35.42342],[-83.75281,35.42292],[-83.75203,35.42289],[-83.75168,35.42302],[-83.75137,35.42327],[-83.7511,35.42397],[-83.75083,35.42434],[-83.75002,35.42477],[-83.74932,35.42483],[-83.74803,35.42433],[-83.74747,35.42432],[-83.7463,35.42484],[-83.74511,35.42509],[-83.74338,35.42623],[-83.74267,35.42645],[-83.7421,35.42645],[-83.74165,35.42634],[-83.74119,35.42609],[-83.74047,35.42539],[-83.74007,35.42512],[-83.73844,35.42478],[-83.73714,35.42392],[-83.73647,35.42377],[-83.73582,35.42388],[-83.73472,35.42453],[-83.73335,35.42477],[-83.73304,35.42497],[-83.73245,35.42562],[-83.73203,35.42587],[-83.73167,35.42591],[-83.73127,35.42582],[-83.73089,35.42558],[-83.72927,35.42406],[-83.72888,35.42354],[-83.72888,35.42294],[-83.72943,35.42201],[-83.72955,35.42152],[-83.72941,35.42092],[-83.72915,35.42056],[-83.7286,35.42014],[-83.72823,35.42001],[-83.72721,35.41992],[-83.72604,35.41969],[-83.72508,35.41983],[-83.72457,35.41974],[-83.72417,35.41946],[-83.72349,35.41845],[-83.7234,35.41792],[-83.72355,35.41763],[-83.72395,35.41735],[-83.72491,35.41691],[-83.72515,35.41664],[-83.72522,35.41638],[-83.72415,35.41259],[-83.72374,35.4118],[-83.72323,35.41143],[-83.72275,35.41125],[-83.721,35.41125],[-83.72058,35.41117],[-83.72001,35.4109],[-83.71955,35.41025],[-83.71931,35.40886],[-83.71789,35.40712],[-83.71709,35.40539],[-83.71677,35.40489],[-83.71634,35.40453],[-83.71577,35.40426],[-83.71523,35.40414],[-83.71352,35.40401],[-83.71314,35.40376],[-83.71295,35.40347],[-83.71291,35.40306],[-83.71312,35.40268],[-83.7154,35.40112],[-83.71582,35.40049],[-83.71586,35.40015],[-83.71556,35.39792],[-83.71578,35.39735],[-83.71691,35.39575],[-83.71717,35.39516],[-83.7172,35.3947],[-83.71671,35.39262],[-83.7167,35.39205],[-83.71692,35.39079],[-83.71752,35.38983],[-83.71755,35.38936],[-83.71693,35.38745],[-83.71658,35.38713],[-83.71546,35.38659],[-83.71509,35.38631],[-83.71492,35.38598],[-83.71471,35.38487],[-83.7145,35.38443],[-83.71325,35.3832],[-83.71197,35.381],[-83.71047,35.37968],[-83.71034,35.37939],[-83.71012,35.37794],[-83.71012,35.3757],[-83.70969,35.37453],[-83.70931,35.37405],[-83.70868,35.37353],[-83.70739,35.37301],[-83.70615,35.37288],[-83.70121,35.37322],[-83.70011,35.37313],[-83.69935,35.37288],[-83.69871,35.37255],[-83.69671,35.37105],[-83.69564,35.37073],[-83.69459,35.37069],[-83.6805,35.37134],[-83.67981,35.37145],[-83.6792,35.3717],[-83.67556,35.3738],[-83.67435,35.37425],[-83.67308,35.37427],[-83.67126,35.37377],[-83.67078,35.37371],[-83.67019,35.3737],[-83.66928,35.37385],[-83.6684,35.37418],[-83.66741,35.37491],[-83.66594,35.37692],[-83.66531,35.37752],[-83.66005,35.3811],[-83.65542,35.38465],[-83.65197,35.38818],[-83.64627,35.39248],[-83.64535,35.39305],[-83.64471,35.3934],[-83.64179,35.39464],[-83.64066,35.3953],[-83.63952,35.39612],[-83.63776,35.39689],[-83.63612,35.39717],[-83.63021,35.39729],[-83.62906,35.39757],[-83.62754,35.39818],[-83.62675,35.39826],[-83.62582,35.39816],[-83.62512,35.39794],[-83.62444,35.39756],[-83.62367,35.3968],[-83.62258,35.39624],[-83.61693,35.39493],[-83.61483,35.39486],[-83.61139,35.39535],[-83.61041,35.39537],[-83.60856,35.39515],[-83.60775,35.39493],[-83.60584,35.39419],[-83.60403,35.39303],[-83.60343,35.39276],[-83.60232,35.39248],[-83.60138,35.39247],[-83.60078,35.39259],[-83.59983,35.39298],[-83.59893,35.39318],[-83.59772,35.39313],[-83.597,35.39295],[-83.59585,35.39296],[-83.59213,35.39408],[-83.59096,35.39432],[-83.58997,35.39428],[-83.58897,35.39396],[-83.58772,35.39312],[-83.58179,35.38831],[-83.58117,35.38777],[-83.58071,35.38718],[-83.58043,35.38639],[-83.58015,35.38373],[-83.57993,35.38294],[-83.57934,35.38205],[-83.57867,35.38156],[-83.57748,35.3809],[-83.57686,35.38015],[-83.57664,35.37964],[-83.57651,35.37895],[-83.57615,35.37551],[-83.5757,35.37427],[-83.57485,35.3733],[-83.57401,35.37278],[-83.57341,35.37253],[-83.57207,35.37229],[-83.56223,35.37275],[-83.5614,35.37265],[-83.56069,35.37246],[-83.55989,35.37211],[-83.55891,35.37129],[-83.55551,35.36632],[-83.55472,35.36574],[-83.55311,35.3651],[-83.55263,35.36476],[-83.55236,35.36441],[-83.5506,35.36461],[-83.5498,35.36485],[-83.54918,35.36528],[-83.54825,35.36632],[-83.54755,35.36692],[-83.54265,35.36921],[-83.54215,35.36952],[-83.54135,35.37021],[-83.54103,35.37061],[-83.54012,35.37232],[-83.53964,35.373],[-83.53863,35.37374],[-83.53734,35.37416],[-83.53611,35.37419],[-83.53344,35.37365],[-83.53204,35.37372],[-83.53018,35.37423],[-83.52738,35.37569],[-83.52656,35.37592],[-83.52574,35.37598],[-83.52459,35.37578],[-83.52204,35.37459],[-83.52018,35.37427],[-83.51917,35.37424],[-83.51799,35.37433],[-83.51414,35.37487],[-83.51311,35.37484],[-83.5113,35.37429],[-83.50709,35.37211],[-83.50614,35.37196],[-83.50548,35.372],[-83.50495,35.3721],[-83.50432,35.37235],[-83.50413,35.37209],[-83.504,35.37166],[-83.50407,35.36953],[-83.50369,35.36466],[-83.50333,35.36437],[-83.50257,35.36446],[-83.50188,35.36434],[-83.50159,35.36453],[-83.5016,35.36501],[-83.50143,35.36523],[-83.50129,35.36527],[-83.50071,35.36515],[-83.50012,35.36536],[-83.49924,35.36522],[-83.49857,35.365],[-83.49842,35.3646],[-83.49875,35.36402],[-83.49864,35.36364],[-83.49798,35.36317],[-83.49763,35.36241],[-83.49641,35.36109],[-83.49609,35.36059],[-83.496,35.35993],[-83.49626,35.35885],[-83.49591,35.35785],[-83.49596,35.35767],[-83.49615,35.35754],[-83.49681,35.35751],[-83.49713,35.35728],[-83.49709,35.35697],[-83.49659,35.35619],[-83.49662,35.35585],[-83.49693,35.35566],[-83.49766,35.35567],[-83.49791,35.3556],[-83.49801,35.35543],[-83.49794,35.35499],[-83.49803,35.3548],[-83.49826,35.35469],[-83.49884,35.35462],[-83.49908,35.35441],[-83.49868,35.35283],[-83.49879,35.35214],[-83.49853,35.35169],[-83.49882,35.35092],[-83.49872,35.34977],[-83.4988,35.34934],[-83.49831,35.34885],[-83.49826,35.34799],[-83.49847,35.34745],[-83.49848,35.34696],[-83.49918,35.34654],[-83.4997,35.34605],[-83.49973,35.34552],[-83.49999,35.34513],[-83.49975,35.34451],[-83.49976,35.34429],[-83.4999,35.34416],[-83.50061,35.34389],[-83.50098,35.3431],[-83.50086,35.34287],[-83.50022,35.34255],[-83.50018,35.34224],[-83.50042,35.34174],[-83.50024,35.34154],[-83.49959,35.3412],[-83.49933,35.34058],[-83.49933,35.34034],[-83.49945,35.34014],[-83.5001,35.33965],[-83.50035,35.3396],[-83.501,35.3397],[-83.50135,35.3396],[-83.50155,35.33943],[-83.50185,35.33854],[-83.50208,35.3382],[-83.50231,35.33806],[-83.50318,35.33786],[-83.50342,35.33767],[-83.50352,35.33739],[-83.50339,35.33658],[-83.50436,35.33577],[-83.50444,35.33518],[-83.50479,35.33474],[-83.50485,35.3345],[-83.50464,35.33421],[-83.50404,35.33402],[-83.50379,35.33374],[-83.50347,35.33312],[-83.50342,35.33242],[-83.50369,35.33222],[-83.50455,35.33214],[-83.50526,35.3315],[-83.50542,35.33087],[-83.50568,35.33049],[-83.5057,35.33029],[-83.50504,35.32968],[-83.50503,35.32933],[-83.50539,35.32917],[-83.50629,35.32917],[-83.50649,35.32902],[-83.50666,35.32859],[-83.50744,35.32843],[-83.50771,35.32791],[-83.50814,35.32755],[-83.50817,35.32695],[-83.5083,35.32682],[-83.5089,35.32658],[-83.50942,35.32583],[-83.50926,35.32514],[-83.50904,35.32486],[-83.50858,35.32474],[-83.50775,35.32486],[-83.50746,35.32462],[-83.50751,35.32372],[-83.50858,35.32327],[-83.50878,35.32302],[-83.5087,35.32283],[-83.50829,35.32259],[-83.50808,35.32232],[-83.5082,35.32155],[-83.5079,35.32108],[-83.50783,35.32047],[-83.50743,35.31947],[-83.50648,35.31877],[-83.50537,35.31842],[-83.50324,35.31713],[-83.50265,35.31642],[-83.50248,35.31592],[-83.50247,35.31511],[-83.50261,35.3148],[-83.50328,35.3144],[-83.50355,35.31391],[-83.50383,35.31365],[-83.50442,35.31345],[-83.50464,35.31325],[-83.50457,35.31301],[-83.50422,35.31275],[-83.50423,35.31254],[-83.5045,35.31238],[-83.50479,35.31235],[-83.50557,35.31255],[-83.50581,35.31252],[-83.50631,35.31189],[-83.50629,35.31159],[-83.50552,35.31137],[-83.50534,35.31112],[-83.50551,35.31089],[-83.50607,35.31073],[-83.50611,35.31047],[-83.50478,35.30932],[-83.50451,35.30853],[-83.504,35.30782],[-83.50353,35.30676],[-83.50336,35.30662],[-83.50296,35.30662],[-83.50248,35.30701],[-83.50211,35.30711],[-83.50186,35.30705],[-83.50146,35.30662],[-83.50126,35.30655],[-83.50104,35.30662],[-83.5005,35.30705],[-83.50001,35.30709],[-83.49901,35.30672],[-83.49879,35.30654],[-83.49849,35.30604],[-83.49789,35.30584],[-83.49726,35.30536],[-83.49634,35.30518],[-83.49582,35.30543],[-83.49554,35.30544],[-83.49534,35.3053],[-83.49526,35.30472],[-83.49513,35.30459],[-83.49485,35.30455],[-83.49437,35.30484],[-83.49404,35.30481],[-83.49392,35.3047],[-83.49376,35.30406],[-83.49345,35.30381],[-83.49287,35.30349],[-83.49222,35.30351],[-83.49196,35.30342],[-83.49185,35.30315],[-83.4919,35.30181],[-83.49182,35.30169],[-83.49151,35.30159],[-83.49092,35.30171],[-83.4907,35.30165],[-83.49054,35.30141],[-83.49043,35.30081],[-83.4905,35.30049],[-83.49114,35.29938],[-83.49196,35.29865],[-83.49204,35.29844],[-83.49195,35.2981],[-83.49048,35.29638],[-83.49006,35.29618],[-83.48902,35.29589],[-83.48869,35.29567],[-83.48845,35.29512],[-83.4883,35.29297],[-83.48744,35.29245],[-83.48502,35.29027],[-83.48467,35.29007],[-83.48401,35.28987],[-83.48245,35.28986],[-83.4782,35.28866],[-83.47772,35.28843],[-83.47664,35.28761],[-83.47586,35.28715],[-83.4737,35.2869],[-83.47266,35.28654],[-83.47189,35.28614],[-83.47113,35.2853],[-83.47071,35.28502],[-83.46932,35.2843],[-83.46773,35.28385],[-83.46678,35.28381],[-83.46574,35.28406],[-83.46525,35.28428],[-83.46403,35.2851],[-83.46364,35.28525],[-83.46236,35.28543],[-83.46127,35.28524],[-83.4608,35.28504],[-83.45995,35.28446],[-83.45871,35.28415],[-83.45838,35.28399],[-83.45813,35.28367],[-83.45773,35.28268],[-83.45745,35.28245],[-83.45676,35.28214],[-83.45604,35.2819],[-83.45548,35.28184],[-83.45502,35.28187],[-83.45401,35.28215],[-83.45381,35.28215],[-83.45351,35.28199],[-83.45331,35.28151],[-83.4528,35.27918],[-83.45252,35.27889],[-83.45198,35.27887],[-83.45072,35.27942],[-83.45005,35.27958],[-83.4487,35.27918],[-83.44337,35.27884],[-83.44296,35.27851],[-83.44194,35.27623],[-83.4416,35.27578],[-83.44041,35.27474],[-83.43988,35.27325],[-83.43965,35.27296],[-83.43936,35.27277],[-83.43878,35.27266],[-83.43779,35.27283],[-83.43658,35.27277],[-83.43274,35.27187],[-83.43051,35.27221],[-83.43009,35.27218],[-83.42948,35.27196],[-83.42829,35.27105],[-83.42808,35.2708],[-83.42786,35.26805],[-83.42773,35.26757],[-83.42716,35.26695],[-83.42652,35.26666],[-83.426,35.26665],[-83.42435,35.26701],[-83.42385,35.26694],[-83.42272,35.26652],[-83.42209,35.2665],[-83.42164,35.26664],[-83.4205,35.2673],[-83.41777,35.26795],[-83.41738,35.26802],[-83.41692,35.26799],[-83.41627,35.2675],[-83.41546,35.26648],[-83.41539,35.26593],[-83.41567,35.2641],[-83.4156,35.2635],[-83.41493,35.26256],[-83.41427,35.26185],[-83.41374,35.26165],[-83.41276,35.26163],[-83.40965,35.2621],[-83.40941,35.26207],[-83.40897,35.26179],[-83.40883,35.2615],[-83.40873,35.26029],[-83.40845,35.25981],[-83.40802,35.25938],[-83.40763,35.25858],[-83.40753,35.25633],[-83.40722,35.25597],[-83.40651,35.25554],[-83.40603,35.25511],[-83.40488,35.25359],[-83.4049,35.25306],[-83.40532,35.25213],[-83.40528,35.25177],[-83.40506,35.2513],[-83.40463,35.25103],[-83.40242,35.25016],[-83.40184,35.2495],[-83.40122,35.24818],[-83.40091,35.24795],[-83.40045,35.24791],[-83.39905,35.24842],[-83.39751,35.24842],[-83.39672,35.24851],[-83.39637,35.24842],[-83.39593,35.24805],[-83.39502,35.2466],[-83.39484,35.24613],[-83.39498,35.24277],[-83.39445,35.24071],[-83.39443,35.23972],[-83.39458,35.23881],[-83.39556,35.23636],[-83.39666,35.23104],[-83.39762,35.22833],[-83.39815,35.22332],[-83.39802,35.2225],[-83.39702,35.22006],[-83.39702,35.2194],[-83.39735,35.2186],[-83.39917,35.21687],[-83.39966,35.21587],[-83.40021,35.21004],[-83.40016,35.2078],[-83.40002,35.20729],[-83.39963,35.20673],[-83.39929,35.20645],[-83.39782,35.20585],[-83.39518,35.20434],[-83.39279,35.20279],[-83.39231,35.20212],[-83.39205,35.20131],[-83.3918,35.20085],[-83.39046,35.19968],[-83.38857,35.1983],[-83.38821,35.19793],[-83.38686,35.19511],[-83.38639,35.19447],[-83.38342,35.19232],[-83.3814,35.18943],[-83.38094,35.18919],[-83.37944,35.18878],[-83.37679,35.18715],[-83.37646,35.18662],[-83.37626,35.18534],[-83.37592,35.18484]]]}},{"type":"Feature","properties":{"id":"cullasaja-gorge","name":"Cullasaja Gorge \u00b7 US 64","difficulty":2,"character":"Technical"},"geometry":{"type":"MultiLineString","coordinates":[[[-83.19657,35.05366],[-83.19712,35.05263],[-83.20417,35.05514],[-83.20453,35.05541],[-83.20524,35.05627],[-83.2055,35.05753],[-83.20574,35.05781],[-83.20697,35.0585],[-83.20866,35.0585],[-83.20916,35.05878],[-83.20927,35.05905],[-83.20962,35.06168],[-83.20972,35.06187],[-83.21003,35.06205],[-83.21113,35.06235],[-83.21201,35.06214],[-83.21306,35.0629],[-83.21375,35.06309],[-83.21425,35.06301],[-83.21575,35.06225],[-83.21723,35.06166],[-83.21787,35.06161],[-83.21862,35.06184],[-83.21914,35.0622],[-83.21948,35.06267],[-83.21988,35.06441],[-83.22003,35.06472],[-83.22264,35.0665],[-83.22377,35.06757],[-83.22421,35.06776],[-83.22629,35.06806],[-83.22771,35.06808],[-83.22813,35.06829],[-83.22872,35.06954],[-83.2292,35.07098],[-83.22915,35.07214],[-83.22934,35.07248],[-83.22956,35.0726],[-83.2301,35.07258],[-83.23083,35.07242],[-83.23141,35.07262],[-83.23165,35.07261],[-83.23225,35.07243],[-83.2329,35.072],[-83.23371,35.07196],[-83.23382,35.07185],[-83.23378,35.07147],[-83.234,35.07081],[-83.23424,35.07061],[-83.23484,35.07063],[-83.23513,35.07051],[-83.23527,35.06985],[-83.23577,35.06954],[-83.23593,35.0691],[-83.23688,35.0682],[-83.23723,35.06758],[-83.23763,35.06723],[-83.23804,35.06723],[-83.23822,35.06741],[-83.23828,35.06856],[-83.23807,35.06934],[-83.23815,35.06984],[-83.23809,35.07047],[-83.23836,35.0715],[-83.23878,35.07222],[-83.23889,35.07299],[-83.23938,35.0738],[-83.23984,35.07384],[-83.24147,35.07338],[-83.24194,35.07343],[-83.24233,35.07372],[-83.24331,35.07505],[-83.24394,35.07545],[-83.24535,35.07591],[-83.24623,35.07611],[-83.24769,35.07686],[-83.24989,35.07696],[-83.25037,35.07751],[-83.25095,35.0777],[-83.25153,35.07759],[-83.25223,35.07724],[-83.2525,35.07737],[-83.25341,35.07816],[-83.25376,35.0782],[-83.25453,35.07805],[-83.25478,35.07811],[-83.25494,35.07825],[-83.25495,35.07844],[-83.25459,35.07904],[-83.25458,35.07972],[-83.25467,35.07994],[-83.25488,35.08004],[-83.25607,35.07986],[-83.25696,35.07908],[-83.25753,35.07908],[-83.25779,35.07933],[-83.25775,35.0801],[-83.25996,35.0828],[-83.26034,35.08291],[-83.26132,35.08264],[-83.26211,35.08253],[-83.26234,35.08238],[-83.26269,35.08187],[-83.2632,35.08183],[-83.26334,35.08191],[-83.26386,35.08272],[-83.26438,35.08305],[-83.26465,35.08333],[-83.26489,35.08391],[-83.2653,35.08452],[-83.26612,35.0848],[-83.26703,35.0853],[-83.26746,35.08536],[-83.26789,35.08565],[-83.26876,35.08593],[-83.26881,35.08628],[-83.26856,35.0868],[-83.26811,35.08731],[-83.26786,35.08807],[-83.26801,35.08961],[-83.26763,35.09105],[-83.26776,35.09157],[-83.26773,35.09189],[-83.26755,35.09214],[-83.26686,35.09265],[-83.26666,35.09271],[-83.26605,35.09262],[-83.26564,35.09276],[-83.26499,35.09416],[-83.26356,35.09552],[-83.26332,35.09637],[-83.26265,35.09781],[-83.26261,35.0991],[-83.26293,35.09982],[-83.26337,35.10197],[-83.2636,35.1024],[-83.26399,35.10268],[-83.26465,35.10287],[-83.26508,35.10291],[-83.26609,35.10282],[-83.26879,35.10351],[-83.26955,35.10398],[-83.26994,35.10466],[-83.26975,35.10506],[-83.26915,35.10536],[-83.26895,35.10557],[-83.26825,35.10712],[-83.26794,35.1092],[-83.26772,35.10995],[-83.26681,35.1105],[-83.26504,35.11231],[-83.26478,35.11269],[-83.26479,35.11316],[-83.26643,35.11482],[-83.26802,35.11578],[-83.2687,35.11592],[-83.26907,35.1165],[-83.26944,35.1168],[-83.26979,35.11745],[-83.26999,35.11759],[-83.27043,35.11768],[-83.27086,35.1176],[-83.27129,35.1178],[-83.27158,35.11782],[-83.27293,35.11736],[-83.27395,35.11718],[-83.27567,35.11795],[-83.27665,35.11881],[-83.27744,35.11908],[-83.27821,35.12039],[-83.27847,35.12104],[-83.27843,35.12185],[-83.27853,35.12275],[-83.27896,35.12373],[-83.27923,35.12397],[-83.28027,35.12409],[-83.28084,35.1249],[-83.28076,35.12513],[-83.2802,35.12551],[-83.27994,35.12599],[-83.27994,35.1263],[-83.28013,35.12643],[-83.28037,35.12642],[-83.28081,35.12605],[-83.28143,35.1259],[-83.28168,35.12594],[-83.28182,35.12609],[-83.28185,35.12632],[-83.28106,35.12808],[-83.2813,35.12904],[-83.28106,35.12964],[-83.28138,35.13103],[-83.28126,35.13328],[-83.28103,35.13481],[-83.28102,35.1353],[-83.28124,35.1361],[-83.28167,35.13684],[-83.28222,35.13738],[-83.28475,35.13889],[-83.28576,35.13965],[-83.28704,35.14122],[-83.28774,35.14184],[-83.2882,35.14212],[-83.28904,35.14243],[-83.28966,35.14256],[-83.29082,35.14258],[-83.29327,35.1423],[-83.29591,35.14183],[-83.2971,35.14181],[-83.2979,35.14197],[-83.3035,35.14414],[-83.3058,35.14519],[-83.31377,35.15057],[-83.31503,35.15186],[-83.31537,35.15248],[-83.31554,35.15344]]]}},{"type":"Feature","properties":{"id":"foothills-parkway","name":"Foothills Parkway","difficulty":1,"character":"Medium speed"},"geometry":{"type":"MultiLineString","coordinates":[[[-84.01,35.55741],[-84.00933,35.55885],[-84.00877,35.5597],[-84.00822,35.56035],[-84.00577,35.56276],[-84.00496,35.56471],[-84.00306,35.56685],[-84.00264,35.56754],[-84.00258,35.56843],[-84.00331,35.5707],[-84.00341,35.57142],[-84.00322,35.57267],[-84.00292,35.57321],[-84.00228,35.57401],[-84.0022,35.57451],[-84.00245,35.57504],[-84.00351,35.576],[-84.00365,35.57639],[-84.00361,35.57688],[-84.00346,35.57719],[-84.00245,35.57839],[-84.00173,35.57993],[-84.00113,35.58052],[-83.99953,35.5815],[-83.99904,35.58195],[-83.99856,35.58278],[-83.9982,35.58409],[-83.99799,35.58448],[-83.99769,35.58483],[-83.9964,35.58583],[-83.99629,35.58618],[-83.99635,35.58653],[-83.99703,35.58755],[-83.99703,35.588],[-83.99693,35.58823],[-83.99552,35.58931],[-83.99457,35.59055],[-83.99333,35.5912],[-83.99235,35.59197],[-83.99118,35.59266],[-83.99083,35.59308],[-83.99036,35.59396],[-83.99007,35.59426],[-83.98869,35.59501],[-83.98849,35.59528],[-83.98811,35.59626],[-83.98691,35.59724],[-83.98557,35.59905],[-83.98535,35.6004],[-83.9845,35.60116],[-83.98302,35.60295],[-83.98168,35.60407],[-83.98145,35.60445],[-83.98125,35.60533],[-83.98108,35.60563],[-83.98084,35.60583],[-83.97956,35.6064],[-83.97914,35.60671],[-83.97831,35.60806],[-83.97653,35.60978],[-83.97624,35.61031],[-83.97616,35.61105],[-83.9759,35.61157],[-83.97539,35.61184],[-83.9708,35.61334],[-83.96793,35.61454],[-83.96603,35.61564],[-83.96428,35.61696],[-83.96371,35.61756],[-83.96336,35.61808],[-83.96289,35.61969],[-83.96263,35.62015],[-83.96207,35.62061],[-83.96117,35.62117],[-83.96085,35.62152],[-83.96079,35.62194],[-83.96113,35.623],[-83.96104,35.62347],[-83.95885,35.62617],[-83.95846,35.6265],[-83.95768,35.62661],[-83.95508,35.62646],[-83.95281,35.62691],[-83.95081,35.62676],[-83.9503,35.62685],[-83.94991,35.62714],[-83.94957,35.62793],[-83.94933,35.62824],[-83.94798,35.62919],[-83.94654,35.63136],[-83.94628,35.6316],[-83.94591,35.63177],[-83.9453,35.63178],[-83.94382,35.63111],[-83.94309,35.63095],[-83.94099,35.63106],[-83.94053,35.6312],[-83.9401,35.63146],[-83.93942,35.63235],[-83.93881,35.63352],[-83.93851,35.63447],[-83.93817,35.63634],[-83.93742,35.63781],[-83.93413,35.64147],[-83.9336,35.64229],[-83.93262,35.64419],[-83.93219,35.64479],[-83.93134,35.64561],[-83.93,35.6467],[-83.92872,35.64855],[-83.92574,35.65095],[-83.92506,35.6519],[-83.92414,35.65357],[-83.92364,35.65413],[-83.91822,35.65764],[-83.91466,35.66043],[-83.91103,35.66287],[-83.90959,35.66437],[-83.90812,35.66535],[-83.90657,35.66709],[-83.90513,35.6683],[-83.90388,35.67021],[-83.90225,35.67132],[-83.90121,35.67236],[-83.90048,35.67267],[-83.89885,35.67287],[-83.89821,35.67309],[-83.89783,35.67338],[-83.89693,35.67455],[-83.89537,35.67535],[-83.89421,35.67631],[-83.8925,35.67721],[-83.89208,35.67753],[-83.89139,35.67833],[-83.89008,35.68042],[-83.88828,35.6817],[-83.88721,35.68314],[-83.88563,35.68443],[-83.88472,35.68611],[-83.8833,35.68752],[-83.88264,35.6884],[-83.88238,35.689],[-83.88205,35.69035],[-83.88154,35.69132],[-83.87916,35.69401],[-83.87828,35.69482],[-83.87757,35.69534],[-83.87529,35.69662],[-83.87457,35.69715],[-83.87279,35.69899],[-83.87059,35.70104],[-83.86861,35.70246],[-83.86708,35.70304],[-83.8658,35.70419],[-83.86428,35.7047],[-83.86242,35.70571],[-83.86066,35.70632],[-83.8595,35.70702],[-83.85877,35.70715],[-83.85716,35.70686],[-83.85622,35.70707],[-83.8557,35.70746],[-83.85499,35.70839],[-83.85465,35.70864],[-83.85413,35.70888],[-83.85217,35.70947],[-83.85053,35.71075],[-83.84868,35.71149],[-83.84732,35.71262],[-83.8468,35.71284],[-83.84559,35.71315],[-83.84427,35.71381],[-83.8431,35.71416],[-83.84172,35.71502],[-83.83982,35.7158],[-83.83819,35.71675],[-83.83726,35.71705],[-83.8363,35.71716],[-83.8344,35.71691],[-83.83382,35.71694],[-83.83331,35.71714],[-83.83224,35.71808],[-83.83153,35.71829],[-83.83082,35.7182],[-83.82941,35.71773],[-83.8277,35.71775],[-83.82655,35.71762],[-83.82593,35.71768],[-83.82365,35.71825],[-83.82211,35.7184],[-83.8204,35.71826],[-83.81903,35.71788],[-83.81719,35.71625],[-83.81515,35.71474],[-83.81472,35.71427],[-83.81454,35.71386],[-83.81408,35.71102],[-83.81424,35.71052],[-83.81485,35.70959],[-83.81493,35.70914],[-83.81423,35.70767],[-83.81418,35.70725],[-83.81444,35.70677],[-83.81558,35.7058],[-83.81579,35.70531],[-83.8157,35.70496],[-83.81549,35.70473],[-83.81511,35.70456],[-83.81474,35.70453],[-83.81425,35.70466],[-83.81239,35.70549],[-83.81175,35.70566],[-83.81101,35.70566],[-83.80924,35.70529],[-83.8082,35.70544],[-83.8066,35.70625],[-83.80509,35.70722],[-83.80455,35.70772],[-83.80398,35.70855],[-83.80344,35.70884],[-83.80275,35.70881],[-83.80165,35.70825],[-83.79992,35.70775],[-83.79927,35.7078],[-83.79718,35.70827],[-83.79453,35.70857],[-83.79393,35.70888],[-83.79318,35.7098],[-83.79261,35.71016],[-83.79208,35.71025],[-83.79074,35.71002],[-83.78995,35.71007],[-83.78744,35.71121],[-83.78575,35.71172],[-83.78521,35.7122],[-83.78473,35.7134],[-83.78406,35.71383],[-83.78354,35.7139],[-83.78234,35.71371],[-83.78179,35.71376],[-83.77707,35.71558],[-83.77475,35.71603],[-83.77334,35.71665],[-83.77282,35.71679],[-83.77212,35.71681],[-83.76935,35.71652],[-83.7687,35.71656],[-83.76808,35.71673],[-83.76597,35.71773],[-83.76299,35.71882],[-83.76144,35.71974],[-83.75647,35.72118],[-83.756,35.72154],[-83.75532,35.72258],[-83.75473,35.72312],[-83.75396,35.72349],[-83.75236,35.72394],[-83.7513,35.72465],[-83.75063,35.72495],[-83.74973,35.7251],[-83.74748,35.72511],[-83.74598,35.7255],[-83.7446,35.72565],[-83.74211,35.72642],[-83.74059,35.72711],[-83.73865,35.72733],[-83.73691,35.72771],[-83.73622,35.72777],[-83.73567,35.72762],[-83.73534,35.72731],[-83.73528,35.72682],[-83.73552,35.72644],[-83.73606,35.7262],[-83.73729,35.72611],[-83.7384,35.72544],[-83.73945,35.72522],[-83.73974,35.72507],[-83.73994,35.72485],[-83.74028,35.72412],[-83.74051,35.724],[-83.74134,35.72386],[-83.74182,35.72355],[-83.74206,35.72318],[-83.74224,35.72212],[-83.74239,35.72181],[-83.74352,35.72099],[-83.74389,35.72051],[-83.74398,35.72004],[-83.74383,35.71969],[-83.74346,35.71948],[-83.74271,35.71935],[-83.74234,35.71894],[-83.74241,35.7185],[-83.74296,35.71805],[-83.74311,35.71768],[-83.74296,35.71731],[-83.74242,35.71679],[-83.74237,35.71642],[-83.74255,35.71614],[-83.7431,35.71574],[-83.74325,35.71538],[-83.74311,35.71503],[-83.74237,35.71451],[-83.74188,35.71429],[-83.74139,35.71423],[-83.73851,35.71468],[-83.73777,35.71501],[-83.73702,35.71578],[-83.73665,35.7159],[-83.73634,35.71588],[-83.73606,35.71576],[-83.73583,35.71551],[-83.73558,35.71428],[-83.73558,35.71296],[-83.73604,35.71237],[-83.73613,35.7121],[-83.73605,35.71175],[-83.73571,35.71149],[-83.73516,35.71144],[-83.73277,35.71204],[-83.73079,35.71217],[-83.72974,35.71203],[-83.72892,35.71145],[-83.72855,35.71131],[-83.72814,35.71132],[-83.72748,35.71157],[-83.72706,35.71163],[-83.72596,35.71125],[-83.72539,35.71116],[-83.7246,35.7113],[-83.72251,35.71236],[-83.72054,35.71298],[-83.71951,35.71374],[-83.71886,35.71401],[-83.71827,35.71409],[-83.71768,35.71405],[-83.71603,35.71364],[-83.71487,35.71381],[-83.71444,35.71378],[-83.71299,35.71308],[-83.71151,35.71281],[-83.71025,35.7119],[-83.7098,35.71182],[-83.70828,35.71182],[-83.70761,35.7117],[-83.70656,35.71126],[-83.70531,35.71032],[-83.70485,35.71022],[-83.70404,35.71022],[-83.70358,35.71008],[-83.70322,35.70981],[-83.70274,35.70908],[-83.70234,35.70868],[-83.70184,35.70837],[-83.70078,35.70798],[-83.70035,35.70773],[-83.69993,35.70731],[-83.69949,35.7066],[-83.69913,35.70636],[-83.69853,35.70632],[-83.69759,35.70675],[-83.69713,35.7068],[-83.69675,35.70667],[-83.69594,35.70609],[-83.69458,35.70599],[-83.69365,35.70549],[-83.69309,35.7054],[-83.69272,35.70545],[-83.69241,35.70561],[-83.69206,35.70637],[-83.69162,35.70665],[-83.69113,35.70663],[-83.69024,35.70619],[-83.68964,35.70632],[-83.68935,35.7067],[-83.68928,35.70773],[-83.68908,35.70795],[-83.6888,35.70808],[-83.6884,35.70809],[-83.68804,35.70794],[-83.68761,35.70712],[-83.68733,35.70689],[-83.68686,35.7068],[-83.68649,35.70692],[-83.68628,35.70712],[-83.68619,35.70737],[-83.68637,35.70865],[-83.68614,35.7091],[-83.6857,35.70932],[-83.68245,35.70978],[-83.68198,35.70997],[-83.68135,35.71102],[-83.68029,35.71168],[-83.6799,35.71209],[-83.67967,35.71268],[-83.67971,35.7136],[-83.67939,35.71403],[-83.67813,35.71443],[-83.67708,35.71514],[-83.67575,35.71544],[-83.67431,35.71646],[-83.67257,35.71714],[-83.6722,35.71749],[-83.67183,35.71831],[-83.67144,35.71859],[-83.67102,35.71866],[-83.66838,35.71866],[-83.66746,35.71891],[-83.6661,35.71984],[-83.66496,35.72108],[-83.66406,35.72169],[-83.66335,35.7224],[-83.6626,35.72267],[-83.6615,35.72272],[-83.66047,35.7234],[-83.65994,35.72346],[-83.6574,35.72315],[-83.657,35.72286],[-83.65654,35.72201],[-83.65609,35.72156],[-83.65518,35.72104],[-83.65409,35.72075],[-83.65278,35.72066],[-83.65148,35.72082],[-83.65027,35.72123],[-83.64853,35.72222],[-83.64788,35.72238],[-83.64725,35.72241],[-83.6463,35.72227],[-83.64535,35.7219],[-83.64454,35.72134],[-83.64372,35.72048]]]}},{"type":"Feature","properties":{"id":"roan-mountain","name":"Roan Mountain \u00b7 NC 261 & TN 143","difficulty":3,"character":"Technical"},"geometry":{"type":"MultiLineString","coordinates":[[[-82.07287,36.19984],[-82.07343,36.19761],[-82.0735,36.19669],[-82.07314,36.19543],[-82.07213,36.19385],[-82.07181,36.19269],[-82.07147,36.18826],[-82.07177,36.18654],[-82.07182,36.1845],[-82.07216,36.18384],[-82.07244,36.18364],[-82.07366,36.18375],[-82.07467,36.18398],[-82.07528,36.18393],[-82.07551,36.18372],[-82.07566,36.18327],[-82.07538,36.18109],[-82.07548,36.1809],[-82.07699,36.17997],[-82.0774,36.17986],[-82.0784,36.17991],[-82.07901,36.1797],[-82.07917,36.17929],[-82.07924,36.17826],[-82.07978,36.17566],[-82.07948,36.17369],[-82.07957,36.17246],[-82.07982,36.17186],[-82.08053,36.17135],[-82.08111,36.17115],[-82.082,36.17122],[-82.08326,36.17164],[-82.0838,36.17168],[-82.08576,36.1715],[-82.08753,36.17111],[-82.08872,36.17111],[-82.08931,36.17135],[-82.09071,36.17231],[-82.09219,36.17291],[-82.09324,36.17403],[-82.09393,36.17441],[-82.0944,36.17446],[-82.09627,36.17426],[-82.09772,36.17392],[-82.09824,36.17368],[-82.09834,36.17355],[-82.09853,36.17119],[-82.0985,36.17046],[-82.09751,36.16902],[-82.09714,36.16829],[-82.09617,36.16764],[-82.09583,36.16729],[-82.09557,36.16651],[-82.09562,36.16566],[-82.09628,36.16411],[-82.09662,36.16194],[-82.0972,36.16074],[-82.09798,36.15967],[-82.09833,36.15892],[-82.09931,36.1553],[-82.09923,36.1544],[-82.09952,36.15246],[-82.10138,36.14909],[-82.10143,36.14848],[-82.10105,36.14611],[-82.1015,36.14412],[-82.10155,36.14209],[-82.10371,36.13735],[-82.10387,36.13679],[-82.10382,36.13618],[-82.10356,36.13561],[-82.10306,36.13514],[-82.10163,36.13418],[-82.10129,36.13373],[-82.1013,36.13355],[-82.10157,36.13305],[-82.10431,36.13083],[-82.10454,36.13045],[-82.10454,36.13018],[-82.10428,36.12982],[-82.10366,36.12964],[-82.10112,36.13051],[-82.10066,36.13035],[-82.10045,36.12999],[-82.10063,36.12964],[-82.10212,36.12871],[-82.10264,36.12823],[-82.10285,36.12783],[-82.1029,36.12741],[-82.10258,36.12658],[-82.1,36.12463],[-82.0992,36.12421],[-82.09808,36.12403],[-82.09722,36.12414],[-82.09655,36.12434],[-82.09603,36.12421],[-82.09587,36.12396],[-82.09566,36.12296],[-82.0952,36.12224],[-82.09488,36.12188],[-82.09431,36.12146],[-82.09338,36.12103],[-82.09219,36.12084],[-82.0891,36.12082],[-82.08866,36.12069],[-82.08773,36.12022],[-82.08707,36.12005],[-82.08644,36.12011],[-82.08558,36.12045],[-82.08503,36.12113],[-82.08434,36.12333],[-82.08416,36.12363],[-82.08345,36.12424],[-82.08327,36.12456],[-82.08323,36.1252],[-82.0836,36.1265],[-82.08418,36.12692],[-82.08521,36.12714],[-82.08566,36.12737],[-82.08593,36.12774],[-82.08594,36.12825],[-82.08534,36.12893],[-82.08486,36.12903],[-82.08434,36.12899],[-82.08335,36.12874],[-82.08255,36.12843],[-82.08216,36.12774],[-82.08196,36.12614],[-82.08114,36.12456],[-82.08103,36.12403],[-82.08174,36.12137],[-82.0817,36.12105],[-82.08114,36.11954],[-82.08114,36.11926],[-82.08131,36.11887],[-82.08171,36.11839],[-82.08186,36.11793],[-82.0817,36.1175],[-82.08139,36.11717],[-82.08131,36.11672],[-82.08204,36.11582],[-82.08207,36.11561],[-82.0819,36.11509],[-82.08196,36.11478],[-82.08275,36.11425],[-82.08309,36.11313],[-82.08359,36.11285],[-82.08479,36.11252],[-82.08515,36.11254],[-82.08562,36.11278],[-82.08621,36.11368],[-82.08675,36.11374],[-82.08708,36.11353],[-82.08838,36.11192],[-82.08895,36.11152],[-82.08973,36.11135],[-82.09083,36.1117],[-82.09241,36.11173],[-82.09278,36.11155],[-82.09322,36.11107],[-82.09527,36.10955],[-82.09616,36.10914],[-82.09662,36.10906],[-82.09715,36.10905],[-82.09789,36.10924],[-82.09911,36.11034],[-82.1003,36.11087],[-82.10113,36.11187],[-82.10156,36.1128],[-82.10186,36.11298],[-82.10225,36.11296],[-82.10257,36.11282],[-82.10347,36.11212],[-82.10484,36.11055],[-82.10535,36.11044],[-82.10671,36.11045],[-82.10885,36.10958],[-82.11016,36.1089],[-82.11057,36.10835],[-82.11073,36.10786],[-82.11074,36.10746],[-82.11059,36.10692],[-82.11015,36.10631],[-82.1097,36.106],[-82.10859,36.10552],[-82.10752,36.10447],[-82.10669,36.10402],[-82.10488,36.10368],[-82.10293,36.10358],[-82.1025,36.10335],[-82.1013,36.10235],[-82.10073,36.10212],[-82.09981,36.10214],[-82.0988,36.10268],[-82.09834,36.10283],[-82.09627,36.10294],[-82.09586,36.10276],[-82.09506,36.10155],[-82.09468,36.10125],[-82.09429,36.10115],[-82.09383,36.10116],[-82.0928,36.10166],[-82.09251,36.10158],[-82.09238,36.10145],[-82.09237,36.10034],[-82.09175,36.09914],[-82.09173,36.09825],[-82.09198,36.09765],[-82.09283,36.09663],[-82.09381,36.09614],[-82.0941,36.09586],[-82.09437,36.09471],[-82.09422,36.09427],[-82.09387,36.0939],[-82.09189,36.09309],[-82.09177,36.09281],[-82.09188,36.09259],[-82.09208,36.09247],[-82.09233,36.09246],[-82.09325,36.09291],[-82.09444,36.09307],[-82.09497,36.09322],[-82.09668,36.09425],[-82.0973,36.09496],[-82.0978,36.09509],[-82.09871,36.09513],[-82.09956,36.09496],[-82.10061,36.09442],[-82.10235,36.09315],[-82.10249,36.09288],[-82.10248,36.09256],[-82.10215,36.09215],[-82.10007,36.09114],[-82.09899,36.09041],[-82.09864,36.09005],[-82.09772,36.08843],[-82.0957,36.08554],[-82.09401,36.08266],[-82.09391,36.0821],[-82.0942,36.08122],[-82.094,36.08076],[-82.09301,36.08018],[-82.09191,36.07986],[-82.09069,36.07899],[-82.08983,36.07784],[-82.08973,36.07688],[-82.08947,36.07658],[-82.08899,36.07652],[-82.08816,36.07665],[-82.08797,36.07676],[-82.08761,36.07722],[-82.08713,36.07725],[-82.08608,36.07688],[-82.08578,36.07669],[-82.08557,36.07634],[-82.08561,36.07591],[-82.08585,36.07562],[-82.08783,36.07449],[-82.08874,36.07421],[-82.08966,36.0743],[-82.09048,36.07449],[-82.09095,36.07486],[-82.09143,36.07549],[-82.09185,36.07558],[-82.09218,36.07549],[-82.09301,36.07496],[-82.09556,36.07445],[-82.10203,36.07414],[-82.10275,36.07408],[-82.10326,36.07393],[-82.10828,36.07116],[-82.10862,36.07081],[-82.10878,36.07046],[-82.10885,36.07009],[-82.10876,36.06912],[-82.10901,36.0687],[-82.11015,36.06808],[-82.11097,36.06719],[-82.113,36.06654],[-82.11415,36.06522],[-82.1167,36.06322],[-82.11768,36.06302],[-82.11941,36.06333],[-82.12038,36.06336],[-82.12125,36.06317],[-82.12222,36.06281],[-82.12266,36.06279],[-82.12428,36.06358],[-82.12494,36.06368],[-82.1257,36.06349],[-82.13067,36.06169],[-82.13117,36.06112],[-82.13264,36.05725],[-82.13304,36.05685],[-82.13487,36.05583],[-82.13535,36.05584],[-82.13739,36.05636],[-82.14207,36.05626],[-82.14274,36.05637],[-82.14321,36.05656],[-82.14376,36.05699],[-82.14456,36.05831],[-82.14504,36.05878],[-82.1458,36.05912],[-82.14707,36.05936],[-82.14766,36.05916],[-82.14909,36.0577],[-82.14968,36.0573],[-82.15135,36.05644],[-82.15312,36.05503],[-82.15377,36.05439],[-82.15434,36.05319],[-82.15502,36.05224],[-82.15628,36.05089],[-82.15678,36.0502],[-82.15721,36.04993],[-82.15792,36.04966],[-82.15855,36.04902],[-82.15942,36.04847],[-82.16017,36.0477],[-82.16086,36.04729],[-82.16136,36.04675],[-82.16169,36.04625],[-82.16179,36.04567],[-82.16197,36.04539],[-82.16286,36.04461],[-82.16304,36.04383],[-82.16397,36.04335],[-82.16402,36.04302],[-82.16359,36.04248],[-82.16366,36.04205],[-82.16393,36.04186],[-82.1645,36.04169],[-82.1659,36.04156],[-82.16653,36.0414],[-82.16682,36.04128],[-82.16733,36.04086],[-82.16811,36.04057],[-82.16836,36.03983],[-82.16883,36.03927],[-82.16881,36.03909],[-82.16843,36.03854],[-82.16863,36.03801],[-82.16896,36.03776],[-82.16985,36.03769],[-82.17016,36.03732],[-82.17014,36.03708],[-82.16997,36.03684],[-82.1693,36.03663],[-82.16903,36.03643],[-82.16899,36.03623],[-82.16924,36.03576],[-82.16915,36.03549],[-82.16841,36.03517],[-82.16808,36.03476],[-82.16805,36.03443],[-82.16818,36.03413],[-82.16841,36.03393],[-82.16918,36.03355],[-82.16931,36.03336],[-82.16933,36.03307],[-82.16808,36.03091],[-82.16774,36.03067],[-82.1669,36.0304],[-82.16658,36.03009],[-82.16632,36.02917],[-82.16653,36.02808],[-82.16642,36.02769],[-82.16592,36.0273],[-82.16407,36.02672],[-82.1638,36.0265],[-82.1635,36.02597],[-82.16333,36.02542],[-82.16338,36.02407],[-82.16313,36.02322],[-82.16264,36.02015],[-82.16219,36.01894],[-82.16106,36.01733],[-82.16056,36.01637],[-82.15987,36.01577],[-82.15877,36.01541]]]}}]}
