{"type":"FeatureCollection","features":[{"type":"Feature","properties":{"id":"palomar-south-grade","name":"Palomar South Grade \u00b7 S6","difficulty":3,"character":"Technical"},"geometry":{"type":"Point","coordinates":[-116.885521,33.305397]}},{"type":"Feature","properties":{"id":"palomar-east-grade","name":"Palomar East Grade \u00b7 S7","difficulty":2,"character":"Medium speed"},"geometry":{"type":"Point","coordinates":[-116.828102,33.292282]}},{"type":"Feature","properties":{"id":"sunrise-highway","name":"Sunrise Highway \u00b7 S1","difficulty":2,"character":"Medium speed"},"geometry":{"type":"Point","coordinates":[-116.438698,32.888859]}},{"type":"Feature","properties":{"id":"cuyamaca-79","name":"Highway 79 \u00b7 Cuyamaca","difficulty":2,"character":"Medium speed"},"geometry":{"type":"Point","coordinates":[-116.5792711,32.9614466]}},{"type":"Feature","properties":{"id":"banner-grade","name":"Banner Grade \u00b7 SR 78","difficulty":3,"character":"Technical"},"geometry":{"type":"Point","coordinates":[-116.554153,33.071571]}},{"type":"Feature","properties":{"id":"montezuma-grade","name":"Montezuma Valley Road \u00b7 S22","difficulty":3,"character":"Technical"},"geometry":{"type":"Point","coordinates":[-116.45575,33.220448]}},{"type":"Feature","properties":{"id":"mesa-grande","name":"Mesa Grande Road","difficulty":3,"character":"Technical"},"geometry":{"type":"Point","coordinates":[-116.762657,33.173595]}},{"type":"Feature","properties":{"id":"highland-valley","name":"Highland Valley Road","difficulty":2,"character":"Medium speed"},"geometry":{"type":"Point","coordinates":[-116.970947,33.056358]}},{"type":"Feature","properties":{"id":"couser-canyon","name":"Couser Canyon Road","difficulty":3,"character":"Technical"},"geometry":{"type":"Point","coordinates":[-117.107849,33.3260682]}}]}
