{"type":"FeatureCollection","features":[{"type":"Feature","properties":{"id":"palomar-south-grade","name":"Palomar South Grade \u00b7 S6","difficulty":3,"character":"Technical"},"geometry":{"type":"MultiLineString","coordinates":[[[-116.89025,33.29348],[-116.89007,33.29355],[-116.88998,33.29375],[-116.89026,33.29427],[-116.89021,33.29507],[-116.8903,33.29528],[-116.89075,33.29575],[-116.89143,33.29588],[-116.89153,33.29607],[-116.89148,33.29619],[-116.8911,33.29633],[-116.88934,33.29547],[-116.88906,33.29544],[-116.88885,33.29556],[-116.88888,33.29588],[-116.88912,33.29597],[-116.88944,33.29593],[-116.8898,33.29602],[-116.89003,33.29623],[-116.8901,33.29644],[-116.88993,33.29697],[-116.88962,33.29731],[-116.88923,33.29751],[-116.88881,33.29757],[-116.88686,33.29722],[-116.88662,33.29734],[-116.88657,33.29754],[-116.8867,33.29772],[-116.88729,33.29791],[-116.88764,33.29834],[-116.88795,33.29855],[-116.88982,33.29853],[-116.89,33.29868],[-116.88996,33.29895],[-116.88969,33.29905],[-116.88903,33.29884],[-116.88847,33.299],[-116.88807,33.29933],[-116.88766,33.30004],[-116.88721,33.30024],[-116.88612,33.30038],[-116.88506,33.30021],[-116.88462,33.30029],[-116.8838,33.30067],[-116.88357,33.30068],[-116.88306,33.30049],[-116.88277,33.30066],[-116.88276,33.3009],[-116.883,33.30104],[-116.88398,33.30107],[-116.88485,33.3008],[-116.88507,33.3009],[-116.88511,33.30106],[-116.88493,33.30128],[-116.88439,33.30142],[-116.88272,33.30151],[-116.88252,33.30172],[-116.88266,33.30197],[-116.88459,33.30196],[-116.88572,33.30185],[-116.88707,33.30222],[-116.88739,33.30241],[-116.88743,33.30272],[-116.88721,33.3035],[-116.88771,33.30395],[-116.88768,33.30422],[-116.88729,33.30432],[-116.88626,33.30385],[-116.88614,33.30343],[-116.88647,33.30291],[-116.88638,33.30275],[-116.88614,33.30268],[-116.88587,33.30281],[-116.88577,33.30337],[-116.88541,33.30405],[-116.88559,33.30454],[-116.88686,33.30552],[-116.8869,33.30577],[-116.88673,33.30594],[-116.88644,33.30592],[-116.88552,33.3054],[-116.88528,33.30497],[-116.88486,33.30476],[-116.88448,33.30441],[-116.88375,33.30438],[-116.88326,33.30421],[-116.88283,33.30418],[-116.88179,33.30462],[-116.88158,33.30488],[-116.88142,33.30542],[-116.88084,33.3056],[-116.88019,33.306],[-116.87984,33.3059],[-116.87951,33.3053],[-116.8793,33.30518],[-116.87878,33.30505],[-116.87847,33.30509],[-116.8783,33.30526],[-116.87792,33.30612],[-116.87773,33.30636],[-116.87746,33.30644],[-116.87726,33.30633],[-116.87667,33.30481],[-116.87651,33.30461],[-116.87596,33.30451],[-116.87533,33.30472],[-116.87488,33.30498],[-116.87461,33.30497],[-116.87433,33.3047],[-116.87369,33.30337],[-116.87237,33.30281],[-116.87213,33.3028],[-116.87196,33.30297],[-116.87181,33.30406],[-116.87144,33.30448],[-116.87108,33.30471],[-116.87076,33.30474],[-116.87051,33.30464],[-116.87022,33.30408],[-116.86986,33.30376],[-116.86942,33.30361],[-116.86913,33.30369],[-116.86904,33.30393],[-116.86914,33.30409],[-116.86979,33.30432],[-116.87029,33.30504],[-116.8712,33.30551],[-116.87154,33.3056],[-116.87174,33.30556],[-116.87244,33.30506],[-116.87262,33.30509],[-116.87276,33.30526],[-116.87261,33.30557],[-116.87164,33.30598],[-116.87113,33.306],[-116.8702,33.30577],[-116.87,33.30582],[-116.86988,33.306],[-116.87,33.307],[-116.87026,33.30777],[-116.87044,33.30797],[-116.87072,33.30808],[-116.87111,33.308],[-116.87145,33.30745],[-116.87181,33.3073],[-116.87218,33.30738],[-116.87249,33.30757],[-116.87267,33.30775],[-116.87277,33.30807],[-116.87254,33.30881],[-116.87238,33.30904],[-116.87105,33.30993],[-116.87079,33.31027],[-116.8707,33.31089],[-116.87085,33.31132],[-116.87109,33.31149],[-116.87193,33.3117],[-116.87209,33.31182],[-116.87214,33.31201],[-116.87199,33.31223],[-116.87147,33.31239],[-116.87124,33.31258],[-116.87099,33.31345],[-116.87102,33.3141],[-116.87085,33.31428],[-116.87045,33.31436]]]}},{"type":"Feature","properties":{"id":"palomar-east-grade","name":"Palomar East Grade \u00b7 S7","difficulty":2,"character":"Medium speed"},"geometry":{"type":"MultiLineString","coordinates":[[[-116.78674,33.28038],[-116.78767,33.28164],[-116.79092,33.28428],[-116.79152,33.28447],[-116.79285,33.28454],[-116.7932,33.28463],[-116.79351,33.28485],[-116.79393,33.28569],[-116.79432,33.28588],[-116.79514,33.28591],[-116.7958,33.28629],[-116.79633,33.2867],[-116.79745,33.28793],[-116.79776,33.28809],[-116.79826,33.28804],[-116.79899,33.28759],[-116.79977,33.28726],[-116.80018,33.28688],[-116.80051,33.28632],[-116.80071,33.28623],[-116.80113,33.28621],[-116.80176,33.28649],[-116.80225,33.28712],[-116.80267,33.28731],[-116.80309,33.28724],[-116.80372,33.28686],[-116.8043,33.28695],[-116.80455,33.28722],[-116.8047,33.28799],[-116.80508,33.2886],[-116.80558,33.28878],[-116.80616,33.28869],[-116.80649,33.28876],[-116.80763,33.2901],[-116.80789,33.29026],[-116.80838,33.29035],[-116.80898,33.29016],[-116.81293,33.28701],[-116.81377,33.28672],[-116.81451,33.28666],[-116.81508,33.28671],[-116.81602,33.28702],[-116.81757,33.28783],[-116.81907,33.28864],[-116.82032,33.28953],[-116.82114,33.28995],[-116.82229,33.29014],[-116.82458,33.28997],[-116.8254,33.29006],[-116.82601,33.2903],[-116.8265,33.29064],[-116.82744,33.29175],[-116.82782,33.29209],[-116.82861,33.29257],[-116.82935,33.2927],[-116.82967,33.29265],[-116.83044,33.29232],[-116.83112,33.29237],[-116.83421,33.29369],[-116.8345,33.29391],[-116.8349,33.2946],[-116.83573,33.29501],[-116.8359,33.29532],[-116.83575,33.29618],[-116.83589,33.29673],[-116.83643,33.29766],[-116.83676,33.29794],[-116.83733,33.298],[-116.83775,33.29779],[-116.83802,33.29739],[-116.8381,33.29687],[-116.83847,33.29651],[-116.83904,33.29644],[-116.83962,33.29666],[-116.84007,33.29702],[-116.84066,33.29802],[-116.84094,33.29819],[-116.84164,33.29837],[-116.84203,33.29868],[-116.84273,33.30016],[-116.84284,33.30062],[-116.84279,33.30135],[-116.84307,33.3017],[-116.84349,33.3018],[-116.84431,33.30175],[-116.84586,33.30212],[-116.84625,33.30238],[-116.84652,33.30318],[-116.84683,33.30339],[-116.84708,33.30343],[-116.8478,33.30327],[-116.84818,33.30331],[-116.8485,33.30347],[-116.8493,33.30411],[-116.84969,33.30425],[-116.84995,33.30428],[-116.85071,33.30413],[-116.8512,33.30418],[-116.85157,33.30442],[-116.85194,33.30508],[-116.85242,33.30536],[-116.85291,33.30537],[-116.8535,33.30523],[-116.85405,33.30521],[-116.85452,33.30538],[-116.855,33.30578],[-116.85538,33.30595],[-116.85618,33.306],[-116.85661,33.30614],[-116.85709,33.30656],[-116.85719,33.30718],[-116.85739,33.30753],[-116.85878,33.30809],[-116.85915,33.30845],[-116.85968,33.30937],[-116.86043,33.30992],[-116.86089,33.31047],[-116.86111,33.31061],[-116.86175,33.31077],[-116.86206,33.31101],[-116.86216,33.31119],[-116.86219,33.31177],[-116.86234,33.31204],[-116.86273,33.31221],[-116.86446,33.31234],[-116.86492,33.31262],[-116.86514,33.313]]]}},{"type":"Feature","properties":{"id":"sunrise-highway","name":"Sunrise Highway \u00b7 S1","difficulty":2,"character":"Medium speed"},"geometry":{"type":"MultiLineString","coordinates":[[[-116.51125,32.81014],[-116.509,32.81343],[-116.50882,32.81385],[-116.50862,32.8153],[-116.5088,32.81568],[-116.50968,32.81653],[-116.50982,32.81701],[-116.5098,32.81771],[-116.51009,32.81832],[-116.51017,32.81877],[-116.50995,32.81931],[-116.50898,32.82011],[-116.50849,32.82143],[-116.50829,32.82172],[-116.50768,32.82207],[-116.50608,32.82205],[-116.50536,32.8223],[-116.50499,32.82262],[-116.50475,32.82299],[-116.50433,32.82422],[-116.50377,32.82464],[-116.50201,32.82492],[-116.50038,32.82442],[-116.49986,32.82441],[-116.49828,32.82509],[-116.49692,32.82525],[-116.49649,32.82547],[-116.49613,32.82592],[-116.4953,32.828],[-116.49525,32.82844],[-116.49538,32.82902],[-116.49589,32.82998],[-116.49595,32.83099],[-116.49628,32.83194],[-116.49628,32.83239],[-116.49597,32.83342],[-116.49597,32.83408],[-116.49672,32.83621],[-116.49672,32.83674],[-116.49653,32.83714],[-116.49619,32.83746],[-116.49525,32.83805],[-116.49506,32.83836],[-116.49504,32.83862],[-116.49526,32.83941],[-116.49522,32.84043],[-116.49568,32.84164],[-116.49566,32.84228],[-116.49532,32.84285],[-116.49464,32.84354],[-116.49435,32.84483],[-116.49342,32.84563],[-116.4925,32.84597],[-116.49014,32.84629],[-116.48981,32.84628],[-116.48824,32.84593],[-116.48768,32.84599],[-116.48727,32.84614],[-116.48686,32.84642],[-116.48599,32.84743],[-116.48561,32.849],[-116.48505,32.84964],[-116.48373,32.8503],[-116.48242,32.8516],[-116.48164,32.85209],[-116.48101,32.85224],[-116.47922,32.85234],[-116.47849,32.85258],[-116.47803,32.8529],[-116.47693,32.85424],[-116.47638,32.85465],[-116.47584,32.8549],[-116.47465,32.85521],[-116.47154,32.85563],[-116.47044,32.85557],[-116.46918,32.85524],[-116.46865,32.8552],[-116.46801,32.8553],[-116.46724,32.85559],[-116.46616,32.85637],[-116.46487,32.85688],[-116.46413,32.85742],[-116.46177,32.86143],[-116.46122,32.86191],[-116.46031,32.86218],[-116.45991,32.86218],[-116.45931,32.86205],[-116.45895,32.86186],[-116.4585,32.86148],[-116.45817,32.86074],[-116.45788,32.85866],[-116.45753,32.85791],[-116.45702,32.85745],[-116.45592,32.85681],[-116.45534,32.85631],[-116.45496,32.85582],[-116.45419,32.85415],[-116.4537,32.85347],[-116.45323,32.85303],[-116.45161,32.85196],[-116.451,32.85142],[-116.44862,32.84822],[-116.44637,32.84628],[-116.44582,32.84597],[-116.44322,32.84483],[-116.44249,32.84459],[-116.44163,32.84448],[-116.4406,32.84457],[-116.44009,32.84469],[-116.43952,32.84492],[-116.43881,32.84536],[-116.43737,32.84666],[-116.43636,32.84719],[-116.43579,32.84738],[-116.43443,32.84757],[-116.43236,32.84754],[-116.43132,32.8476],[-116.42645,32.84862],[-116.42584,32.84891],[-116.42525,32.84942],[-116.42422,32.85085],[-116.42318,32.85176],[-116.4228,32.85253],[-116.42271,32.85341],[-116.42319,32.85551],[-116.42311,32.85663],[-116.42271,32.85786],[-116.42188,32.85957],[-116.42053,32.86137],[-116.42031,32.8618],[-116.4202,32.86263],[-116.42054,32.86454],[-116.42039,32.86542],[-116.41936,32.86678],[-116.4185,32.86765],[-116.41601,32.86934],[-116.41575,32.86976],[-116.4157,32.87046],[-116.41741,32.87365],[-116.41817,32.87474],[-116.42496,32.88081],[-116.43677,32.88804],[-116.43797,32.88862],[-116.4387,32.88886],[-116.44126,32.88946],[-116.44299,32.8901],[-116.44403,32.89071],[-116.44614,32.89233],[-116.44734,32.89285],[-116.44806,32.89334],[-116.44854,32.89404],[-116.44895,32.89614],[-116.44978,32.89734],[-116.45022,32.89762],[-116.45066,32.89778],[-116.45196,32.89786],[-116.45241,32.89798],[-116.4529,32.89825],[-116.45333,32.89869],[-116.45539,32.90277],[-116.45877,32.90745],[-116.45999,32.91002],[-116.46067,32.91096],[-116.4619,32.91201],[-116.46501,32.91378],[-116.46559,32.91421],[-116.47717,32.92434],[-116.478,32.92467],[-116.47875,32.92468],[-116.48041,32.92405],[-116.48155,32.92392],[-116.48266,32.92418],[-116.48351,32.92476],[-116.48384,32.92516],[-116.48414,32.92581],[-116.48569,32.93388],[-116.4859,32.93454],[-116.48622,32.93506],[-116.48752,32.93666],[-116.49026,32.94125],[-116.49077,32.94191],[-116.49347,32.94434],[-116.49417,32.94482],[-116.49475,32.94499],[-116.49528,32.94503],[-116.49854,32.94468],[-116.49955,32.94489],[-116.49994,32.94512],[-116.50042,32.94561],[-116.50089,32.94696],[-116.50135,32.94755],[-116.50207,32.94794],[-116.50347,32.94816],[-116.50397,32.94834],[-116.50469,32.94893],[-116.50499,32.94964],[-116.50511,32.95086],[-116.50541,32.95154],[-116.506,32.95219],[-116.50711,32.95303],[-116.5077,32.95389],[-116.50872,32.95816],[-116.50891,32.95856],[-116.51004,32.96],[-116.51322,32.96693],[-116.51336,32.96754],[-116.51352,32.96964],[-116.51381,32.97042],[-116.51767,32.97484],[-116.51839,32.97532],[-116.51971,32.97551],[-116.52036,32.9757],[-116.52148,32.97664],[-116.52374,32.97755],[-116.52589,32.97918],[-116.52641,32.97937],[-116.52764,32.97963],[-116.52877,32.98042],[-116.53017,32.98076],[-116.53088,32.98116],[-116.53255,32.98378],[-116.53303,32.98471],[-116.53311,32.98516],[-116.53295,32.98773],[-116.53302,32.98886],[-116.53348,32.99019],[-116.53383,32.99079],[-116.53445,32.99152],[-116.53571,32.99252],[-116.53819,32.99389],[-116.53941,32.99415],[-116.54178,32.99418],[-116.54279,32.99433],[-116.54417,32.99479],[-116.5453,32.99548],[-116.55534,33.00435],[-116.55878,33.00934],[-116.55925,33.00991],[-116.56009,33.01049],[-116.56121,33.01092]]]}},{"type":"Feature","properties":{"id":"cuyamaca-79","name":"Highway 79 \u00b7 Cuyamaca","difficulty":2,"character":"Medium speed"},"geometry":{"type":"MultiLineString","coordinates":[[[-116.61301,32.84117],[-116.61242,32.84162],[-116.61176,32.84186],[-116.61115,32.84192],[-116.60972,32.8417],[-116.60892,32.84174],[-116.60288,32.8432],[-116.60199,32.84356],[-116.60124,32.84416],[-116.59906,32.84781],[-116.59449,32.85248],[-116.59499,32.85295],[-116.59523,32.85333],[-116.59543,32.85426],[-116.59529,32.85482],[-116.59456,32.85567],[-116.59438,32.85607],[-116.59431,32.85682],[-116.5945,32.85846],[-116.59435,32.85945],[-116.5931,32.86237],[-116.59239,32.86316],[-116.59206,32.86369],[-116.592,32.86409],[-116.59213,32.86494],[-116.59209,32.86531],[-116.59166,32.86611],[-116.59142,32.86686],[-116.58963,32.87032],[-116.58917,32.87209],[-116.58914,32.87288],[-116.58901,32.87327],[-116.58819,32.87454],[-116.58781,32.87549],[-116.58754,32.87569],[-116.58696,32.8758],[-116.58672,32.87593],[-116.58623,32.87659],[-116.58581,32.87685],[-116.58544,32.87728],[-116.58522,32.8778],[-116.58451,32.87843],[-116.5845,32.87871],[-116.58486,32.87986],[-116.58478,32.88035],[-116.58454,32.88053],[-116.58425,32.88054],[-116.58353,32.88018],[-116.58299,32.87967],[-116.5827,32.8796],[-116.58224,32.87969],[-116.58056,32.88093],[-116.57985,32.8816],[-116.57768,32.88277],[-116.5764,32.88303],[-116.57598,32.88319],[-116.57513,32.88417],[-116.57485,32.88473],[-116.57484,32.88527],[-116.5757,32.88739],[-116.57601,32.88919],[-116.57646,32.89068],[-116.5775,32.89245],[-116.57857,32.89402],[-116.57918,32.89625],[-116.57945,32.89676],[-116.58018,32.89762],[-116.58046,32.8982],[-116.58065,32.89916],[-116.58062,32.90057],[-116.58047,32.90124],[-116.58004,32.90219],[-116.58078,32.90428],[-116.58062,32.90527],[-116.5804,32.9057],[-116.57957,32.90676],[-116.57929,32.90749],[-116.57874,32.90815],[-116.57748,32.90885],[-116.57557,32.90918],[-116.57486,32.90971],[-116.57459,32.91016],[-116.57322,32.91346],[-116.57295,32.91383],[-116.57185,32.91484],[-116.57154,32.9153],[-116.57146,32.91567],[-116.57158,32.91694],[-116.57123,32.91786],[-116.56417,32.92494],[-116.56368,32.92625],[-116.56348,32.92777],[-116.56264,32.93105],[-116.56272,32.93187],[-116.56261,32.93468],[-116.56365,32.93795],[-116.56421,32.93875],[-116.56576,32.93997],[-116.56693,32.94165],[-116.56734,32.9427],[-116.56835,32.94352],[-116.56992,32.9454],[-116.57059,32.94597],[-116.57142,32.94735],[-116.57201,32.94782],[-116.57241,32.94833],[-116.57271,32.94847],[-116.5735,32.94834],[-116.57446,32.94764],[-116.57502,32.94751],[-116.57555,32.94754],[-116.57613,32.94789],[-116.57658,32.948],[-116.57712,32.94808],[-116.57813,32.94806],[-116.5783,32.94814],[-116.57828,32.94837],[-116.5776,32.94911],[-116.57731,32.94978],[-116.57659,32.95054],[-116.57638,32.95135],[-116.57696,32.95214],[-116.57683,32.95256],[-116.57688,32.95273],[-116.57792,32.95326],[-116.57787,32.9534],[-116.57746,32.95356],[-116.5772,32.95383],[-116.57709,32.95426],[-116.57715,32.95459],[-116.57739,32.95499],[-116.57822,32.9555],[-116.57826,32.95575],[-116.57805,32.9564],[-116.5781,32.95671],[-116.57846,32.95725],[-116.57901,32.9576],[-116.57912,32.95778],[-116.57907,32.95868],[-116.57929,32.96171],[-116.57983,32.96401],[-116.57967,32.96458],[-116.58019,32.96602],[-116.5801,32.96659],[-116.58022,32.96754],[-116.58011,32.96803],[-116.57979,32.96849],[-116.57932,32.96872],[-116.57836,32.96883],[-116.57732,32.96971],[-116.5771,32.97078],[-116.57727,32.97205],[-116.57691,32.97311],[-116.57689,32.97346],[-116.57718,32.97424],[-116.57783,32.9749],[-116.57837,32.97602],[-116.57868,32.97639],[-116.57932,32.97656],[-116.58152,32.97652],[-116.58187,32.97672],[-116.58189,32.9771],[-116.58096,32.97904],[-116.58115,32.98058],[-116.58078,32.98163],[-116.58098,32.98222],[-116.58175,32.98326],[-116.58223,32.98496],[-116.58241,32.98527],[-116.58332,32.9862],[-116.58371,32.98694],[-116.58436,32.9876],[-116.58479,32.98783],[-116.58577,32.988],[-116.58698,32.98858],[-116.58834,32.98985],[-116.5885,32.99056],[-116.58832,32.99108],[-116.58804,32.99142],[-116.58754,32.99172],[-116.5871,32.99183],[-116.58106,32.99112],[-116.57964,32.99063],[-116.57938,32.99066],[-116.57866,32.99111],[-116.57831,32.99117],[-116.57786,32.99113],[-116.57691,32.99077],[-116.57646,32.99073],[-116.57608,32.99088],[-116.57541,32.99142],[-116.57437,32.99169],[-116.57354,32.99252],[-116.57241,32.99291],[-116.5717,32.99404],[-116.56683,32.9989],[-116.56654,32.9993],[-116.56568,33.0014],[-116.56451,33.00237],[-116.56372,33.00783],[-116.56351,33.00821],[-116.56134,33.01073],[-116.56111,33.01127],[-116.56119,33.01246],[-116.56164,33.01407],[-116.56246,33.01553],[-116.56255,33.01592],[-116.56234,33.01724],[-116.56128,33.0187],[-116.56114,33.02013],[-116.56117,33.0221],[-116.56208,33.02496],[-116.56232,33.02627],[-116.56287,33.02724],[-116.5629,33.02753],[-116.56253,33.02861],[-116.5626,33.02889],[-116.56309,33.02969],[-116.56315,33.03019],[-116.56311,33.03055],[-116.56296,33.03079],[-116.56207,33.03124],[-116.56159,33.03162],[-116.56148,33.03181],[-116.56145,33.03231],[-116.56161,33.03278],[-116.56214,33.03347],[-116.56275,33.03382],[-116.56301,33.03407],[-116.56345,33.03506],[-116.56325,33.0354],[-116.56257,33.03569],[-116.5622,33.03629],[-116.56219,33.03648],[-116.56236,33.03671],[-116.56318,33.03724],[-116.56332,33.03826],[-116.56394,33.03872],[-116.56441,33.03887],[-116.56556,33.0386],[-116.56592,33.03858],[-116.56709,33.03915],[-116.56785,33.0398],[-116.56792,33.04],[-116.56786,33.04023],[-116.56709,33.04078],[-116.56688,33.04171],[-116.56663,33.04211],[-116.5662,33.04241],[-116.56595,33.04294],[-116.56595,33.04311],[-116.56623,33.04366],[-116.56631,33.04444],[-116.56648,33.04484],[-116.56664,33.04506],[-116.56721,33.04542],[-116.56761,33.04633],[-116.56793,33.04656],[-116.5688,33.04691],[-116.56921,33.04727],[-116.56941,33.04765],[-116.56976,33.04904],[-116.57006,33.04949],[-116.57222,33.05094],[-116.573,33.05166],[-116.57472,33.05444],[-116.57603,33.05634],[-116.57803,33.05866],[-116.57888,33.06079],[-116.5794,33.06154],[-116.58324,33.06544],[-116.58437,33.06634],[-116.59765,33.0739],[-116.59815,33.07441],[-116.59846,33.07498],[-116.59861,33.07552],[-116.59865,33.07643]]]}},{"type":"Feature","properties":{"id":"banner-grade","name":"Banner Grade \u00b7 SR 78","difficulty":3,"character":"Technical"},"geometry":{"type":"MultiLineString","coordinates":[[[-116.59865,33.07643],[-116.59138,33.07654],[-116.59078,33.07667],[-116.5903,33.07695],[-116.59001,33.07732],[-116.58988,33.07779],[-116.58984,33.07902],[-116.58923,33.08011],[-116.58922,33.08043],[-116.58949,33.0815],[-116.58924,33.08211],[-116.58925,33.08231],[-116.58981,33.0832],[-116.59009,33.08426],[-116.59065,33.08563],[-116.59171,33.08666],[-116.59174,33.08754],[-116.5919,33.08784],[-116.59219,33.08798],[-116.59397,33.08816],[-116.59439,33.08828],[-116.59462,33.08854],[-116.5948,33.08944],[-116.59499,33.08974],[-116.59657,33.09096],[-116.59679,33.09134],[-116.59667,33.09181],[-116.59604,33.09232],[-116.59573,33.09272],[-116.59546,33.09379],[-116.59493,33.09432],[-116.59475,33.0951],[-116.59404,33.09612],[-116.59378,33.09749],[-116.59348,33.09764],[-116.59267,33.09761],[-116.59225,33.09747],[-116.59057,33.09659],[-116.58942,33.09581],[-116.58907,33.09575],[-116.58844,33.09591],[-116.58812,33.09585],[-116.58772,33.09504],[-116.58744,33.09469],[-116.58698,33.09449],[-116.58605,33.09437],[-116.58525,33.09396],[-116.58447,33.09384],[-116.58414,33.09371],[-116.58345,33.09318],[-116.58297,33.09267],[-116.5828,33.09206],[-116.58178,33.09175],[-116.58132,33.0913],[-116.58026,33.09077],[-116.57964,33.08991],[-116.57915,33.08953],[-116.5791,33.08883],[-116.57898,33.08864],[-116.57689,33.08683],[-116.57566,33.08648],[-116.57474,33.08578],[-116.57465,33.08535],[-116.5752,33.08477],[-116.5752,33.08461],[-116.57504,33.08441],[-116.57413,33.084],[-116.57352,33.08396],[-116.57257,33.08372],[-116.57212,33.08339],[-116.5718,33.0829],[-116.57171,33.08257],[-116.57204,33.08158],[-116.57253,33.08084],[-116.57241,33.08042],[-116.57191,33.08029],[-116.5712,33.08044],[-116.57024,33.08048],[-116.56948,33.07999],[-116.56926,33.08006],[-116.56872,33.08049],[-116.56841,33.08058],[-116.56809,33.08054],[-116.56762,33.08021],[-116.56681,33.07936],[-116.56637,33.07869],[-116.56535,33.0782],[-116.56499,33.07791],[-116.56471,33.07739],[-116.56474,33.07692],[-116.56453,33.07668],[-116.56303,33.07667],[-116.56225,33.0765],[-116.56195,33.07623],[-116.56127,33.07507],[-116.56023,33.07509],[-116.56005,33.0749],[-116.55989,33.07444],[-116.55962,33.07428],[-116.55901,33.07457],[-116.55859,33.07456],[-116.55832,33.07431],[-116.55818,33.07369],[-116.55762,33.07315],[-116.55707,33.07293],[-116.55611,33.07308],[-116.55581,33.073],[-116.55544,33.07221],[-116.55522,33.0721],[-116.55459,33.07205],[-116.55433,33.07165],[-116.55386,33.07141],[-116.55367,33.07091],[-116.55292,33.07082],[-116.55216,33.07035],[-116.55192,33.06999],[-116.55204,33.06963],[-116.55273,33.06943],[-116.55299,33.06877],[-116.55364,33.0682],[-116.55362,33.06654],[-116.55349,33.06635],[-116.55322,33.06631],[-116.55301,33.06647],[-116.55276,33.06712],[-116.55229,33.06771],[-116.55139,33.06819],[-116.54971,33.06816],[-116.5485,33.06727],[-116.54816,33.06718],[-116.54788,33.06728],[-116.54735,33.06814],[-116.54674,33.06879],[-116.54431,33.07076],[-116.54395,33.0709],[-116.54334,33.07085],[-116.54301,33.07091],[-116.54224,33.0714],[-116.5411,33.072],[-116.54011,33.07238],[-116.53888,33.0731],[-116.53798,33.07401],[-116.53455,33.07608],[-116.53302,33.07775],[-116.53207,33.07833],[-116.48125,33.09449],[-116.47534,33.09677]]]}},{"type":"Feature","properties":{"id":"montezuma-grade","name":"Montezuma Valley Road \u00b7 S22","difficulty":3,"character":"Technical"},"geometry":{"type":"MultiLineString","coordinates":[[[-116.60477,33.21978],[-116.60333,33.22039],[-116.6013,33.22057],[-116.60035,33.22051],[-116.59756,33.22012],[-116.59621,33.2198],[-116.59533,33.21945],[-116.59319,33.21808],[-116.59174,33.21735],[-116.59032,33.21697],[-116.58927,33.21687],[-116.58588,33.21682],[-116.58469,33.2169],[-116.58314,33.21727],[-116.58085,33.21822],[-116.57991,33.21851],[-116.57828,33.21875],[-116.57666,33.21867],[-116.57469,33.21818],[-116.57357,33.21774],[-116.56601,33.21317],[-116.56471,33.21265],[-116.56351,33.21243],[-116.56234,33.21242],[-116.56135,33.21257],[-116.55851,33.21324],[-116.55666,33.21341],[-116.55582,33.21338],[-116.55305,33.21308],[-116.55137,33.21277],[-116.54547,33.21086],[-116.54366,33.21044],[-116.54229,33.21028],[-116.49182,33.21051],[-116.48613,33.21102],[-116.48434,33.21093],[-116.47961,33.20999],[-116.47906,33.21017],[-116.4787,33.21063],[-116.47867,33.21091],[-116.47887,33.21165],[-116.47865,33.21222],[-116.47782,33.21306],[-116.4771,33.21346],[-116.47562,33.21379],[-116.47352,33.2145],[-116.47223,33.21471],[-116.47131,33.21455],[-116.47042,33.214],[-116.47007,33.21388],[-116.4696,33.21388],[-116.46877,33.21429],[-116.46826,33.2144],[-116.46737,33.21434],[-116.4663,33.21411],[-116.46567,33.21423],[-116.46545,33.21436],[-116.46511,33.21478],[-116.46493,33.21531],[-116.465,33.21577],[-116.46557,33.21668],[-116.46572,33.21715],[-116.46558,33.21771],[-116.46528,33.21804],[-116.46305,33.21947],[-116.46198,33.21993],[-116.45821,33.22058],[-116.45724,33.22064],[-116.45575,33.22045],[-116.45444,33.21987],[-116.45382,33.21935],[-116.4529,33.21828],[-116.45233,33.21777],[-116.45135,33.21715],[-116.451,33.21681],[-116.45086,33.21625],[-116.45093,33.21597],[-116.45127,33.21553],[-116.4519,33.21524],[-116.45285,33.21522],[-116.45366,33.21499],[-116.45413,33.21464],[-116.45451,33.21391],[-116.45442,33.21331],[-116.45329,33.2108],[-116.45298,33.2104],[-116.45224,33.20993],[-116.45142,33.20972],[-116.45097,33.20973],[-116.44767,33.21019],[-116.44691,33.21044],[-116.44594,33.21122],[-116.44502,33.21146],[-116.44447,33.21141],[-116.44365,33.21109],[-116.44314,33.21103],[-116.44161,33.21137],[-116.43971,33.21149],[-116.43503,33.21061],[-116.4335,33.21063],[-116.43235,33.21079],[-116.43185,33.21063],[-116.43136,33.2103],[-116.43095,33.21029],[-116.43038,33.21057],[-116.43002,33.21099],[-116.43001,33.21147],[-116.43029,33.21205],[-116.43012,33.21245],[-116.42828,33.2131],[-116.42723,33.21383],[-116.42675,33.21392],[-116.42627,33.21381],[-116.42423,33.21286],[-116.42391,33.21293],[-116.42371,33.21316],[-116.42379,33.21359],[-116.4243,33.2141],[-116.42488,33.2145],[-116.42509,33.21482],[-116.42506,33.21537],[-116.42449,33.21742],[-116.42425,33.21792],[-116.42321,33.21869],[-116.42272,33.21943],[-116.42232,33.21961],[-116.4217,33.21969],[-116.42134,33.2199],[-116.42092,33.22087],[-116.42043,33.2214],[-116.42036,33.2216],[-116.42038,33.22178],[-116.4206,33.2221],[-116.42247,33.22337],[-116.42301,33.22361],[-116.42399,33.22374],[-116.42435,33.22388],[-116.42453,33.22418],[-116.42438,33.22453],[-116.42397,33.2249],[-116.4236,33.22508],[-116.42177,33.22547],[-116.42108,33.2253],[-116.41949,33.22509],[-116.41914,33.2251],[-116.41831,33.22531],[-116.41781,33.2253],[-116.41729,33.22511],[-116.41662,33.22459],[-116.41604,33.22448],[-116.41574,33.2246],[-116.41501,33.22544],[-116.41464,33.22568],[-116.4143,33.22573],[-116.41324,33.22562],[-116.41259,33.22587],[-116.41216,33.22642],[-116.41202,33.22803],[-116.41079,33.22954],[-116.41085,33.22996],[-116.41157,33.23052],[-116.41176,33.23093],[-116.41163,33.23124],[-116.41077,33.23178],[-116.41038,33.23221],[-116.41048,33.23266],[-116.41117,33.23318],[-116.41132,33.2335],[-116.41111,33.23381],[-116.41051,33.23398],[-116.41024,33.23416],[-116.41015,33.23457],[-116.41041,33.23522],[-116.41031,33.23551],[-116.41002,33.23572],[-116.4098,33.23576],[-116.40893,33.23559],[-116.40839,33.23587],[-116.40821,33.23619],[-116.40833,33.23704],[-116.4081,33.23747],[-116.40762,33.23748],[-116.40671,33.23701],[-116.40636,33.23716],[-116.4062,33.23745],[-116.4065,33.23818],[-116.40636,33.23845],[-116.406,33.23855],[-116.40404,33.23857],[-116.40354,33.23874],[-116.40325,33.239],[-116.403,33.23957],[-116.40317,33.24069],[-116.40356,33.24109],[-116.40383,33.24121],[-116.40496,33.24148],[-116.40522,33.24173],[-116.4053,33.24215],[-116.40517,33.2424],[-116.4049,33.24257],[-116.40199,33.24354],[-116.40163,33.24381],[-116.40147,33.24434],[-116.40166,33.24474],[-116.40355,33.24666],[-116.40582,33.24867],[-116.40609,33.24915],[-116.40613,33.24967],[-116.40579,33.25035],[-116.40531,33.25071],[-116.40092,33.25211],[-116.4004,33.25238],[-116.39989,33.25284],[-116.3995,33.25351],[-116.39941,33.25399],[-116.39943,33.25647],[-116.37622,33.25657],[-116.37565,33.25681]]]}},{"type":"Feature","properties":{"id":"mesa-grande","name":"Mesa Grande Road","difficulty":3,"character":"Technical"},"geometry":{"type":"MultiLineString","coordinates":[[[-116.67931,33.13644],[-116.68089,33.1368],[-116.68137,33.13701],[-116.68387,33.13976],[-116.6915,33.14681],[-116.69273,33.14764],[-116.69559,33.1506],[-116.69584,33.15064],[-116.69632,33.15055],[-116.69651,33.15041],[-116.69653,33.15022],[-116.69619,33.14963],[-116.69617,33.14934],[-116.69626,33.14916],[-116.69744,33.14828],[-116.69857,33.14768],[-116.69868,33.14748],[-116.69868,33.14697],[-116.69891,33.14681],[-116.69965,33.14706],[-116.70065,33.14714],[-116.7009,33.14736],[-116.701,33.14764],[-116.70129,33.14779],[-116.70222,33.14751],[-116.70278,33.14754],[-116.70331,33.14735],[-116.70373,33.14732],[-116.70419,33.14743],[-116.70479,33.14789],[-116.70586,33.14835],[-116.70709,33.14852],[-116.70801,33.14889],[-116.7087,33.14942],[-116.70987,33.1507],[-116.71142,33.15276],[-116.71539,33.15483],[-116.71622,33.15606],[-116.71801,33.15833],[-116.71873,33.15886],[-116.72001,33.15933],[-116.72283,33.15995],[-116.72681,33.16198],[-116.73267,33.16359],[-116.73463,33.16425],[-116.73587,33.1649],[-116.73759,33.16606],[-116.739,33.16739],[-116.74149,33.16893],[-116.74309,33.16974],[-116.74531,33.17059],[-116.7459,33.17073],[-116.74757,33.17084],[-116.75231,33.17093],[-116.75625,33.17199],[-116.75944,33.17219],[-116.76341,33.17395],[-116.76392,33.17433],[-116.77148,33.18216],[-116.77193,33.18236],[-116.7737,33.18237],[-116.77449,33.18265],[-116.7763,33.1844],[-116.77802,33.18636],[-116.77824,33.18682],[-116.77816,33.18775],[-116.7783,33.18839],[-116.77861,33.1889],[-116.77962,33.18986],[-116.77981,33.19022],[-116.78,33.19226],[-116.77969,33.1925],[-116.77926,33.19264],[-116.77831,33.19258],[-116.77775,33.19314],[-116.7772,33.1934],[-116.77612,33.19338],[-116.77501,33.19315],[-116.77492,33.19326],[-116.77495,33.19391],[-116.77442,33.19422],[-116.77399,33.1942],[-116.77355,33.19407],[-116.77316,33.19348],[-116.77295,33.19348],[-116.77264,33.1939],[-116.77284,33.19463],[-116.77246,33.19521],[-116.77254,33.19604],[-116.77205,33.19662],[-116.77166,33.19677],[-116.77057,33.19692],[-116.76892,33.19702],[-116.76776,33.19742],[-116.76599,33.19736],[-116.76495,33.19773],[-116.76423,33.19785],[-116.76315,33.19792],[-116.76116,33.19786],[-116.75879,33.19829],[-116.75864,33.1985],[-116.75865,33.19927],[-116.75748,33.20053],[-116.75712,33.20078],[-116.75647,33.20101],[-116.75518,33.20214],[-116.75503,33.2028],[-116.7549,33.20296],[-116.7536,33.20361],[-116.75283,33.20468],[-116.75161,33.20583],[-116.74878,33.207],[-116.74779,33.20794],[-116.74675,33.20817],[-116.74535,33.20799],[-116.74493,33.20814],[-116.74454,33.20816],[-116.74418,33.20802],[-116.74396,33.20759],[-116.74381,33.20749],[-116.74298,33.2074],[-116.74249,33.20775],[-116.74219,33.20775],[-116.74128,33.20742],[-116.74052,33.20739],[-116.73946,33.20669],[-116.73934,33.20681],[-116.73939,33.20749],[-116.73892,33.208],[-116.73922,33.20848],[-116.73901,33.20911],[-116.7389,33.2092],[-116.73689,33.20893],[-116.7364,33.20843],[-116.73588,33.20862],[-116.73522,33.20858],[-116.73472,33.20874],[-116.73461,33.20894],[-116.73462,33.20945],[-116.73475,33.20977],[-116.73495,33.2099],[-116.73517,33.20987],[-116.73553,33.20933],[-116.73573,33.20927],[-116.73641,33.20978],[-116.73724,33.20994],[-116.73794,33.21035],[-116.73881,33.21037],[-116.73956,33.21029],[-116.73953,33.21046],[-116.73894,33.21085],[-116.73833,33.21164],[-116.73932,33.21308],[-116.7395,33.21351],[-116.73943,33.21379]]]}},{"type":"Feature","properties":{"id":"highland-valley","name":"Highland Valley Road","difficulty":2,"character":"Medium speed"},"geometry":{"type":"MultiLineString","coordinates":[[[-117.0672,33.05287],[-117.06685,33.05301],[-117.06566,33.05305],[-117.0647,33.05368],[-117.06408,33.05386],[-117.06157,33.05394],[-117.05924,33.05365],[-117.05805,33.05341],[-117.05627,33.05263],[-117.05447,33.0524],[-117.0528,33.05201],[-117.05127,33.05139],[-117.04999,33.05136],[-117.04768,33.05157],[-117.04602,33.05126],[-117.04538,33.05125],[-117.04276,33.05239],[-117.04144,33.05236],[-117.03998,33.05254],[-117.03943,33.0527],[-117.03772,33.05388],[-117.03586,33.05551],[-117.03505,33.05642],[-117.03434,33.05662],[-117.03297,33.05669],[-117.03118,33.05771],[-117.03071,33.05817],[-117.0304,33.05871],[-117.0301,33.06161],[-117.02998,33.0619],[-117.02956,33.06214],[-117.02811,33.06203],[-117.02773,33.06212],[-117.02749,33.06234],[-117.02742,33.06285],[-117.02719,33.06318],[-117.02714,33.06348],[-117.02699,33.06361],[-117.02681,33.0636],[-117.02444,33.06254],[-117.02326,33.06255],[-117.02258,33.06306],[-117.02235,33.06343],[-117.02222,33.06349],[-117.02197,33.06345],[-117.02154,33.06316],[-117.02078,33.06283],[-117.0206,33.06294],[-117.02035,33.06359],[-117.0202,33.06374],[-117.01797,33.06507],[-117.01674,33.06531],[-117.01486,33.06547],[-117.01458,33.06567],[-117.01438,33.06618],[-117.01401,33.06639],[-117.00047,33.06623],[-117.00026,33.06635],[-116.99985,33.06717],[-116.99966,33.06734],[-116.99926,33.06747],[-116.99828,33.0676],[-116.99677,33.06824],[-116.99467,33.06787],[-116.99397,33.06739],[-116.99321,33.06718],[-116.9922,33.06736],[-116.99132,33.06711],[-116.98379,33.067],[-116.98344,33.06679],[-116.98287,33.0658],[-116.98235,33.06538],[-116.98229,33.06448],[-116.98209,33.06381],[-116.98152,33.06351],[-116.9808,33.0634],[-116.98059,33.06327],[-116.98025,33.0627],[-116.98001,33.06254],[-116.97889,33.06251],[-116.97861,33.0624],[-116.97748,33.06136],[-116.97655,33.06099],[-116.9761,33.06043],[-116.97367,33.05896],[-116.97346,33.05873],[-116.97307,33.05795],[-116.97263,33.0576],[-116.9715,33.05708],[-116.97121,33.05679],[-116.97083,33.05606],[-116.97086,33.05526],[-116.97039,33.05437],[-116.97042,33.05378],[-116.97011,33.05183],[-116.97017,33.0512],[-116.97054,33.05042],[-116.97066,33.04869],[-116.97106,33.04743],[-116.97124,33.04716],[-116.97146,33.04695],[-116.97194,33.04671],[-116.97243,33.046],[-116.9737,33.04516],[-116.97413,33.04443],[-116.97398,33.04418],[-116.97314,33.04394],[-116.97256,33.04337],[-116.97168,33.04305],[-116.97148,33.04287],[-116.97123,33.04222],[-116.97136,33.04166],[-116.97197,33.04108],[-116.97239,33.04038],[-116.9723,33.04024],[-116.9718,33.04007],[-116.97109,33.03962],[-116.97094,33.0394],[-116.97133,33.03874],[-116.97101,33.03846],[-116.97154,33.03765],[-116.97154,33.03744],[-116.97135,33.03713],[-116.97149,33.03702],[-116.97213,33.03695],[-116.97298,33.03641],[-116.97352,33.03644],[-116.97361,33.03631],[-116.97362,33.03573],[-116.97392,33.03512],[-116.97374,33.03432],[-116.97408,33.03253],[-116.97403,33.03194],[-116.97371,33.03135],[-116.97286,33.03054],[-116.97213,33.03011],[-116.97154,33.02991],[-116.9709,33.02981],[-116.96969,33.02979],[-116.96892,33.03],[-116.96741,33.03077],[-116.96597,33.03111],[-116.96489,33.03186],[-116.96448,33.03205],[-116.96311,33.03218],[-116.96164,33.03268],[-116.95959,33.03308],[-116.95583,33.0332],[-116.95525,33.03304],[-116.95488,33.03276],[-116.9539,33.03311],[-116.95321,33.03316],[-116.93616,33.03291],[-116.93607,33.02774],[-116.93587,33.02733],[-116.93485,33.02696],[-116.92667,33.02274],[-116.92137,33.01826],[-116.92094,33.01807],[-116.91914,33.01769],[-116.91529,33.01761],[-116.91436,33.01738],[-116.91101,33.01556],[-116.91024,33.01505],[-116.90857,33.01317]]]}},{"type":"Feature","properties":{"id":"couser-canyon","name":"Couser Canyon Road","difficulty":3,"character":"Technical"},"geometry":{"type":"MultiLineString","coordinates":[[[-117.0853,33.29844],[-117.08569,33.29881],[-117.08654,33.30003],[-117.08675,33.30071],[-117.08731,33.3011],[-117.08788,33.30129],[-117.08924,33.30218],[-117.08969,33.30262],[-117.09179,33.3057],[-117.09197,33.30732],[-117.0921,33.30756],[-117.09299,33.30825],[-117.09397,33.30837],[-117.09445,33.30856],[-117.09486,33.30899],[-117.09528,33.30896],[-117.09562,33.30918],[-117.09601,33.31041],[-117.09619,33.31062],[-117.09657,33.31083],[-117.09682,33.31148],[-117.09726,33.31177],[-117.09792,33.3127],[-117.09829,33.31295],[-117.09858,33.31356],[-117.09851,33.31423],[-117.09925,33.3152],[-117.09932,33.31569],[-117.09977,33.316],[-117.09981,33.31655],[-117.10038,33.31712],[-117.10076,33.31777],[-117.10172,33.31875],[-117.10251,33.32094],[-117.10318,33.32163],[-117.10398,33.32377],[-117.10474,33.32452],[-117.10568,33.32494],[-117.10631,33.32538],[-117.10696,33.32528],[-117.10729,33.32533],[-117.1081,33.32633],[-117.10946,33.32694],[-117.10991,33.32692],[-117.11082,33.32667],[-117.11141,33.32693],[-117.11162,33.32692],[-117.11193,33.32657],[-117.11193,33.32613],[-117.11221,33.32603],[-117.11279,33.32648],[-117.11301,33.32646],[-117.11339,33.32619],[-117.11389,33.32642],[-117.1144,33.3265],[-117.11535,33.32694],[-117.11583,33.32687],[-117.11626,33.32724],[-117.11674,33.32722],[-117.11712,33.32744],[-117.11746,33.3275],[-117.11798,33.32796],[-117.11816,33.32797],[-117.11858,33.32778],[-117.1188,33.3278],[-117.11894,33.32792],[-117.119,33.32841],[-117.11938,33.32863],[-117.11965,33.32892],[-117.12026,33.32909],[-117.12036,33.3295],[-117.12051,33.32968],[-117.12108,33.32992],[-117.12154,33.32999],[-117.12188,33.33023],[-117.12225,33.33029],[-117.12244,33.33021],[-117.12302,33.32952],[-117.12352,33.32948],[-117.12383,33.32957],[-117.12432,33.3299],[-117.12493,33.33057],[-117.12504,33.33101],[-117.12492,33.33167],[-117.12517,33.3323],[-117.12574,33.33265],[-117.12671,33.33374],[-117.12695,33.3338],[-117.12768,33.33375],[-117.12866,33.33411],[-117.12966,33.33376],[-117.12991,33.33376],[-117.13067,33.33441],[-117.13124,33.33472],[-117.13132,33.33815],[-117.13123,33.34338],[-117.13131,33.34362]]]}}]}
