{"type":"FeatureCollection","features":[{"type":"Feature","properties":{"id":"independence-pass","name":"Independence Pass \u00b7 CO 82","difficulty":3,"character":"Technical"},"geometry":{"type":"MultiLineString","coordinates":[[[-106.81794,39.19042],[-106.81529,39.18986],[-106.81476,39.18958],[-106.81467,39.18928],[-106.81534,39.18733],[-106.8105,39.18635],[-106.80934,39.18582],[-106.80846,39.1852],[-106.80752,39.18369],[-106.80659,39.18251],[-106.80591,39.18214],[-106.80537,39.18198],[-106.80374,39.18191],[-106.80301,39.18171],[-106.80145,39.18058],[-106.80106,39.18017],[-106.80085,39.17976],[-106.80064,39.17888],[-106.80029,39.17857],[-106.79917,39.17814],[-106.79683,39.17746],[-106.79553,39.17659],[-106.79531,39.17623],[-106.79518,39.17517],[-106.7948,39.17452],[-106.7944,39.17416],[-106.79238,39.17291],[-106.79187,39.17108],[-106.79158,39.17078],[-106.79043,39.17005],[-106.78991,39.16924],[-106.7897,39.16815],[-106.78923,39.16719],[-106.78876,39.1633],[-106.78851,39.16242],[-106.78804,39.16179],[-106.78647,39.16045],[-106.78609,39.15999],[-106.78545,39.15797],[-106.78559,39.15663],[-106.78551,39.15618],[-106.78518,39.15575],[-106.78407,39.155],[-106.78372,39.15436],[-106.7836,39.15364],[-106.78385,39.15244],[-106.78384,39.15089],[-106.78357,39.15013],[-106.78271,39.14938],[-106.78156,39.14889],[-106.78086,39.14878],[-106.779,39.14882],[-106.77821,39.14861],[-106.77779,39.14839],[-106.77478,39.14554],[-106.77006,39.14237],[-106.76862,39.14097],[-106.76638,39.13857],[-106.76613,39.13795],[-106.76589,39.13542],[-106.76564,39.13496],[-106.76524,39.13458],[-106.76474,39.13427],[-106.7638,39.13403],[-106.75739,39.13403],[-106.75664,39.13396],[-106.75566,39.13372],[-106.75145,39.13165],[-106.75004,39.13031],[-106.74936,39.12986],[-106.74721,39.12914],[-106.74583,39.12883],[-106.74458,39.12824],[-106.74316,39.12723],[-106.7421,39.12606],[-106.73926,39.12589],[-106.7375,39.1256],[-106.73616,39.12521],[-106.73544,39.12487],[-106.7337,39.12454],[-106.73242,39.12396],[-106.73066,39.12286],[-106.7301,39.12188],[-106.72937,39.12148],[-106.7286,39.12074],[-106.72759,39.12015],[-106.727,39.1201],[-106.72665,39.12046],[-106.7258,39.12074],[-106.72537,39.12076],[-106.72419,39.12007],[-106.72358,39.11999],[-106.72273,39.11965],[-106.7224,39.11975],[-106.72165,39.12042],[-106.72063,39.12069],[-106.71965,39.12082],[-106.71874,39.12047],[-106.71702,39.12048],[-106.71424,39.11987],[-106.71141,39.11999],[-106.71011,39.12024],[-106.7093,39.12012],[-106.70861,39.11973],[-106.70818,39.11963],[-106.7076,39.11974],[-106.70682,39.11961],[-106.70543,39.11954],[-106.70264,39.11956],[-106.70114,39.11915],[-106.70077,39.11884],[-106.70045,39.11873],[-106.7001,39.1188],[-106.69999,39.11891],[-106.69998,39.11934],[-106.69967,39.1195],[-106.69892,39.11921],[-106.69823,39.11906],[-106.69765,39.11869],[-106.69671,39.11872],[-106.69593,39.11852],[-106.69444,39.11847],[-106.69334,39.1186],[-106.69184,39.11902],[-106.6893,39.11942],[-106.68735,39.11996],[-106.68648,39.12036],[-106.68572,39.12165],[-106.68526,39.12213],[-106.6844,39.12237],[-106.68394,39.12271],[-106.68373,39.1231],[-106.68332,39.12337],[-106.68275,39.12363],[-106.68169,39.12369],[-106.68098,39.12386],[-106.68058,39.12406],[-106.6798,39.12471],[-106.67868,39.1251],[-106.6779,39.12507],[-106.67718,39.12458],[-106.67661,39.12464],[-106.67493,39.12571],[-106.67379,39.1263],[-106.6732,39.12646],[-106.67214,39.1264],[-106.66997,39.12558],[-106.66842,39.1252],[-106.66788,39.12515],[-106.6658,39.12541],[-106.66445,39.12583],[-106.66234,39.12574],[-106.66064,39.12596],[-106.65939,39.12586],[-106.65834,39.12587],[-106.65751,39.12612],[-106.65614,39.12625],[-106.65449,39.12655],[-106.6532,39.12642],[-106.65216,39.12658],[-106.65133,39.12635],[-106.65055,39.12628],[-106.64888,39.12592],[-106.64697,39.12604],[-106.6447,39.12591],[-106.64145,39.12612],[-106.64078,39.12609],[-106.63375,39.12499],[-106.6322,39.12443],[-106.63134,39.123],[-106.63106,39.12285],[-106.62762,39.12268],[-106.62454,39.12167],[-106.62398,39.12167],[-106.62347,39.12182],[-106.62244,39.12264],[-106.62196,39.12318],[-106.62158,39.12319],[-106.62145,39.123],[-106.62199,39.12222],[-106.62216,39.12158],[-106.62217,39.12094],[-106.62241,39.12026],[-106.62204,39.11966],[-106.62146,39.11914],[-106.62123,39.11791],[-106.6205,39.11683],[-106.62042,39.11532],[-106.6202,39.11471],[-106.61851,39.11232],[-106.61666,39.11046],[-106.61354,39.10864],[-106.61104,39.10788],[-106.60758,39.1075],[-106.60338,39.10686],[-106.59989,39.10685],[-106.59578,39.10734],[-106.59427,39.10772],[-106.5933,39.10817],[-106.59224,39.10899],[-106.59071,39.1098],[-106.58851,39.11058],[-106.58734,39.11085],[-106.58649,39.11125],[-106.58467,39.11184],[-106.5823,39.11356],[-106.58144,39.11434],[-106.58054,39.11565],[-106.57997,39.11799],[-106.58001,39.11846],[-106.58041,39.11966],[-106.58134,39.12146],[-106.58156,39.12243],[-106.58168,39.12441],[-106.58144,39.12462],[-106.58112,39.12467],[-106.58045,39.12435],[-106.57947,39.12406],[-106.57852,39.12354],[-106.57659,39.12269],[-106.57515,39.12239],[-106.57496,39.1219],[-106.57403,39.12058],[-106.57336,39.11905],[-106.573,39.11858],[-106.57299,39.11801],[-106.57283,39.11745],[-106.5722,39.11662],[-106.57262,39.11586],[-106.57288,39.11465],[-106.57342,39.11337],[-106.57361,39.11234],[-106.57428,39.11066],[-106.57421,39.11022],[-106.57391,39.10982],[-106.57235,39.10912],[-106.56849,39.10831],[-106.56741,39.10818],[-106.56527,39.10822],[-106.5643,39.10846],[-106.56378,39.1087],[-106.56264,39.10966],[-106.56163,39.11082],[-106.56108,39.11101],[-106.56044,39.11096],[-106.5601,39.11084],[-106.55981,39.1106],[-106.55881,39.10933],[-106.55598,39.10716],[-106.55431,39.10596],[-106.55406,39.10585],[-106.55326,39.10574],[-106.55342,39.10558],[-106.55405,39.10566],[-106.55561,39.10628],[-106.55818,39.10753],[-106.55854,39.10757],[-106.55901,39.10749],[-106.55934,39.10724],[-106.55951,39.10693],[-106.55959,39.10533],[-106.55972,39.10515],[-106.5608,39.1044],[-106.56243,39.10369],[-106.56408,39.10257],[-106.56498,39.10224],[-106.56851,39.10021],[-106.57142,39.09934],[-106.57152,39.09916],[-106.57131,39.09906],[-106.56991,39.09944],[-106.56696,39.10005],[-106.56615,39.10037],[-106.56411,39.10092],[-106.5629,39.10149],[-106.56189,39.10175],[-106.55803,39.10225],[-106.55542,39.10244],[-106.55433,39.10245],[-106.55237,39.10229],[-106.55153,39.10244],[-106.55067,39.10314],[-106.55052,39.10335],[-106.54926,39.10578],[-106.54727,39.10912],[-106.54582,39.11043],[-106.54489,39.11171],[-106.54338,39.11298],[-106.54232,39.1137],[-106.5405,39.11568],[-106.53867,39.1161],[-106.53857,39.11595],[-106.53869,39.1158],[-106.53966,39.11535],[-106.54005,39.115],[-106.541,39.1129],[-106.54252,39.11162],[-106.54308,39.11015],[-106.54412,39.10913],[-106.54472,39.10801],[-106.54486,39.10749],[-106.54384,39.10021],[-106.54231,39.09476],[-106.54106,39.09285],[-106.5409,39.09232],[-106.5409,39.09176],[-106.54151,39.0887],[-106.54156,39.0877],[-106.5412,39.08658],[-106.54064,39.08574],[-106.53848,39.08285],[-106.53774,39.08215],[-106.53563,39.08113],[-106.5289,39.07755],[-106.5259,39.07523],[-106.5251,39.07474],[-106.52057,39.07275],[-106.51716,39.07075],[-106.51621,39.07038],[-106.51134,39.06907],[-106.51043,39.06893],[-106.5086,39.06882],[-106.50538,39.06803],[-106.50012,39.06745],[-106.49932,39.06748],[-106.49864,39.06765],[-106.49362,39.06955],[-106.47984,39.07168],[-106.47544,39.07148],[-106.47226,39.0704],[-106.47166,39.07035],[-106.47075,39.07064],[-106.46838,39.07184],[-106.46695,39.072],[-106.46605,39.07203],[-106.46511,39.07181],[-106.4644,39.07176],[-106.46165,39.07205],[-106.45781,39.0719],[-106.45139,39.07094],[-106.44952,39.071],[-106.44751,39.07167],[-106.44586,39.07171],[-106.44519,39.07157],[-106.4442,39.07088],[-106.44273,39.07059],[-106.44238,39.07039],[-106.44172,39.06971],[-106.44101,39.06941],[-106.44015,39.0694],[-106.43859,39.06981],[-106.43795,39.06983],[-106.43345,39.06885],[-106.42768,39.06874],[-106.42652,39.06848],[-106.425,39.0679],[-106.42318,39.06772],[-106.41501,39.0672],[-106.41443,39.06734],[-106.41409,39.06752],[-106.41289,39.06837],[-106.41239,39.0686],[-106.41047,39.06908],[-106.40975,39.06908],[-106.40886,39.06871],[-106.40853,39.06823],[-106.40862,39.06781],[-106.40938,39.06713],[-106.40964,39.0667],[-106.40981,39.06566],[-106.4098,39.06511],[-106.40967,39.06482],[-106.40943,39.06457],[-106.40811,39.0638],[-106.40711,39.06295],[-106.40671,39.06275],[-106.40614,39.06266],[-106.40559,39.06288],[-106.40361,39.06417],[-106.40272,39.06442],[-106.40102,39.06459],[-106.40051,39.06479],[-106.40017,39.06506],[-106.39998,39.0655],[-106.40001,39.06586],[-106.40094,39.06721],[-106.40149,39.0685],[-106.40172,39.06998],[-106.40159,39.07041],[-106.40101,39.07115],[-106.3999,39.07191],[-106.39895,39.07272],[-106.39859,39.07351],[-106.39835,39.07461],[-106.39789,39.07523],[-106.39569,39.07668],[-106.39414,39.07742]]]}},{"type":"Feature","properties":{"id":"million-dollar-highway","name":"Million Dollar Highway \u00b7 US 550","difficulty":3,"character":"Technical"},"geometry":{"type":"MultiLineString","coordinates":[[[-107.67154,38.02863],[-107.67146,38.02743],[-107.67154,38.01872],[-107.67182,38.01843],[-107.67219,38.01835],[-107.67516,38.01839],[-107.67548,38.01821],[-107.67553,38.01787],[-107.67534,38.0177],[-107.67511,38.01765],[-107.67379,38.01796],[-107.67222,38.01774],[-107.67099,38.01774],[-107.66898,38.01759],[-107.66859,38.01765],[-107.6681,38.01786],[-107.66688,38.01882],[-107.6665,38.01884],[-107.66625,38.01869],[-107.66618,38.01846],[-107.66629,38.0182],[-107.6671,38.01779],[-107.66796,38.01692],[-107.66858,38.01676],[-107.67022,38.01692],[-107.67057,38.0167],[-107.67058,38.01636],[-107.67035,38.01615],[-107.66762,38.01474],[-107.66638,38.01343],[-107.66493,38.01249],[-107.66331,38.01114],[-107.66319,38.01085],[-107.66324,38.0103],[-107.66291,38.00917],[-107.66299,38.0089],[-107.6634,38.00848],[-107.66343,38.00828],[-107.66277,38.00777],[-107.66255,38.00713],[-107.66215,38.00672],[-107.66196,38.00627],[-107.66179,38.00354],[-107.66125,38.00026],[-107.66104,38.0],[-107.65999,37.99994],[-107.65946,37.99959],[-107.65928,37.99921],[-107.65917,37.99845],[-107.6587,37.99793],[-107.65766,37.99628],[-107.65634,37.99372],[-107.65522,37.99262],[-107.65469,37.99228],[-107.65369,37.99131],[-107.65274,37.98996],[-107.65233,37.98967],[-107.6506,37.98954],[-107.64984,37.989],[-107.64971,37.98861],[-107.65012,37.98716],[-107.64986,37.98607],[-107.65009,37.98478],[-107.65047,37.98442],[-107.65236,37.98351],[-107.65451,37.9817],[-107.6546,37.98148],[-107.6546,37.97991],[-107.6554,37.97878],[-107.65544,37.9782],[-107.65575,37.97725],[-107.6565,37.97647],[-107.65757,37.97599],[-107.65777,37.97573],[-107.65778,37.97551],[-107.65751,37.97505],[-107.65789,37.97437],[-107.6579,37.97401],[-107.65743,37.97292],[-107.65742,37.97241],[-107.65714,37.97179],[-107.65717,37.9715],[-107.6575,37.97083],[-107.65881,37.96955],[-107.65981,37.96799],[-107.65975,37.96786],[-107.65954,37.96776],[-107.65906,37.96799],[-107.65878,37.96801],[-107.65857,37.96776],[-107.65876,37.96751],[-107.65971,37.96712],[-107.65984,37.96694],[-107.65973,37.9667],[-107.65947,37.96665],[-107.65899,37.96696],[-107.65873,37.96703],[-107.65846,37.96689],[-107.65846,37.96669],[-107.65928,37.9663],[-107.65965,37.96598],[-107.66112,37.96442],[-107.66163,37.96362],[-107.6619,37.96265],[-107.66177,37.96073],[-107.6619,37.95988],[-107.66724,37.94842],[-107.66843,37.94281],[-107.66866,37.94216],[-107.6692,37.94125],[-107.66997,37.94043],[-107.67112,37.93965],[-107.67701,37.93702],[-107.67872,37.93614],[-107.67964,37.93557],[-107.68185,37.93395],[-107.68332,37.93303],[-107.68573,37.93186],[-107.68638,37.93124],[-107.68812,37.92993],[-107.68998,37.92896],[-107.69046,37.92851],[-107.6911,37.92737],[-107.69339,37.92476],[-107.69406,37.92367],[-107.69435,37.92365],[-107.6945,37.92382],[-107.69426,37.92491],[-107.69441,37.92518],[-107.69473,37.92522],[-107.69491,37.9251],[-107.69508,37.92425],[-107.69552,37.92351],[-107.69728,37.92266],[-107.69818,37.92193],[-107.69847,37.9219],[-107.69857,37.92213],[-107.69833,37.92276],[-107.69768,37.92323],[-107.69778,37.92342],[-107.69931,37.92281],[-107.70077,37.92271],[-107.70105,37.92256],[-107.70126,37.92172],[-107.70084,37.92089],[-107.70112,37.92056],[-107.70199,37.91998],[-107.7022,37.91944],[-107.70199,37.91916],[-107.70125,37.91898],[-107.69977,37.91808],[-107.69956,37.91781],[-107.69951,37.91757],[-107.69973,37.91733],[-107.70088,37.91694],[-107.70152,37.91696],[-107.70184,37.91674],[-107.70186,37.91637],[-107.70166,37.91615],[-107.70058,37.91611],[-107.70033,37.916],[-107.70026,37.91575],[-107.70041,37.91542],[-107.7006,37.91516],[-107.70104,37.91495],[-107.70246,37.9147],[-107.70279,37.91494],[-107.70299,37.91582],[-107.70319,37.91587],[-107.70335,37.91574],[-107.70294,37.91446],[-107.70324,37.91336],[-107.7028,37.91282],[-107.7026,37.91204],[-107.70266,37.91182],[-107.70354,37.9111],[-107.7043,37.91082],[-107.70475,37.91081],[-107.70492,37.91104],[-107.70482,37.91125],[-107.70425,37.91154],[-107.70421,37.91167],[-107.70432,37.91179],[-107.70464,37.91178],[-107.7049,37.91166],[-107.70528,37.91131],[-107.70544,37.91061],[-107.70593,37.90984],[-107.70608,37.90887],[-107.70603,37.90833],[-107.70638,37.90757],[-107.70632,37.90681],[-107.70645,37.90647],[-107.70677,37.90615],[-107.70847,37.90516],[-107.70902,37.90463],[-107.70928,37.90415],[-107.71016,37.90129],[-107.71269,37.8978],[-107.71455,37.89425],[-107.71529,37.89312],[-107.71605,37.89243],[-107.71703,37.89186],[-107.71791,37.89066],[-107.71857,37.89032],[-107.71878,37.89011],[-107.71877,37.88902],[-107.71919,37.8882],[-107.71913,37.88733],[-107.71996,37.88591],[-107.72061,37.8854],[-107.72131,37.88518],[-107.72288,37.88486],[-107.72324,37.88465],[-107.72325,37.88412],[-107.72297,37.88312],[-107.72304,37.88257],[-107.72411,37.88033],[-107.72485,37.87919],[-107.72522,37.87824],[-107.72579,37.87773],[-107.72656,37.87738],[-107.72725,37.87729],[-107.72925,37.87731],[-107.73097,37.87688],[-107.73136,37.87665],[-107.73209,37.87596],[-107.73338,37.87546],[-107.7351,37.87457],[-107.73613,37.87359],[-107.73629,37.87323],[-107.73611,37.87293],[-107.73567,37.87287],[-107.73534,37.87304],[-107.73445,37.87398],[-107.73376,37.87433],[-107.73202,37.87473],[-107.72929,37.87555],[-107.72802,37.87566],[-107.72729,37.87561],[-107.7265,37.87543],[-107.7251,37.87477],[-107.72413,37.87387],[-107.72361,37.87285],[-107.72343,37.87195],[-107.72314,37.86858],[-107.72311,37.86612],[-107.72323,37.8655],[-107.72419,37.86317],[-107.72406,37.85859],[-107.72448,37.85739],[-107.72458,37.85647],[-107.72508,37.85521],[-107.72524,37.85445],[-107.72506,37.85024],[-107.72473,37.84774],[-107.72496,37.84689],[-107.7246,37.84601],[-107.7247,37.84563],[-107.72516,37.84475],[-107.72578,37.84121],[-107.72553,37.8405],[-107.72554,37.8399],[-107.72537,37.83935],[-107.72553,37.8385],[-107.72533,37.8378],[-107.72522,37.83607],[-107.72432,37.83323],[-107.72394,37.83237],[-107.72408,37.83143],[-107.72402,37.83106],[-107.7225,37.82797],[-107.72162,37.82692],[-107.7204,37.82445],[-107.71934,37.82279],[-107.71868,37.82225],[-107.71769,37.82184],[-107.7162,37.82174],[-107.7152,37.82137],[-107.7144,37.82117],[-107.71192,37.8213],[-107.7108,37.82094],[-107.70964,37.82087],[-107.70903,37.82074],[-107.70773,37.81998],[-107.70644,37.81998],[-107.70462,37.81967],[-107.70213,37.81808],[-107.70129,37.81764],[-107.69884,37.81695],[-107.69777,37.81653],[-107.69634,37.81548],[-107.69476,37.81393],[-107.69058,37.81132],[-107.68994,37.81117],[-107.68728,37.81107],[-107.6866,37.81096],[-107.686,37.81066],[-107.68525,37.81001],[-107.68473,37.80977],[-107.68382,37.80955],[-107.68214,37.80945],[-107.6806,37.80877],[-107.67689,37.80791],[-107.67516,37.80726],[-107.67126,37.80555]]]}},{"type":"Feature","properties":{"id":"trail-ridge-road","name":"Trail Ridge Road \u00b7 US 34","difficulty":2,"character":"Medium speed"},"geometry":{"type":"MultiLineString","coordinates":[[[-105.52237,40.38031],[-105.523,40.38039],[-105.52494,40.38021],[-105.52746,40.38015],[-105.53005,40.38029],[-105.53189,40.38049],[-105.5337,40.38089],[-105.54082,40.38324],[-105.54623,40.38416],[-105.54762,40.38414],[-105.54891,40.38392],[-105.55294,40.38239],[-105.55344,40.38235],[-105.55418,40.38247],[-105.55493,40.38287],[-105.55599,40.38372],[-105.5565,40.38428],[-105.55666,40.38494],[-105.55637,40.38634],[-105.55662,40.38711],[-105.55688,40.38745],[-105.55784,40.38807],[-105.55988,40.38875],[-105.56094,40.38949],[-105.56252,40.39169],[-105.56264,40.39295],[-105.56277,40.39336],[-105.56307,40.39372],[-105.56398,40.39446],[-105.56483,40.39609],[-105.56534,40.39653],[-105.5676,40.3978],[-105.56905,40.39856],[-105.57064,40.39909],[-105.57178,40.39926],[-105.57407,40.39938],[-105.57459,40.39948],[-105.57757,40.40066],[-105.58258,40.40145],[-105.58669,40.40244],[-105.5895,40.40335],[-105.59516,40.40549],[-105.59667,40.40588],[-105.59786,40.40605],[-105.5993,40.40607],[-105.59955,40.40599],[-105.59976,40.40574],[-105.59981,40.40549],[-105.59968,40.40522],[-105.59847,40.40421],[-105.59841,40.4039],[-105.59866,40.40351],[-105.60104,40.4024],[-105.60197,40.40211],[-105.60325,40.40189],[-105.60664,40.40191],[-105.60778,40.40205],[-105.61014,40.40278],[-105.61224,40.4031],[-105.61961,40.40495],[-105.62039,40.40523],[-105.62187,40.4061],[-105.62272,40.4063],[-105.62352,40.40624],[-105.62426,40.40592],[-105.62718,40.40335],[-105.62747,40.4027],[-105.62748,40.40214],[-105.62663,40.40046],[-105.62654,40.39896],[-105.62623,40.3984],[-105.62396,40.39657],[-105.62327,40.39624],[-105.62267,40.39609],[-105.62205,40.39606],[-105.62025,40.39633],[-105.61937,40.3963],[-105.61746,40.39563],[-105.61641,40.39508],[-105.616,40.39472],[-105.61514,40.39368],[-105.61386,40.39267],[-105.61349,40.39225],[-105.613,40.39082],[-105.61218,40.38994],[-105.61156,40.38901],[-105.61131,40.38818],[-105.61091,40.38759],[-105.61088,40.38714],[-105.61266,40.3872],[-105.61331,40.38734],[-105.61581,40.38817],[-105.61732,40.3888],[-105.61841,40.38908],[-105.61886,40.38936],[-105.62056,40.39083],[-105.62384,40.39263],[-105.62535,40.39284],[-105.62746,40.39375],[-105.63084,40.3945],[-105.63202,40.39509],[-105.63346,40.39616],[-105.63398,40.39644],[-105.63457,40.39657],[-105.63665,40.39673],[-105.63732,40.39689],[-105.63831,40.3974],[-105.63867,40.39774],[-105.63907,40.39834],[-105.63933,40.3985],[-105.64343,40.39965],[-105.64431,40.39975],[-105.64539,40.39946],[-105.64709,40.39853],[-105.64882,40.39774],[-105.65046,40.39722],[-105.65058,40.39701],[-105.65047,40.39681],[-105.65007,40.39675],[-105.64762,40.39711],[-105.64712,40.39729],[-105.64585,40.3981],[-105.64488,40.3985],[-105.6443,40.39859],[-105.64368,40.39842],[-105.64222,40.39752],[-105.64086,40.39696],[-105.64,40.39588],[-105.63823,40.39449],[-105.63652,40.39351],[-105.63535,40.3933],[-105.63441,40.39263],[-105.63373,40.39176],[-105.63322,40.38965],[-105.6329,40.38883],[-105.63248,40.38836],[-105.63147,40.3881],[-105.63123,40.38792],[-105.63114,40.3876],[-105.63139,40.38724],[-105.63165,40.38713],[-105.63209,40.38713],[-105.63251,40.3873],[-105.63276,40.38751],[-105.63383,40.38912],[-105.63453,40.39142],[-105.6349,40.39185],[-105.63543,40.39204],[-105.63639,40.39211],[-105.63796,40.39254],[-105.63866,40.39282],[-105.64048,40.39385],[-105.642,40.3945],[-105.64277,40.39474],[-105.64337,40.39477],[-105.64549,40.39424],[-105.64664,40.39354],[-105.64811,40.39293],[-105.64846,40.39247],[-105.64874,40.39157],[-105.64927,40.39111],[-105.65017,40.39064],[-105.65147,40.39035],[-105.65182,40.39018],[-105.65296,40.38873],[-105.65355,40.38757],[-105.6539,40.38721],[-105.65433,40.38695],[-105.65672,40.38624],[-105.65792,40.38635],[-105.6591,40.38682],[-105.65955,40.38683],[-105.65987,40.38668],[-105.66033,40.38617],[-105.66077,40.38595],[-105.66185,40.38555],[-105.6633,40.38541],[-105.66408,40.38548],[-105.66503,40.38576],[-105.66586,40.38574],[-105.66696,40.38589],[-105.66746,40.38613],[-105.66818,40.38699],[-105.66849,40.38719],[-105.67009,40.38745],[-105.67363,40.38845],[-105.67437,40.38876],[-105.67482,40.389],[-105.67513,40.38931],[-105.67528,40.38979],[-105.67514,40.3902],[-105.67406,40.3917],[-105.67301,40.39241],[-105.67153,40.39307],[-105.67124,40.39338],[-105.6712,40.39373],[-105.67183,40.39489],[-105.67194,40.3955],[-105.67186,40.39614],[-105.67136,40.39691],[-105.66947,40.39831],[-105.66684,40.39917],[-105.66568,40.39935],[-105.66488,40.39993],[-105.6641,40.40021],[-105.66385,40.40047],[-105.66381,40.40094],[-105.66415,40.40129],[-105.66556,40.40194],[-105.66663,40.40223],[-105.66741,40.40224],[-105.6683,40.40214],[-105.66988,40.40163],[-105.67056,40.40117],[-105.67196,40.39976],[-105.67262,40.39873],[-105.67333,40.39824],[-105.67456,40.39771],[-105.67584,40.39739],[-105.6789,40.39635],[-105.68103,40.39508],[-105.6839,40.39396],[-105.68562,40.39295],[-105.68625,40.39272],[-105.68967,40.39255],[-105.691,40.39258],[-105.69187,40.39278],[-105.69345,40.39336],[-105.69605,40.39348],[-105.69878,40.39442],[-105.6992,40.39449],[-105.7001,40.39441],[-105.70122,40.39409],[-105.70267,40.39404],[-105.70702,40.39317],[-105.70785,40.39315],[-105.7084,40.39325],[-105.70935,40.39366],[-105.71053,40.39448],[-105.71105,40.39497],[-105.71115,40.39519],[-105.71045,40.39897],[-105.70982,40.4011],[-105.70987,40.40176],[-105.71026,40.40333],[-105.71063,40.4037],[-105.71103,40.40392],[-105.71351,40.40453],[-105.71422,40.40479],[-105.7148,40.40515],[-105.71629,40.40657],[-105.71771,40.40922],[-105.7182,40.40973],[-105.71877,40.41002],[-105.7194,40.41014],[-105.72138,40.41006],[-105.72187,40.41012],[-105.72227,40.41035],[-105.72327,40.41143],[-105.72395,40.41172],[-105.72477,40.41186],[-105.72577,40.41183],[-105.72817,40.41107],[-105.72918,40.41102],[-105.73075,40.4107],[-105.73221,40.41123],[-105.73373,40.41269],[-105.73426,40.413],[-105.73476,40.41313],[-105.73531,40.41314],[-105.73674,40.41291],[-105.73735,40.4129],[-105.73885,40.41325],[-105.73914,40.41316],[-105.74016,40.41247],[-105.74069,40.4123],[-105.74272,40.41214],[-105.74342,40.41231],[-105.7446,40.41312],[-105.745,40.41357],[-105.74498,40.41604],[-105.7453,40.41678],[-105.7457,40.41714],[-105.74823,40.41864],[-105.74888,40.41935],[-105.74907,40.42001],[-105.7491,40.42192],[-105.74882,40.4228],[-105.74889,40.42306],[-105.74909,40.42314],[-105.74937,40.42307],[-105.75002,40.42247],[-105.75192,40.42145],[-105.75255,40.42098],[-105.75294,40.421],[-105.75305,40.42128],[-105.75236,40.42205],[-105.75214,40.42268],[-105.75223,40.42334],[-105.75265,40.42404],[-105.75296,40.42435],[-105.75339,40.42456],[-105.75378,40.42462],[-105.7554,40.42459],[-105.75576,40.42472],[-105.75644,40.42518],[-105.75708,40.42585],[-105.75775,40.42685],[-105.7597,40.42844],[-105.76009,40.42918],[-105.76029,40.43026],[-105.76062,40.4307],[-105.76238,40.43182],[-105.76353,40.43231],[-105.76477,40.43247],[-105.76716,40.43247],[-105.76791,40.43259],[-105.76824,40.4328],[-105.7684,40.43316],[-105.76816,40.43388],[-105.76781,40.4345],[-105.76725,40.43501],[-105.76641,40.43542],[-105.76237,40.43683],[-105.76052,40.4379],[-105.75893,40.43928],[-105.75643,40.44033],[-105.75584,40.44073],[-105.75564,40.44111],[-105.75565,40.44143],[-105.7561,40.4421],[-105.75629,40.4426],[-105.75641,40.44327],[-105.75635,40.44376],[-105.75555,40.44488],[-105.75507,40.44577],[-105.75408,40.44681],[-105.75405,40.44696],[-105.75426,40.44714],[-105.75449,40.44712],[-105.75463,40.44701],[-105.75478,40.44656],[-105.755,40.44633],[-105.75807,40.44423],[-105.75854,40.44374],[-105.75945,40.44232],[-105.76003,40.44193],[-105.76187,40.44101],[-105.76429,40.44026],[-105.76603,40.43985],[-105.77008,40.43952],[-105.77182,40.43953],[-105.77358,40.43891],[-105.77584,40.43903],[-105.77724,40.43893],[-105.77952,40.43811],[-105.78166,40.43771],[-105.78364,40.43723],[-105.78487,40.43713],[-105.78588,40.4369],[-105.78658,40.43663],[-105.78806,40.43569],[-105.78838,40.43527],[-105.78873,40.43438],[-105.78905,40.43397],[-105.7894,40.43386],[-105.79051,40.43386],[-105.7912,40.43371],[-105.79262,40.433],[-105.79417,40.43249],[-105.79554,40.43162],[-105.79696,40.43094],[-105.79721,40.43074],[-105.79856,40.42875],[-105.79906,40.42841],[-105.80001,40.42815],[-105.80207,40.42809],[-105.80258,40.42786],[-105.8029,40.42744],[-105.803,40.42664],[-105.80334,40.42628],[-105.80408,40.42584],[-105.8082,40.42413],[-105.80914,40.42359],[-105.81022,40.4226],[-105.81136,40.42071],[-105.8118,40.42023],[-105.81586,40.41753],[-105.81638,40.41635],[-105.8179,40.41514],[-105.8182,40.41461],[-105.81814,40.41429],[-105.8177,40.41372],[-105.8175,40.41328],[-105.8169,40.41276],[-105.81689,40.41233],[-105.81715,40.41209],[-105.81848,40.41182],[-105.81905,40.41154],[-105.81957,40.41099],[-105.8201,40.40999],[-105.82094,40.40939],[-105.82096,40.40813],[-105.82078,40.40712],[-105.82096,40.40671],[-105.82125,40.40647],[-105.82279,40.40576],[-105.82399,40.40437],[-105.82492,40.4038],[-105.82559,40.40251],[-105.82724,40.40076],[-105.82769,40.40048],[-105.82942,40.39978],[-105.83108,40.39889],[-105.8321,40.39871],[-105.8332,40.39868],[-105.83482,40.39926],[-105.83511,40.39952],[-105.83511,40.39989],[-105.83469,40.40102],[-105.83513,40.40222],[-105.83517,40.4028],[-105.83494,40.40334],[-105.83401,40.40411],[-105.83391,40.40446],[-105.83417,40.4048],[-105.83484,40.40526],[-105.83575,40.40525],[-105.83621,40.40539],[-105.83735,40.40684],[-105.83752,40.40718],[-105.83749,40.40931],[-105.83758,40.40961],[-105.83778,40.40981],[-105.83895,40.41057],[-105.83934,40.41052],[-105.83944,40.41033],[-105.83921,40.41007],[-105.83877,40.41011],[-105.83846,40.40998],[-105.83806,40.40959],[-105.83797,40.40933],[-105.83846,40.40813],[-105.83839,40.40749],[-105.83867,40.40659],[-105.83853,40.40561],[-105.83882,40.4054],[-105.83921,40.40541],[-105.83948,40.40569],[-105.83908,40.40728],[-105.83929,40.40781],[-105.83956,40.40795],[-105.83986,40.40796],[-105.84056,40.40768],[-105.84116,40.40763],[-105.84173,40.4078],[-105.84308,40.40914],[-105.84359,40.41011],[-105.84374,40.41095],[-105.84388,40.41108],[-105.84427,40.41108],[-105.84442,40.41079],[-105.84381,40.40981],[-105.84322,40.40848],[-105.84351,40.40818],[-105.84379,40.40815],[-105.84409,40.40826],[-105.84426,40.40859],[-105.84412,40.40902],[-105.84418,40.40931],[-105.84498,40.41011],[-105.84551,40.41129],[-105.84501,40.41349],[-105.8452,40.41369],[-105.84594,40.41393],[-105.84638,40.4147],[-105.84659,40.41556],[-105.84745,40.41626],[-105.84785,40.41688],[-105.84822,40.41691],[-105.84836,40.41681],[-105.84837,40.41659],[-105.84748,40.41591],[-105.84702,40.41492],[-105.84691,40.41347],[-105.84702,40.41256],[-105.8478,40.41137],[-105.848,40.4106],[-105.84746,40.40943],[-105.8475,40.40834],[-105.84713,40.40732],[-105.84725,40.40662],[-105.84783,40.40581],[-105.84805,40.4053],[-105.84759,40.40352],[-105.84787,40.40268],[-105.84797,40.402],[-105.84813,40.39945],[-105.84762,40.39845],[-105.84503,40.39566],[-105.84473,40.39504],[-105.84468,40.39457],[-105.84489,40.39386],[-105.84733,40.38989],[-105.84744,40.38916],[-105.8473,40.38747],[-105.84772,40.38503],[-105.84808,40.38413],[-105.8494,40.38227],[-105.84964,40.38138],[-105.84965,40.38044],[-105.84981,40.37984],[-105.85022,40.3791],[-105.85203,40.37701],[-105.85291,40.37569],[-105.85318,40.37508],[-105.85397,40.37223],[-105.85365,40.37015],[-105.85371,40.36964],[-105.85432,40.36784],[-105.85438,40.36522],[-105.85561,40.36112],[-105.85551,40.35932],[-105.85566,40.35855],[-105.85763,40.35216],[-105.85739,40.34796],[-105.85789,40.34629],[-105.85798,40.3439],[-105.85775,40.34318],[-105.85676,40.34187],[-105.85672,40.34138],[-105.85742,40.33959],[-105.85755,40.33854],[-105.85732,40.33794],[-105.85554,40.33505],[-105.85496,40.33365],[-105.85481,40.33274],[-105.85475,40.33088],[-105.85451,40.33021],[-105.85394,40.32941],[-105.85372,40.3289],[-105.85392,40.32731],[-105.85261,40.32383],[-105.85253,40.32314],[-105.85269,40.32173],[-105.85263,40.32126],[-105.85223,40.32079],[-105.85169,40.32041],[-105.84693,40.31903],[-105.84577,40.31838],[-105.84522,40.31787],[-105.84353,40.31537],[-105.84319,40.31454],[-105.84192,40.30903],[-105.84165,40.30729],[-105.84179,40.30666],[-105.84258,40.30538],[-105.84266,40.30355],[-105.8432,40.30043],[-105.84278,40.29886],[-105.84271,40.29809],[-105.84282,40.28883],[-105.8427,40.28794],[-105.84218,40.28638],[-105.84177,40.28565],[-105.84107,40.28473],[-105.84003,40.28375],[-105.83735,40.28177],[-105.83662,40.28079],[-105.83642,40.28031],[-105.83627,40.27943],[-105.83612,40.27654],[-105.83489,40.27223],[-105.83404,40.26777],[-105.83118,40.26222],[-105.83094,40.26155],[-105.83093,40.2612],[-105.83116,40.26061],[-105.83156,40.26016],[-105.83204,40.25987],[-105.83315,40.25955],[-105.83699,40.25872],[-105.83776,40.25839],[-105.83817,40.25787],[-105.83824,40.25702],[-105.83785,40.25636],[-105.83743,40.25605],[-105.8359,40.25537],[-105.83528,40.25472],[-105.83504,40.25401],[-105.83492,40.25262],[-105.83497,40.25199]]]}},{"type":"Feature","properties":{"id":"lizard-head-pass","name":"Lizard Head Pass \u00b7 CO 145","difficulty":2,"character":"Medium speed"},"geometry":{"type":"MultiLineString","coordinates":[[[-107.87189,37.94712],[-107.8723,37.94626],[-107.87301,37.94578],[-107.87345,37.94566],[-107.87436,37.9456],[-107.87756,37.94572],[-107.87854,37.9456],[-107.87912,37.94526],[-107.8802,37.94431],[-107.88145,37.94376],[-107.88188,37.94336],[-107.8819,37.94302],[-107.88168,37.94271],[-107.87981,37.94157],[-107.87937,37.94119],[-107.87912,37.94044],[-107.87988,37.93824],[-107.88007,37.93741],[-107.87967,37.93397],[-107.87968,37.93331],[-107.87992,37.93262],[-107.88069,37.93126],[-107.88231,37.92703],[-107.88384,37.92181],[-107.88383,37.92032],[-107.88315,37.9159],[-107.88317,37.91509],[-107.88346,37.91426],[-107.88408,37.91342],[-107.88998,37.90852],[-107.89065,37.90785],[-107.89101,37.90726],[-107.89118,37.90661],[-107.89119,37.90512],[-107.8908,37.89768],[-107.89057,37.89676],[-107.88871,37.89167],[-107.88823,37.88879],[-107.8883,37.8878],[-107.889,37.88622],[-107.88903,37.88532],[-107.88886,37.88479],[-107.88781,37.88309],[-107.88761,37.88247],[-107.88768,37.88105],[-107.88737,37.8807],[-107.88632,37.88025],[-107.88585,37.87973],[-107.88545,37.87873],[-107.8854,37.87748],[-107.88458,37.87575],[-107.88423,37.87414],[-107.88389,37.87335],[-107.88315,37.87238],[-107.88148,37.87072],[-107.88002,37.86855],[-107.87973,37.86826],[-107.87797,37.86731],[-107.87642,37.86622],[-107.87512,37.8657],[-107.8732,37.86451],[-107.87141,37.86375],[-107.87117,37.86346],[-107.87079,37.86253],[-107.8699,37.86168],[-107.86977,37.86139],[-107.86979,37.86085],[-107.87023,37.86003],[-107.87067,37.85969],[-107.87138,37.85958],[-107.87437,37.86013],[-107.87662,37.86079],[-107.87886,37.86088],[-107.87945,37.86082],[-107.87994,37.86068],[-107.88031,37.86044],[-107.88109,37.85947],[-107.88165,37.85929],[-107.8822,37.85883],[-107.88303,37.85842],[-107.88321,37.85823],[-107.88433,37.85633],[-107.8853,37.85513],[-107.88535,37.85479],[-107.88527,37.85462],[-107.88403,37.85372],[-107.88372,37.85328],[-107.88278,37.85143],[-107.88262,37.85087],[-107.88263,37.85038],[-107.88301,37.84885],[-107.88251,37.84559],[-107.88262,37.84478],[-107.88576,37.84082],[-107.88619,37.84014],[-107.88662,37.83781],[-107.88657,37.83632],[-107.88673,37.83537],[-107.88754,37.83418],[-107.88799,37.83246],[-107.88822,37.83215],[-107.8909,37.82973],[-107.89328,37.8284],[-107.89386,37.82769],[-107.89473,37.82627],[-107.89579,37.82279],[-107.89611,37.82225],[-107.89816,37.82035],[-107.89853,37.81981],[-107.90034,37.81586],[-107.90074,37.8154],[-107.90135,37.81493],[-107.90505,37.81325],[-107.90592,37.81277],[-107.91263,37.80865],[-107.91629,37.80717],[-107.91775,37.80701],[-107.92029,37.80703],[-107.92142,37.80673],[-107.92362,37.80592],[-107.92412,37.80562],[-107.9246,37.80512],[-107.92489,37.80431],[-107.92516,37.8026],[-107.92542,37.80201],[-107.92673,37.80034],[-107.9275,37.79969],[-107.92896,37.7987],[-107.93051,37.79791],[-107.93246,37.7967],[-107.9334,37.79647],[-107.93578,37.79632],[-107.93667,37.79603],[-107.94176,37.79226],[-107.94245,37.79147],[-107.94435,37.78783],[-107.94434,37.78697],[-107.94365,37.78557],[-107.94344,37.78464],[-107.94358,37.78216],[-107.94397,37.78116],[-107.94436,37.7807],[-107.94499,37.78037],[-107.94651,37.77997],[-107.94702,37.77992],[-107.94844,37.77995],[-107.95025,37.78021],[-107.95219,37.78029],[-107.95627,37.77971],[-107.9571,37.77938],[-107.95826,37.77855],[-107.95898,37.77815],[-107.96513,37.77554],[-107.97157,37.77331],[-107.97351,37.77249],[-107.97476,37.77229],[-107.97648,37.77242],[-107.98104,37.77235],[-107.98303,37.772],[-107.98404,37.77169],[-107.98511,37.77122],[-107.98694,37.7701],[-108.0065,37.75547],[-108.00732,37.75479],[-108.00802,37.75404],[-108.01047,37.7511],[-108.01342,37.74853],[-108.01474,37.74679],[-108.015,37.74655],[-108.01839,37.74447],[-108.02029,37.74287],[-108.02064,37.74243],[-108.02082,37.742],[-108.0208,37.74034],[-108.02114,37.73955],[-108.02838,37.73243],[-108.02927,37.73107],[-108.0296,37.73033],[-108.02971,37.72965],[-108.0297,37.7276],[-108.03025,37.7231],[-108.03097,37.72207],[-108.03121,37.72084],[-108.03209,37.71969],[-108.03334,37.71762],[-108.03389,37.71518],[-108.03458,37.71381],[-108.03469,37.71313],[-108.03416,37.71141],[-108.034,37.71033],[-108.03424,37.70657],[-108.03417,37.70605],[-108.03368,37.70522],[-108.03238,37.7039],[-108.0321,37.70346],[-108.03187,37.70244],[-108.03222,37.70093],[-108.03222,37.70044],[-108.03212,37.69997],[-108.03103,37.6979],[-108.03085,37.69729],[-108.03092,37.69658],[-108.03159,37.69521],[-108.03152,37.69274]]]}},{"type":"Feature","properties":{"id":"lookout-mountain-road","name":"Lookout Mountain Road","difficulty":2,"character":"Technical"},"geometry":{"type":"MultiLineString","coordinates":[[[-105.25377,39.71607],[-105.25292,39.71646],[-105.25135,39.71788],[-105.25102,39.71855],[-105.25093,39.71943],[-105.25051,39.72009],[-105.25,39.72039],[-105.24851,39.72079],[-105.24815,39.72106],[-105.24805,39.72144],[-105.24872,39.7225],[-105.24876,39.72289],[-105.24858,39.72322],[-105.24732,39.72447],[-105.24723,39.72477],[-105.24729,39.72566],[-105.24699,39.72607],[-105.24611,39.72688],[-105.24568,39.72711],[-105.2435,39.72735],[-105.24167,39.7288],[-105.24143,39.7292],[-105.24146,39.73003],[-105.24137,39.73031],[-105.24098,39.73099],[-105.24065,39.7313],[-105.24014,39.73151],[-105.23947,39.73164],[-105.23777,39.73154],[-105.23744,39.7317],[-105.23732,39.73188],[-105.23727,39.73261],[-105.23739,39.73286],[-105.23857,39.73385],[-105.23895,39.73399],[-105.2396,39.73405],[-105.23973,39.734],[-105.23986,39.73346],[-105.24034,39.73268],[-105.24095,39.73289],[-105.24224,39.7327],[-105.24266,39.73198],[-105.24301,39.73157],[-105.24322,39.73147],[-105.24339,39.73154],[-105.2436,39.73184],[-105.24381,39.73197],[-105.24491,39.73215],[-105.24521,39.73227],[-105.24593,39.73297],[-105.24613,39.73329],[-105.24619,39.73379],[-105.24579,39.73444],[-105.24579,39.73523],[-105.2456,39.73539],[-105.24543,39.73529],[-105.24535,39.73467],[-105.24538,39.73336],[-105.24525,39.73322],[-105.24508,39.73326],[-105.24506,39.73387],[-105.24488,39.73394],[-105.24477,39.73383],[-105.2448,39.73327],[-105.24461,39.73316],[-105.24446,39.73327],[-105.24455,39.73421],[-105.24435,39.73574],[-105.24525,39.73676],[-105.24526,39.73707],[-105.24397,39.73778],[-105.24325,39.7383],[-105.24276,39.73891],[-105.2429,39.73966],[-105.24224,39.74031],[-105.24184,39.74054],[-105.24002,39.74109],[-105.23978,39.74127],[-105.23958,39.74178],[-105.23923,39.74219],[-105.23933,39.74245],[-105.2399,39.74282],[-105.24001,39.74299],[-105.23971,39.74382],[-105.23922,39.74427],[-105.239,39.74508],[-105.23907,39.74545],[-105.23964,39.74611],[-105.23963,39.74666],[-105.23996,39.74717],[-105.24004,39.74789],[-105.24044,39.74807],[-105.24103,39.74807],[-105.24186,39.74756],[-105.2427,39.74754],[-105.24409,39.74782],[-105.24419,39.74798],[-105.24398,39.74807],[-105.24245,39.74793],[-105.24231,39.74801],[-105.24236,39.74812],[-105.24299,39.74818],[-105.24458,39.74864],[-105.24466,39.74882],[-105.24449,39.74887],[-105.2433,39.74874],[-105.24273,39.74857],[-105.24225,39.74854],[-105.24107,39.74882],[-105.24046,39.74928],[-105.23962,39.74941],[-105.23856,39.74899],[-105.23823,39.74851],[-105.23817,39.74759],[-105.23793,39.74744],[-105.23727,39.74735],[-105.23701,39.74721],[-105.23686,39.74652],[-105.23607,39.74578],[-105.236,39.74535],[-105.23635,39.74466],[-105.23634,39.74448],[-105.23609,39.74442],[-105.23502,39.74455],[-105.23472,39.74442],[-105.23454,39.74419],[-105.23452,39.74383],[-105.23492,39.74305],[-105.23488,39.74283],[-105.23466,39.74274],[-105.23392,39.74291],[-105.23353,39.74284],[-105.23221,39.74148],[-105.23171,39.74117],[-105.23099,39.74093],[-105.23052,39.74031],[-105.23011,39.74029],[-105.22919,39.74052],[-105.2281,39.74026],[-105.22769,39.74002],[-105.22753,39.74006],[-105.22786,39.74058],[-105.22851,39.74232]]]}},{"type":"Feature","properties":{"id":"mount-blue-sky-road","name":"Mount Blue Sky Road \u00b7 CO 5","difficulty":3,"character":"Technical"},"geometry":{"type":"MultiLineString","coordinates":[[[-105.5963,39.65676],[-105.59546,39.65558],[-105.59486,39.65499],[-105.59424,39.65457],[-105.59319,39.65422],[-105.59307,39.65411],[-105.59314,39.65397],[-105.59658,39.6543],[-105.59794,39.65459],[-105.59889,39.65465],[-105.59998,39.65434],[-105.60147,39.65353],[-105.60266,39.65306],[-105.60405,39.65284],[-105.60552,39.65246],[-105.60638,39.65237],[-105.60654,39.65224],[-105.60652,39.65214],[-105.60628,39.65205],[-105.60535,39.65206],[-105.60306,39.65184],[-105.60006,39.65177],[-105.59951,39.65156],[-105.59832,39.65079],[-105.59632,39.65004],[-105.59223,39.64932],[-105.58997,39.64917],[-105.58788,39.64859],[-105.58538,39.64865],[-105.58467,39.64843],[-105.58447,39.64822],[-105.58441,39.64797],[-105.58476,39.64731],[-105.58563,39.64679],[-105.5868,39.64653],[-105.58754,39.64619],[-105.58882,39.64477],[-105.5893,39.64462],[-105.58984,39.64423],[-105.59133,39.64393],[-105.59213,39.64367],[-105.59282,39.64304],[-105.59307,39.64312],[-105.59308,39.64336],[-105.59282,39.64386],[-105.59245,39.64418],[-105.59197,39.64439],[-105.59068,39.64457],[-105.59036,39.64485],[-105.59023,39.64522],[-105.59027,39.64555],[-105.59043,39.64574],[-105.59094,39.64587],[-105.59184,39.646],[-105.59379,39.64583],[-105.59551,39.64592],[-105.59765,39.645],[-105.59935,39.64467],[-105.6009,39.64461],[-105.60103,39.64451],[-105.60128,39.64386],[-105.60171,39.64209],[-105.60232,39.64046],[-105.60378,39.63873],[-105.60466,39.63745],[-105.60515,39.63707],[-105.60641,39.63635],[-105.60677,39.63586],[-105.60684,39.63536],[-105.6058,39.63467],[-105.60502,39.6335],[-105.60379,39.6321],[-105.6035,39.63156],[-105.60347,39.63045],[-105.60395,39.62914],[-105.60407,39.62832],[-105.60408,39.62718],[-105.60385,39.62635],[-105.60345,39.62585],[-105.60137,39.62398],[-105.59991,39.62316],[-105.5986,39.62219],[-105.59831,39.62174],[-105.5984,39.62143],[-105.59859,39.62126],[-105.59903,39.62109],[-105.59973,39.62102],[-105.60204,39.6213],[-105.60418,39.62182],[-105.60777,39.62155],[-105.60835,39.62132],[-105.60903,39.62065],[-105.60916,39.62024],[-105.60908,39.61959],[-105.60748,39.61756],[-105.60706,39.61667],[-105.60696,39.61608],[-105.60707,39.6156],[-105.60795,39.61426],[-105.60817,39.61417],[-105.60878,39.61416],[-105.61031,39.61443],[-105.61139,39.61428],[-105.61222,39.61393],[-105.61428,39.61259],[-105.61518,39.61219],[-105.61566,39.61203],[-105.6167,39.61187],[-105.61752,39.61185],[-105.62123,39.61125],[-105.62195,39.61106],[-105.62389,39.61026],[-105.62424,39.60985],[-105.62474,39.60867],[-105.62531,39.60772],[-105.62666,39.60635],[-105.62716,39.6056],[-105.62721,39.6046],[-105.627,39.60302],[-105.62705,39.60278],[-105.62739,39.60243],[-105.62777,39.60228],[-105.62888,39.60207],[-105.63197,39.60186],[-105.63398,39.60063],[-105.63468,39.59988],[-105.63519,39.59954],[-105.63614,39.59925],[-105.63909,39.59865],[-105.63993,39.59828],[-105.64053,39.59784],[-105.64082,39.59738],[-105.64074,39.59701],[-105.64024,39.59672],[-105.63778,39.59569],[-105.63604,39.59417],[-105.63503,39.59307],[-105.63324,39.5905],[-105.63196,39.58925],[-105.63076,39.58731],[-105.62937,39.58557],[-105.62902,39.58525],[-105.62782,39.58451],[-105.62694,39.58376],[-105.62696,39.58365],[-105.62715,39.58368],[-105.62857,39.5845],[-105.6288,39.58446],[-105.627,39.58294],[-105.62667,39.58229],[-105.6267,39.58212],[-105.627,39.58184],[-105.62905,39.58071],[-105.63023,39.57994],[-105.6311,39.57959],[-105.63236,39.57942],[-105.63388,39.5794],[-105.6346,39.5795],[-105.63735,39.57931],[-105.63726,39.57941],[-105.63381,39.58047],[-105.63291,39.58056],[-105.63184,39.58044],[-105.63093,39.58084],[-105.62989,39.58154],[-105.62897,39.58183],[-105.62886,39.58206],[-105.62905,39.58232],[-105.63181,39.58399],[-105.63198,39.58392],[-105.63136,39.58338],[-105.63067,39.58222],[-105.63065,39.5818],[-105.63085,39.58167],[-105.63156,39.58163],[-105.63213,39.58174],[-105.63256,39.58199],[-105.63296,39.58275],[-105.6334,39.58303],[-105.63367,39.5829],[-105.63389,39.58249],[-105.63416,39.58226],[-105.63568,39.58175],[-105.63896,39.5812],[-105.63941,39.58129]]]}},{"type":"Feature","properties":{"id":"deer-creek-canyon-road","name":"Deer Creek Canyon Road","difficulty":2,"character":"Medium speed"},"geometry":{"type":"MultiLineString","coordinates":[[[-105.08702,39.54945],[-105.0889,39.55],[-105.09016,39.55065],[-105.09086,39.55125],[-105.09281,39.55335],[-105.09344,39.55383],[-105.09431,39.55412],[-105.09843,39.55501],[-105.10035,39.55523],[-105.10249,39.55516],[-105.10555,39.55462],[-105.10696,39.55452],[-105.10955,39.55362],[-105.11057,39.55347],[-105.11278,39.55373],[-105.11417,39.55405],[-105.11728,39.55433],[-105.11965,39.55483],[-105.12024,39.55482],[-105.12163,39.55445],[-105.12178,39.55415],[-105.12202,39.55395],[-105.12317,39.55339],[-105.12417,39.55262],[-105.12494,39.55226],[-105.12795,39.55194],[-105.12953,39.55146],[-105.13071,39.55076],[-105.13125,39.54995],[-105.13155,39.5497],[-105.13329,39.54913],[-105.13378,39.54909],[-105.1343,39.54925],[-105.13516,39.55004],[-105.13581,39.55033],[-105.14075,39.55125],[-105.14142,39.55125],[-105.14314,39.5508],[-105.1446,39.55067],[-105.14554,39.55041],[-105.14646,39.54999],[-105.1479,39.54964],[-105.14909,39.54912],[-105.15066,39.54892],[-105.15184,39.54823],[-105.15287,39.54782],[-105.15658,39.54706],[-105.1601,39.5461],[-105.1604,39.54578],[-105.16028,39.54506],[-105.16061,39.54457],[-105.16091,39.5437],[-105.16117,39.54348],[-105.16207,39.54318],[-105.16254,39.54318],[-105.16299,39.54365],[-105.16339,39.54379],[-105.16502,39.54365],[-105.16591,39.54398],[-105.16666,39.54387],[-105.1675,39.54409],[-105.16849,39.54388],[-105.16955,39.54398],[-105.16984,39.54385],[-105.16998,39.54368],[-105.16998,39.54296],[-105.17014,39.54261],[-105.17049,39.5425],[-105.17136,39.5425],[-105.17173,39.54231],[-105.17179,39.54194],[-105.17155,39.54101],[-105.17167,39.54072],[-105.17206,39.54049],[-105.17238,39.54045],[-105.17353,39.54064],[-105.17506,39.54057],[-105.17702,39.54064],[-105.17871,39.54047],[-105.17962,39.54077],[-105.17992,39.54077],[-105.1803,39.54059],[-105.18073,39.53981],[-105.18167,39.53928],[-105.18221,39.5391],[-105.18339,39.53901],[-105.18589,39.53835],[-105.18668,39.53753],[-105.1886,39.53653],[-105.18947,39.5364],[-105.19058,39.53692],[-105.19149,39.53667],[-105.19182,39.53681],[-105.192,39.53704],[-105.19194,39.53718],[-105.19147,39.53751],[-105.19118,39.53796],[-105.19113,39.53832],[-105.19126,39.53853],[-105.19164,39.53865],[-105.19219,39.53829],[-105.19268,39.53826],[-105.19374,39.5388],[-105.19459,39.5391],[-105.19552,39.5398],[-105.1958,39.54039],[-105.19637,39.54086],[-105.19676,39.54141],[-105.19751,39.54185],[-105.19758,39.54205],[-105.19731,39.54275],[-105.19767,39.54369],[-105.19764,39.54424],[-105.19796,39.54548],[-105.19844,39.5461],[-105.19982,39.54715],[-105.20065,39.54825],[-105.20123,39.5488],[-105.20171,39.54974],[-105.20255,39.55047],[-105.2033,39.55146],[-105.20549,39.55352],[-105.20641,39.55535],[-105.20764,39.55657],[-105.20848,39.55785],[-105.20934,39.55862],[-105.20996,39.55938],[-105.21113,39.56111],[-105.2115,39.56236],[-105.21224,39.56412],[-105.21284,39.56515],[-105.21305,39.56588],[-105.21446,39.56773],[-105.21495,39.56905],[-105.21615,39.57076],[-105.21674,39.57241],[-105.21689,39.57259],[-105.21729,39.57276]]]}}]}
