{"type":"FeatureCollection","features":[{"type":"Feature","properties":{"id":"independence-pass","name":"Independence Pass \u00b7 CO 82","difficulty":3,"character":"Technical"},"geometry":{"type":"Point","coordinates":[-106.5776244,39.1231379]}},{"type":"Feature","properties":{"id":"million-dollar-highway","name":"Million Dollar Highway \u00b7 US 550","difficulty":3,"character":"Technical"},"geometry":{"type":"Point","coordinates":[-107.7010399,37.9149499]}},{"type":"Feature","properties":{"id":"trail-ridge-road","name":"Trail Ridge Road \u00b7 US 34","difficulty":2,"character":"Medium speed"},"geometry":{"type":"Point","coordinates":[-105.7572197,40.4260526]}},{"type":"Feature","properties":{"id":"lizard-head-pass","name":"Lizard Head Pass \u00b7 CO 145","difficulty":2,"character":"Medium speed"},"geometry":{"type":"Point","coordinates":[-107.9116874,37.8091639]}}]}
