{"type":"FeatureCollection","features":[{"type":"Feature","properties":{"id":"sonora-pass","name":"Sonora Pass \u00b7 Hwy 108","difficulty":3,"character":"Technical"},"geometry":{"type":"Point","coordinates":[-119.617234,38.328131]}},{"type":"Feature","properties":{"id":"tioga-pass","name":"Tioga Pass \u00b7 Hwy 120","difficulty":2,"character":"Technical"},"geometry":{"type":"Point","coordinates":[-119.217872,37.950265]}},{"type":"Feature","properties":{"id":"rock-creek-road","name":"Rock Creek Road","difficulty":2,"character":"Technical"},"geometry":{"type":"Point","coordinates":[-118.715791,37.500871]}},{"type":"Feature","properties":{"id":"bishop-creek-sabrina","name":"Bishop Creek Canyon Road \u00b7 Hwy 168","difficulty":2,"character":"Medium speed"},"geometry":{"type":"Point","coordinates":[-118.521183,37.327263]}},{"type":"Feature","properties":{"id":"horseshoe-meadow","name":"Horseshoe Meadow Road","difficulty":3,"character":"Technical"},"geometry":{"type":"Point","coordinates":[-118.09337,36.478337]}},{"type":"Feature","properties":{"id":"highway-168-west","name":"Highway 168 \u00b7 Shaver Lake to Huntington Lake","difficulty":2,"character":"Technical"},"geometry":{"type":"Point","coordinates":[-119.307999,37.141948]}},{"type":"Feature","properties":{"id":"nine-mile-canyon-road","name":"Nine Mile Canyon Road","difficulty":3,"character":"High speed"},"geometry":{"type":"Point","coordinates":[-117.965863,35.851939]}}]}
