{"type":"FeatureCollection","features":[{"type":"Feature","properties":{"id":"sonora-pass","name":"Sonora Pass \u00b7 Hwy 108","difficulty":3,"character":"Technical"},"geometry":{"type":"MultiLineString","coordinates":[[[-119.74994,38.32121],[-119.74951,38.32111],[-119.74838,38.32109],[-119.74809,38.3212],[-119.74794,38.32162],[-119.74777,38.32175],[-119.74739,38.32178],[-119.74701,38.32163],[-119.74643,38.32079],[-119.7457,38.32046],[-119.74522,38.31979],[-119.74508,38.31931],[-119.74447,38.3188],[-119.74437,38.31818],[-119.74417,38.31783],[-119.74335,38.31733],[-119.74297,38.31606],[-119.74303,38.31531],[-119.74291,38.31512],[-119.7408,38.31485],[-119.73917,38.31426],[-119.73774,38.31406],[-119.73708,38.31378],[-119.73676,38.31375],[-119.73552,38.31424],[-119.73434,38.31508],[-119.73282,38.31556],[-119.73209,38.31607],[-119.73121,38.31623],[-119.73033,38.31655],[-119.73031,38.31673],[-119.73055,38.31691],[-119.73194,38.31727],[-119.7327,38.31728],[-119.73308,38.31697],[-119.73337,38.31689],[-119.73351,38.317],[-119.73344,38.31717],[-119.7328,38.31765],[-119.73118,38.31809],[-119.73021,38.31825],[-119.72869,38.31926],[-119.72813,38.31952],[-119.72683,38.31979],[-119.72556,38.32022],[-119.72355,38.32014],[-119.72098,38.32023],[-119.71826,38.32019],[-119.7179,38.32044],[-119.7176,38.32123],[-119.7176,38.32153],[-119.71783,38.32196],[-119.7177,38.32215],[-119.71618,38.32249],[-119.71561,38.32222],[-119.71543,38.32224],[-119.71434,38.32299],[-119.71377,38.32363],[-119.71242,38.32393],[-119.71085,38.32445],[-119.71047,38.32449],[-119.70953,38.3244],[-119.70813,38.32464],[-119.70592,38.32558],[-119.70546,38.32567],[-119.70444,38.32546],[-119.70258,38.32567],[-119.70158,38.32534],[-119.70097,38.32526],[-119.70029,38.32528],[-119.69958,38.32549],[-119.69879,38.32548],[-119.69683,38.32468],[-119.69606,38.32456],[-119.69166,38.32493],[-119.69092,38.32509],[-119.68979,38.32551],[-119.68779,38.32573],[-119.68694,38.32614],[-119.68663,38.32618],[-119.6861,38.32606],[-119.6847,38.32516],[-119.6839,38.32483],[-119.68366,38.32481],[-119.68319,38.32497],[-119.6826,38.32497],[-119.68134,38.32466],[-119.67911,38.32337],[-119.67276,38.3214],[-119.67166,38.32073],[-119.67131,38.32041],[-119.67049,38.31921],[-119.66924,38.31781],[-119.66886,38.31774],[-119.66804,38.31821],[-119.66771,38.31824],[-119.66702,38.31759],[-119.66699,38.31705],[-119.66677,38.31692],[-119.6662,38.31739],[-119.6652,38.31793],[-119.66435,38.31824],[-119.66402,38.3185],[-119.6633,38.31998],[-119.66271,38.32045],[-119.66268,38.32117],[-119.66254,38.32155],[-119.66181,38.32248],[-119.66142,38.32323],[-119.65969,38.32514],[-119.65975,38.326],[-119.65878,38.32708],[-119.65796,38.32724],[-119.65755,38.32747],[-119.65746,38.32772],[-119.65765,38.32843],[-119.6576,38.32867],[-119.65677,38.32936],[-119.65636,38.32987],[-119.65553,38.33127],[-119.65405,38.33336],[-119.65356,38.3348],[-119.65274,38.33597],[-119.65237,38.33619],[-119.65181,38.33619],[-119.65148,38.336],[-119.65094,38.33543],[-119.65029,38.33537],[-119.64922,38.33558],[-119.64824,38.33636],[-119.64782,38.33656],[-119.64538,38.33657],[-119.6434,38.33588],[-119.64216,38.33511],[-119.64168,38.33462],[-119.64134,38.33377],[-119.64105,38.33335],[-119.63978,38.33286],[-119.63695,38.33031],[-119.63672,38.33002],[-119.63669,38.32973],[-119.63739,38.32895],[-119.6374,38.32854],[-119.6371,38.32781],[-119.63621,38.32746],[-119.63575,38.32741],[-119.63446,38.32775],[-119.63373,38.32826],[-119.63296,38.32853],[-119.63234,38.3289],[-119.63072,38.32849],[-119.63016,38.32827],[-119.62914,38.32768],[-119.62865,38.32719],[-119.62801,38.32723],[-119.62753,38.3271],[-119.62714,38.32668],[-119.62634,38.3262],[-119.62618,38.32624],[-119.6261,38.32638],[-119.62626,38.32712],[-119.62579,38.32742],[-119.62486,38.32772],[-119.6213,38.32841],[-119.62004,38.32845],[-119.61805,38.32827],[-119.61683,38.32803],[-119.616,38.32772],[-119.6145,38.32617],[-119.61435,38.32554],[-119.61475,38.32482],[-119.61476,38.3246],[-119.61395,38.32361],[-119.61329,38.32305],[-119.61206,38.32226],[-119.61113,38.32172],[-119.61044,38.32149],[-119.60976,38.32112],[-119.60887,38.32022],[-119.60888,38.31967],[-119.60866,38.31918],[-119.60873,38.31844],[-119.60898,38.31826],[-119.60975,38.31825],[-119.60983,38.31805],[-119.60905,38.31699],[-119.60822,38.31628],[-119.60782,38.31545],[-119.60737,38.3151],[-119.60675,38.31481],[-119.60523,38.31443],[-119.60399,38.31369],[-119.60048,38.31272],[-119.59919,38.31211],[-119.59864,38.31159],[-119.59855,38.31091],[-119.59834,38.31071],[-119.59715,38.31063],[-119.59628,38.31025],[-119.59516,38.3101],[-119.59459,38.31013],[-119.59436,38.31003],[-119.59342,38.30871],[-119.59365,38.30779],[-119.59372,38.30676],[-119.59363,38.30615],[-119.5935,38.3056],[-119.59321,38.30503],[-119.59303,38.30488],[-119.5928,38.30485],[-119.5926,38.30495],[-119.59178,38.30604],[-119.59128,38.30733],[-119.5909,38.30769],[-119.5904,38.30783],[-119.58957,38.30792],[-119.58773,38.30756],[-119.58744,38.3076],[-119.58692,38.30806],[-119.58691,38.30887],[-119.58575,38.30957],[-119.58537,38.30973],[-119.5848,38.3097],[-119.58393,38.30986],[-119.58376,38.30977],[-119.58364,38.30945],[-119.58331,38.30945],[-119.57816,38.3129],[-119.57646,38.31365],[-119.57365,38.31511],[-119.57301,38.31555],[-119.57208,38.31587],[-119.57153,38.31625],[-119.57072,38.31659],[-119.57013,38.31721],[-119.56953,38.31764],[-119.568,38.31927],[-119.56664,38.31989],[-119.56491,38.32035],[-119.56456,38.32074],[-119.56345,38.3216],[-119.56283,38.32178],[-119.56232,38.32248],[-119.56109,38.32346],[-119.56068,38.3241],[-119.56052,38.32471],[-119.55993,38.32574],[-119.55865,38.32647],[-119.55826,38.32655],[-119.55722,38.3265],[-119.55632,38.32707],[-119.55541,38.32749],[-119.55521,38.32772],[-119.55506,38.32773],[-119.55492,38.32759],[-119.55494,38.32732],[-119.55527,38.32709],[-119.55587,38.32641],[-119.55632,38.32549],[-119.55653,38.32465],[-119.55671,38.32308],[-119.55645,38.32256],[-119.55621,38.32242],[-119.55595,38.32247],[-119.55573,38.32316],[-119.55548,38.32353],[-119.55498,38.32384],[-119.55476,38.32411],[-119.55425,38.32434],[-119.55293,38.32566],[-119.55261,38.32647],[-119.55226,38.32704],[-119.55222,38.32761],[-119.55198,38.32818],[-119.55227,38.33007],[-119.55339,38.33108],[-119.5538,38.3325],[-119.55372,38.33294],[-119.5525,38.33488],[-119.55132,38.33609],[-119.55104,38.33676],[-119.55001,38.33829],[-119.54905,38.34017],[-119.54768,38.34115],[-119.5473,38.34166],[-119.546,38.34435],[-119.54582,38.34452],[-119.54512,38.34492],[-119.54439,38.34494],[-119.54342,38.34529],[-119.54208,38.3467],[-119.54143,38.34682],[-119.5404,38.34755],[-119.53785,38.34853],[-119.53732,38.34888],[-119.53678,38.34971],[-119.53641,38.35009],[-119.53557,38.35053],[-119.53445,38.3507],[-119.53301,38.35055],[-119.53168,38.35057],[-119.51796,38.3554],[-119.51284,38.35683],[-119.51107,38.35746],[-119.50996,38.35764],[-119.50866,38.35754],[-119.50718,38.35764],[-119.50615,38.35795],[-119.50448,38.35888],[-119.50099,38.36019],[-119.49969,38.3608],[-119.49904,38.36126],[-119.49811,38.36231],[-119.49678,38.3635],[-119.49633,38.36379],[-119.4957,38.36403],[-119.48847,38.36581],[-119.48551,38.36568],[-119.48429,38.36597],[-119.48354,38.36601],[-119.47829,38.36566],[-119.47669,38.36527],[-119.47538,38.36463],[-119.47445,38.36391],[-119.47386,38.36322],[-119.47284,38.36145],[-119.47195,38.3603],[-119.46385,38.35266],[-119.4631,38.35204],[-119.46201,38.35139],[-119.46083,38.35091],[-119.45231,38.34852]]]}},{"type":"Feature","properties":{"id":"tioga-pass","name":"Tioga Pass \u00b7 Hwy 120","difficulty":2,"character":"Technical"},"geometry":{"type":"MultiLineString","coordinates":[[[-119.25788,37.9109],[-119.25788,37.91212],[-119.25768,37.91318],[-119.2566,37.91637],[-119.25522,37.91857],[-119.25492,37.92066],[-119.25487,37.9214],[-119.25496,37.92188],[-119.25602,37.92403],[-119.25627,37.92478],[-119.25632,37.92539],[-119.25615,37.92624],[-119.2552,37.92821],[-119.25459,37.92888],[-119.25343,37.9295],[-119.25113,37.93019],[-119.2507,37.93048],[-119.25022,37.93108],[-119.24866,37.93387],[-119.24833,37.93466],[-119.24834,37.93501],[-119.24852,37.93547],[-119.24946,37.93677],[-119.24952,37.93721],[-119.2493,37.93776],[-119.24891,37.93811],[-119.2483,37.93832],[-119.24767,37.93832],[-119.24645,37.93812],[-119.24541,37.93823],[-119.24472,37.9385],[-119.24316,37.93968],[-119.24242,37.94004],[-119.24142,37.94026],[-119.24047,37.94024],[-119.23955,37.94002],[-119.23885,37.93969],[-119.23547,37.93689],[-119.23352,37.93584],[-119.23261,37.93563],[-119.23208,37.93571],[-119.23166,37.9359],[-119.23128,37.93626],[-119.23111,37.93664],[-119.23128,37.93815],[-119.23123,37.93856],[-119.23031,37.93973],[-119.23002,37.9411],[-119.22882,37.94237],[-119.22759,37.94411],[-119.22627,37.9456],[-119.22581,37.94751],[-119.22475,37.94896],[-119.22469,37.94936],[-119.22486,37.94985],[-119.22594,37.95082],[-119.22622,37.95139],[-119.22619,37.9518],[-119.22602,37.95212],[-119.22576,37.95239],[-119.2253,37.95263],[-119.22468,37.95273],[-119.22418,37.95266],[-119.22354,37.95234],[-119.22274,37.9517],[-119.22214,37.95144],[-119.21915,37.95079],[-119.21787,37.95027],[-119.21576,37.9498],[-119.21399,37.94953],[-119.21277,37.94949],[-119.21074,37.95014],[-119.20889,37.9502],[-119.20744,37.95045],[-119.20542,37.95011],[-119.20099,37.95008],[-119.19953,37.94989],[-119.19811,37.94957],[-119.19636,37.94903],[-119.1946,37.94832],[-119.19325,37.94814],[-119.19148,37.94777],[-119.19102,37.94778],[-119.19,37.94796],[-119.18932,37.94783],[-119.18894,37.94752],[-119.18842,37.94663],[-119.188,37.94623],[-119.18663,37.94529],[-119.18514,37.94474],[-119.18485,37.94453],[-119.18461,37.94413],[-119.18442,37.94333],[-119.18398,37.94269],[-119.18215,37.94139],[-119.18144,37.94071],[-119.17931,37.93794],[-119.17745,37.93361],[-119.17669,37.93261],[-119.17587,37.93205],[-119.17493,37.93166],[-119.17067,37.93059],[-119.16931,37.9304],[-119.16814,37.93047],[-119.16482,37.93112],[-119.16094,37.93103],[-119.1598,37.93124],[-119.15093,37.93394],[-119.1466,37.93598],[-119.13548,37.93985],[-119.13414,37.94023],[-119.13101,37.9407],[-119.12995,37.94076],[-119.12634,37.94046],[-119.1236,37.93977],[-119.12284,37.93966],[-119.12189,37.93968],[-119.12076,37.93995],[-119.11959,37.9406],[-119.1188,37.94154],[-119.11854,37.94221],[-119.11812,37.94426],[-119.11758,37.94517],[-119.117,37.94571],[-119.11462,37.94734],[-119.11404,37.94792],[-119.11356,37.94883],[-119.1131,37.95042]],[[-119.09131,37.8869],[-119.09011,37.88703]]]}},{"type":"Feature","properties":{"id":"rock-creek-road","name":"Rock Creek Road","difficulty":2,"character":"Technical"},"geometry":{"type":"MultiLineString","coordinates":[[[-118.74683,37.43571],[-118.74669,37.43628],[-118.74625,37.43705],[-118.74614,37.43799],[-118.7458,37.43905],[-118.74592,37.43941],[-118.74589,37.43967],[-118.74562,37.44024],[-118.74565,37.4407],[-118.74546,37.44117],[-118.74535,37.44214],[-118.74502,37.44262],[-118.74427,37.44421],[-118.74431,37.44492],[-118.74325,37.44898],[-118.74327,37.44928],[-118.74348,37.44965],[-118.74331,37.45056],[-118.74303,37.4513],[-118.74237,37.45165],[-118.74214,37.45192],[-118.74069,37.45563],[-118.74038,37.45601],[-118.74004,37.45623],[-118.73887,37.45659],[-118.73745,37.45727],[-118.73651,37.45732],[-118.73522,37.45692],[-118.73485,37.45706],[-118.73439,37.45745],[-118.73397,37.45804],[-118.73369,37.45893],[-118.73342,37.45941],[-118.73104,37.46195],[-118.73032,37.46315],[-118.72842,37.46565],[-118.72726,37.46773],[-118.72626,37.46899],[-118.72562,37.47029],[-118.72484,37.47157],[-118.72352,37.47554],[-118.72322,37.4784],[-118.72253,37.48191],[-118.7221,37.48561],[-118.7207,37.49177],[-118.72019,37.4924],[-118.7188,37.49302],[-118.71824,37.49352],[-118.71613,37.49837],[-118.71585,37.50075],[-118.71399,37.50308],[-118.71382,37.50344],[-118.71381,37.50398],[-118.71422,37.50494],[-118.71429,37.5054],[-118.71325,37.50784],[-118.71319,37.51113],[-118.71247,37.51261],[-118.71211,37.51409],[-118.71214,37.51474],[-118.71248,37.51578],[-118.71247,37.51636],[-118.71211,37.51716],[-118.7109,37.51847],[-118.71065,37.51918],[-118.71076,37.52001],[-118.71202,37.52224],[-118.71219,37.52279],[-118.71137,37.52723],[-118.71111,37.5279],[-118.71,37.52953],[-118.70896,37.53177],[-118.70544,37.53677],[-118.70507,37.53714],[-118.70454,37.53741],[-118.70389,37.53752],[-118.70114,37.53728],[-118.69903,37.53777],[-118.69845,37.538],[-118.69658,37.5393],[-118.69507,37.53995],[-118.69465,37.5404],[-118.69429,37.54113],[-118.69403,37.54135],[-118.69356,37.54146],[-118.69246,37.54145],[-118.69191,37.54175],[-118.69176,37.54213],[-118.69186,37.54359],[-118.69143,37.54412],[-118.6913,37.5453],[-118.69098,37.54594],[-118.69076,37.54617],[-118.6854,37.54853],[-118.68272,37.5494],[-118.68184,37.5499],[-118.68129,37.55035],[-118.68079,37.55092],[-118.68043,37.55151],[-118.678,37.55681],[-118.67766,37.55841],[-118.67773,37.56097],[-118.67721,37.56197]]]}},{"type":"Feature","properties":{"id":"bishop-creek-sabrina","name":"Bishop Creek Canyon Road \u00b7 Hwy 168","difficulty":2,"character":"Medium speed"},"geometry":{"type":"MultiLineString","coordinates":[[[-118.60657,37.21826],[-118.60595,37.21919],[-118.60478,37.22145],[-118.60275,37.22355],[-118.60095,37.22577],[-118.59936,37.22889],[-118.59743,37.23189],[-118.59717,37.23298],[-118.5972,37.24111],[-118.59701,37.24195],[-118.59662,37.24262],[-118.59609,37.24319],[-118.59423,37.24454],[-118.5886,37.24836],[-118.58746,37.2487],[-118.58311,37.24915],[-118.58227,37.24953],[-118.58166,37.25019],[-118.58143,37.25092],[-118.58159,37.25236],[-118.58153,37.25329],[-118.5801,37.25605],[-118.5798,37.25701],[-118.57969,37.2578],[-118.57979,37.25932],[-118.58059,37.26289],[-118.58041,37.26435],[-118.58002,37.26522],[-118.57507,37.27428],[-118.57415,37.27549],[-118.55341,37.2924],[-118.55275,37.29283],[-118.5451,37.29696],[-118.53769,37.30009],[-118.53193,37.3029],[-118.5296,37.30495],[-118.52797,37.30729],[-118.52749,37.3078],[-118.51964,37.3135],[-118.51891,37.31425],[-118.51415,37.3235],[-118.51395,37.32432],[-118.51405,37.3253],[-118.5144,37.32606],[-118.51496,37.32671],[-118.51596,37.32737],[-118.51702,37.32773],[-118.51792,37.32784],[-118.51859,37.32781],[-118.52094,37.3273],[-118.52165,37.32723],[-118.52259,37.32734],[-118.52357,37.32775],[-118.52408,37.32815],[-118.52444,37.32858],[-118.52478,37.3296],[-118.52457,37.3306],[-118.52428,37.33105],[-118.52376,37.33153],[-118.50853,37.3389],[-118.50673,37.33952],[-118.50559,37.33972],[-118.48118,37.34203],[-118.47994,37.34223],[-118.47903,37.34253],[-118.47806,37.34301],[-118.47721,37.34362],[-118.46459,37.35342],[-118.4636,37.3543],[-118.46186,37.35628],[-118.4594,37.3584],[-118.45827,37.35919],[-118.45704,37.35985],[-118.45592,37.36032],[-118.45431,37.36082],[-118.45218,37.36116],[-118.4503,37.36122],[-118.44062,37.36131],[-118.43561,37.36125],[-118.43131,37.36138],[-118.42317,37.3613],[-118.40226,37.36135],[-118.39526,37.36144]],[[-118.56589,37.16938],[-118.56609,37.1695],[-118.5661,37.16985],[-118.56576,37.17047],[-118.56584,37.17119],[-118.56565,37.17193],[-118.56503,37.17226],[-118.56472,37.17254],[-118.56383,37.17409],[-118.56336,37.17509],[-118.56329,37.17615],[-118.56306,37.17678],[-118.56279,37.17701],[-118.56145,37.17746],[-118.56044,37.17842],[-118.55954,37.17902],[-118.55934,37.17932],[-118.55934,37.18002],[-118.55916,37.18073],[-118.55895,37.18104],[-118.5585,37.18138],[-118.55824,37.18223],[-118.55844,37.18266],[-118.55854,37.18365],[-118.55836,37.18496],[-118.55912,37.18622],[-118.5589,37.18799],[-118.55994,37.19065],[-118.56038,37.19137],[-118.56207,37.19312],[-118.56291,37.19482],[-118.56511,37.19628],[-118.56724,37.19838],[-118.56875,37.20091],[-118.56936,37.20211],[-118.56961,37.20344],[-118.56986,37.2065],[-118.5704,37.20786],[-118.5702,37.20853],[-118.56824,37.21088],[-118.56766,37.21198],[-118.56708,37.21352],[-118.56727,37.21452],[-118.56724,37.215],[-118.56667,37.2162],[-118.56668,37.21907],[-118.56752,37.2228],[-118.5668,37.22444],[-118.56691,37.22742],[-118.56624,37.23344],[-118.56616,37.23632],[-118.56591,37.23761],[-118.56592,37.23836],[-118.56622,37.23941],[-118.56744,37.24134],[-118.56849,37.24349],[-118.5719,37.24753],[-118.57242,37.2485],[-118.57268,37.2498],[-118.57266,37.25105],[-118.57229,37.25226],[-118.57149,37.2541],[-118.5715,37.25465],[-118.57176,37.25512],[-118.57205,37.25539],[-118.57307,37.25592],[-118.57388,37.25698],[-118.57422,37.25719],[-118.5747,37.25734],[-118.57543,37.25735],[-118.57605,37.25714],[-118.57645,37.25684],[-118.57713,37.25589],[-118.57784,37.25553],[-118.57824,37.25549],[-118.57876,37.25559],[-118.57999,37.25634]]]}},{"type":"Feature","properties":{"id":"horseshoe-meadow","name":"Horseshoe Meadow Road","difficulty":3,"character":"Technical"},"geometry":{"type":"MultiLineString","coordinates":[[[-118.16491,36.44961],[-118.16308,36.45027],[-118.16099,36.45083],[-118.16062,36.45117],[-118.16045,36.45159],[-118.16049,36.45205],[-118.16144,36.4544],[-118.16184,36.45593],[-118.16358,36.45809],[-118.16379,36.45851],[-118.16381,36.459],[-118.16371,36.45932],[-118.16315,36.45989],[-118.16241,36.46014],[-118.16008,36.46045],[-118.15873,36.46084],[-118.15666,36.46094],[-118.15605,36.46104],[-118.15175,36.46276],[-118.15081,36.46301],[-118.14963,36.46317],[-118.14348,36.46511],[-118.14227,36.46538],[-118.14073,36.46554],[-118.13946,36.46592],[-118.13812,36.46654],[-118.13702,36.46675],[-118.13583,36.46717],[-118.13526,36.46713],[-118.13411,36.46683],[-118.13316,36.46687],[-118.13245,36.46702],[-118.1318,36.46736],[-118.13083,36.46857],[-118.1305,36.46872],[-118.1297,36.46882],[-118.12897,36.46916],[-118.12708,36.47079],[-118.12651,36.47089],[-118.12578,36.47066],[-118.12538,36.47065],[-118.12444,36.47104],[-118.12357,36.47111],[-118.12275,36.47141],[-118.12193,36.47154],[-118.12139,36.47198],[-118.12059,36.47308],[-118.12009,36.47334],[-118.11977,36.47337],[-118.11886,36.47317],[-118.11791,36.47329],[-118.1158,36.47278],[-118.11516,36.47284],[-118.11487,36.47311],[-118.11463,36.47358],[-118.11424,36.47396],[-118.11395,36.47448],[-118.1134,36.47493],[-118.11247,36.47657],[-118.11126,36.47725],[-118.1112,36.47747],[-118.11136,36.47817],[-118.11126,36.47883],[-118.11113,36.47937],[-118.11085,36.47965],[-118.10886,36.47995],[-118.10676,36.48011],[-118.10509,36.48078],[-118.1026,36.48105],[-118.1016,36.48152],[-118.10137,36.48135],[-118.10144,36.48114],[-118.10212,36.48072],[-118.10357,36.48009],[-118.10353,36.47982],[-118.10326,36.47976],[-118.10235,36.48014],[-118.10162,36.48032],[-118.10044,36.48032],[-118.09967,36.48093],[-118.09891,36.48122],[-118.09883,36.4814],[-118.0989,36.48216],[-118.09947,36.48304],[-118.0998,36.48322],[-118.10053,36.48334],[-118.10097,36.48394],[-118.10149,36.48425],[-118.10192,36.48468],[-118.10262,36.48486],[-118.10336,36.48526],[-118.10411,36.48527],[-118.10421,36.48538],[-118.10411,36.48557],[-118.10332,36.4856],[-118.10258,36.4853],[-118.10131,36.48514],[-118.09972,36.48422],[-118.09856,36.48423],[-118.09817,36.48397],[-118.09794,36.48351],[-118.09736,36.48322],[-118.09671,36.48256],[-118.09586,36.48225],[-118.09524,36.48226],[-118.09458,36.48178],[-118.09369,36.48166],[-118.09317,36.48138],[-118.09243,36.48124],[-118.0922,36.48112],[-118.09197,36.48078],[-118.0919,36.47963],[-118.09213,36.47928],[-118.09335,36.47859],[-118.09337,36.47834],[-118.09319,36.47816],[-118.09277,36.47818],[-118.09204,36.47869],[-118.09112,36.47868],[-118.09063,36.47884],[-118.0902,36.47939],[-118.0902,36.47995],[-118.08996,36.48048],[-118.0901,36.48085],[-118.09052,36.48121],[-118.09078,36.48161],[-118.09134,36.48191],[-118.09179,36.48236],[-118.09245,36.48258],[-118.09351,36.48352],[-118.09448,36.48385],[-118.09463,36.48407],[-118.09478,36.48471],[-118.09496,36.4849],[-118.09543,36.48516],[-118.09609,36.48617],[-118.09702,36.48659],[-118.09743,36.48696],[-118.09792,36.48774],[-118.09941,36.48845],[-118.10011,36.48917],[-118.10033,36.48981],[-118.10036,36.49177],[-118.10032,36.49406],[-118.10009,36.49431],[-118.0999,36.49427],[-118.09983,36.49408],[-118.0999,36.49323],[-118.0996,36.49193],[-118.09885,36.49071],[-118.09827,36.49008],[-118.09582,36.48847],[-118.09403,36.48787],[-118.09304,36.48735],[-118.09168,36.48617],[-118.08919,36.48505],[-118.08823,36.48419],[-118.08637,36.48307],[-118.08601,36.48271],[-118.08551,36.48177],[-118.08519,36.48141],[-118.08241,36.4794],[-118.08213,36.4789],[-118.08189,36.47696],[-118.08164,36.47682],[-118.08139,36.47699],[-118.08131,36.47953],[-118.08174,36.4807],[-118.08381,36.48303],[-118.08477,36.48438],[-118.08741,36.48904],[-118.08855,36.49028],[-118.08921,36.49122],[-118.08961,36.492],[-118.08981,36.49292],[-118.09045,36.49459],[-118.09141,36.49599],[-118.09188,36.49656],[-118.09486,36.49944],[-118.09623,36.50182],[-118.09699,36.50262],[-118.09945,36.50409],[-118.10122,36.50464],[-118.10201,36.50466],[-118.10232,36.50481],[-118.10247,36.50505],[-118.10243,36.5054],[-118.10159,36.50659],[-118.1012,36.50679],[-118.1003,36.50694],[-118.09929,36.50742],[-118.09899,36.50772],[-118.09891,36.50813],[-118.10072,36.51696],[-118.10119,36.52021],[-118.10147,36.52088],[-118.10527,36.5269],[-118.10569,36.52803],[-118.10649,36.53192],[-118.10332,36.56614],[-118.10329,36.56718],[-118.10355,36.56794],[-118.10405,36.56853],[-118.10576,36.56959],[-118.10812,36.57141],[-118.11029,36.57316],[-118.11192,36.57464],[-118.11554,36.58161],[-118.11593,36.58284],[-118.11607,36.58411],[-118.11593,36.58642],[-118.11581,36.59452]]]}},{"type":"Feature","properties":{"id":"highway-168-west","name":"Highway 168 \u00b7 Shaver Lake to Huntington Lake","difficulty":2,"character":"Technical"},"geometry":{"type":"MultiLineString","coordinates":[[[-119.15014,37.25942],[-119.15291,37.25883],[-119.15414,37.25879],[-119.15719,37.25791],[-119.15867,37.25775],[-119.15956,37.25719],[-119.16017,37.25632],[-119.16113,37.25585],[-119.16144,37.25539],[-119.16228,37.25544],[-119.16384,37.25497],[-119.16415,37.25475],[-119.16461,37.25413],[-119.16532,37.25361],[-119.16665,37.25305],[-119.16764,37.25291],[-119.1694,37.25295],[-119.17015,37.25265],[-119.17111,37.25195],[-119.17289,37.25207],[-119.17494,37.25247],[-119.17536,37.25264],[-119.1773,37.25259],[-119.17916,37.25205],[-119.18014,37.25192],[-119.18076,37.25164],[-119.18109,37.25127],[-119.18095,37.25036],[-119.1811,37.2502],[-119.18141,37.25011],[-119.18176,37.25025],[-119.18245,37.25119],[-119.18385,37.25217],[-119.18395,37.25238],[-119.18394,37.25288],[-119.18422,37.25299],[-119.18439,37.25291],[-119.18449,37.25269],[-119.18493,37.2503],[-119.18521,37.24992],[-119.18558,37.24974],[-119.1862,37.24974],[-119.18847,37.25018],[-119.18996,37.25016],[-119.1923,37.24968],[-119.19341,37.24957],[-119.19458,37.24877],[-119.19524,37.24851],[-119.1977,37.24869],[-119.19916,37.24857],[-119.19968,37.24831],[-119.20019,37.24758],[-119.20055,37.24744],[-119.2014,37.2474],[-119.20165,37.24729],[-119.20198,37.24655],[-119.20265,37.24613],[-119.20391,37.24564],[-119.20503,37.24471],[-119.20596,37.24443],[-119.2073,37.24426],[-119.20946,37.24345],[-119.21078,37.24207],[-119.21107,37.24193],[-119.21226,37.24174],[-119.21264,37.2416],[-119.21491,37.23981],[-119.21651,37.23878],[-119.21738,37.23848],[-119.21821,37.23797],[-119.21904,37.23766],[-119.22012,37.23751],[-119.22327,37.23751],[-119.22373,37.23766],[-119.22432,37.23817],[-119.22462,37.23831],[-119.22515,37.23837],[-119.22936,37.23785],[-119.23064,37.23777],[-119.2313,37.23723],[-119.23327,37.2363],[-119.23408,37.23571],[-119.23437,37.23567],[-119.2348,37.23576],[-119.23531,37.23612],[-119.23602,37.23622],[-119.23645,37.23654],[-119.23832,37.23668],[-119.23844,37.23649],[-119.23826,37.23616],[-119.23676,37.23551],[-119.23586,37.23527],[-119.23512,37.23487],[-119.23454,37.23425],[-119.23461,37.23382],[-119.23542,37.23282],[-119.23561,37.23237],[-119.2355,37.23207],[-119.23466,37.23146],[-119.23485,37.23047],[-119.2346,37.23028],[-119.23414,37.23031],[-119.23393,37.23023],[-119.23382,37.23007],[-119.23386,37.22986],[-119.23478,37.2294],[-119.2362,37.22812],[-119.23827,37.22703],[-119.23874,37.22648],[-119.23886,37.22616],[-119.23875,37.22519],[-119.23888,37.22484],[-119.23879,37.22474],[-119.23864,37.22486],[-119.23841,37.22623],[-119.2383,37.22635],[-119.23817,37.22627],[-119.23826,37.22591],[-119.23822,37.22489],[-119.23861,37.22437],[-119.24035,37.22366],[-119.24174,37.22291],[-119.24364,37.22227],[-119.24414,37.22189],[-119.24432,37.22164],[-119.24517,37.22119],[-119.24574,37.22052],[-119.24715,37.21984],[-119.24744,37.21919],[-119.24775,37.21896],[-119.24847,37.2186],[-119.24957,37.21848],[-119.24992,37.21836],[-119.25181,37.21746],[-119.25273,37.21665],[-119.25302,37.21585],[-119.2532,37.21468],[-119.25417,37.21415],[-119.25516,37.21406],[-119.25576,37.21376],[-119.25611,37.21346],[-119.25608,37.21322],[-119.25492,37.21297],[-119.25478,37.21282],[-119.25482,37.2127],[-119.25568,37.21276],[-119.2566,37.21262],[-119.25712,37.2127],[-119.25752,37.21336],[-119.25749,37.21358],[-119.25706,37.21426],[-119.25714,37.21455],[-119.25733,37.21455],[-119.25745,37.21412],[-119.25836,37.21339],[-119.25891,37.21125],[-119.25876,37.21108],[-119.25779,37.211],[-119.2569,37.21072],[-119.25668,37.21009],[-119.25632,37.20968],[-119.256,37.20947],[-119.25562,37.20938],[-119.25432,37.20965],[-119.25254,37.21047],[-119.25196,37.2104],[-119.25131,37.21055],[-119.25102,37.2107],[-119.24958,37.21056],[-119.24903,37.21097],[-119.24854,37.21094],[-119.24817,37.21105],[-119.2476,37.21049],[-119.24768,37.20886],[-119.24725,37.20831],[-119.24675,37.20815],[-119.24633,37.20773],[-119.24548,37.20717],[-119.24611,37.20657],[-119.24608,37.20595],[-119.24619,37.20572],[-119.24696,37.20517],[-119.24706,37.20493],[-119.24684,37.20485],[-119.24592,37.20494],[-119.24535,37.20506],[-119.24444,37.20542],[-119.24339,37.2055],[-119.24236,37.20503],[-119.24169,37.20494],[-119.24128,37.20474],[-119.24097,37.20469],[-119.24051,37.20492],[-119.24029,37.20491],[-119.2399,37.20472],[-119.23882,37.20464],[-119.23708,37.20399],[-119.23652,37.20388],[-119.2363,37.20363],[-119.23639,37.20319],[-119.2369,37.20287],[-119.23862,37.20301],[-119.24104,37.20265],[-119.24159,37.20239],[-119.24176,37.20207],[-119.24169,37.20142],[-119.24203,37.20077],[-119.24169,37.19942],[-119.24174,37.19874],[-119.24186,37.19851],[-119.24256,37.198],[-119.2447,37.19768],[-119.24534,37.19728],[-119.24589,37.19669],[-119.24649,37.1965],[-119.24687,37.1962],[-119.24788,37.19584],[-119.24835,37.19551],[-119.24872,37.19505],[-119.24879,37.19482],[-119.24873,37.19411],[-119.24884,37.19346],[-119.24822,37.1928],[-119.24819,37.19235],[-119.24777,37.1917],[-119.24776,37.19141],[-119.24795,37.19124],[-119.24841,37.19117],[-119.2497,37.1915],[-119.25044,37.19158],[-119.25069,37.19125],[-119.25064,37.19028],[-119.25081,37.18995],[-119.25123,37.18996],[-119.25199,37.19029],[-119.25284,37.19093],[-119.25361,37.19102],[-119.25474,37.19051],[-119.25527,37.19047],[-119.25633,37.19015],[-119.2571,37.19004],[-119.258,37.18932],[-119.25882,37.18888],[-119.25925,37.18831],[-119.25977,37.18817],[-119.26009,37.18824],[-119.26075,37.18873],[-119.26124,37.18964],[-119.26187,37.18991],[-119.26236,37.18995],[-119.26363,37.18973],[-119.26422,37.19003],[-119.26482,37.19018],[-119.26593,37.1902],[-119.26651,37.19062],[-119.26677,37.19069],[-119.26701,37.19061],[-119.26753,37.18991],[-119.26772,37.18984],[-119.26823,37.18994],[-119.26984,37.19058],[-119.27107,37.19046],[-119.27193,37.19059],[-119.27238,37.1904],[-119.27264,37.1904],[-119.27299,37.19053],[-119.2733,37.19095],[-119.27388,37.19114],[-119.27469,37.19076],[-119.27478,37.1906],[-119.2747,37.19006],[-119.2748,37.18962],[-119.2746,37.18913],[-119.27536,37.1888],[-119.2754,37.18859],[-119.27514,37.18782],[-119.27554,37.18739],[-119.27501,37.18665],[-119.27513,37.18601],[-119.27525,37.18579],[-119.27548,37.18564],[-119.27575,37.18559],[-119.27617,37.18564],[-119.27639,37.18553],[-119.27648,37.18532],[-119.27637,37.18487],[-119.27642,37.18447],[-119.27668,37.18392],[-119.27693,37.18366],[-119.27762,37.18328],[-119.27781,37.18349],[-119.27764,37.18419],[-119.2779,37.18448],[-119.27823,37.18453],[-119.27916,37.18427],[-119.27929,37.18418],[-119.27948,37.18361],[-119.2797,37.18331],[-119.2797,37.18251],[-119.27991,37.18221],[-119.28074,37.18223],[-119.28149,37.18203],[-119.28219,37.18141],[-119.28298,37.18127],[-119.2835,37.18099],[-119.28425,37.18021],[-119.28454,37.18016],[-119.28522,37.18029],[-119.2856,37.18016],[-119.28597,37.17987],[-119.28718,37.17841],[-119.28706,37.17787],[-119.2871,37.17743],[-119.28786,37.17617],[-119.28773,37.17584],[-119.28644,37.17395],[-119.28651,37.17287],[-119.28696,37.17205],[-119.2871,37.17124],[-119.28707,37.17078],[-119.28767,37.17036],[-119.28824,37.16975],[-119.28928,37.16919],[-119.28995,37.16795],[-119.29058,37.16727],[-119.29092,37.16625],[-119.29138,37.16542],[-119.29314,37.16096],[-119.29385,37.1597],[-119.29426,37.1582],[-119.29484,37.15775],[-119.29519,37.15729],[-119.29583,37.15671],[-119.29599,37.15606]],[[-119.40968,37.05014],[-119.4094,37.05061],[-119.40886,37.05112],[-119.40828,37.05141],[-119.40754,37.0516],[-119.4047,37.05145],[-119.40047,37.05187],[-119.39848,37.05225],[-119.38893,37.05439],[-119.38747,37.05455],[-119.38492,37.05445],[-119.38375,37.05461],[-119.38279,37.05493],[-119.38037,37.05617],[-119.37966,37.05644],[-119.37782,37.05666],[-119.37396,37.05787],[-119.37148,37.05821],[-119.37066,37.05843],[-119.36966,37.05883],[-119.36693,37.0602],[-119.3638,37.0606],[-119.36259,37.06099],[-119.36132,37.06104],[-119.36107,37.06121],[-119.36073,37.06176],[-119.36006,37.06211],[-119.35966,37.06216],[-119.35919,37.06208],[-119.35761,37.06131],[-119.3571,37.06137],[-119.35686,37.06154],[-119.35675,37.06193],[-119.35801,37.06385],[-119.3581,37.06516],[-119.35771,37.06615],[-119.35723,37.06662],[-119.35695,37.06722],[-119.35684,37.06777],[-119.35634,37.06815],[-119.35623,37.06946],[-119.35591,37.06995],[-119.35551,37.07004],[-119.35495,37.06993],[-119.35378,37.06913],[-119.352,37.06872],[-119.35171,37.06879],[-119.35158,37.06891],[-119.35162,37.06937],[-119.35153,37.06961],[-119.3508,37.07028],[-119.35029,37.07055],[-119.34931,37.07066],[-119.34855,37.0706],[-119.34792,37.07017],[-119.34691,37.06976],[-119.34566,37.06995],[-119.34467,37.06996],[-119.34426,37.07031],[-119.34382,37.07118],[-119.34422,37.07188],[-119.34464,37.07292],[-119.34446,37.07373],[-119.34383,37.0744],[-119.34421,37.07542],[-119.34447,37.07583],[-119.34448,37.07605],[-119.34389,37.07647],[-119.34337,37.0767],[-119.34279,37.07671],[-119.34181,37.07639],[-119.34143,37.07643],[-119.3411,37.07664],[-119.34084,37.0773],[-119.34062,37.07755],[-119.33828,37.07842],[-119.3377,37.0789],[-119.33697,37.07904],[-119.33625,37.07945],[-119.33559,37.08008],[-119.33519,37.08001],[-119.3347,37.07961],[-119.33436,37.07971],[-119.33424,37.0799],[-119.33421,37.08045],[-119.3343,37.08216],[-119.33409,37.08299],[-119.3335,37.08437],[-119.33291,37.08459],[-119.33172,37.08468],[-119.3308,37.08512],[-119.33007,37.0852],[-119.32956,37.08508],[-119.32833,37.08441],[-119.32775,37.08422],[-119.32586,37.08394],[-119.3253,37.08398],[-119.32488,37.08415],[-119.3245,37.08452],[-119.32401,37.08564],[-119.32381,37.08641],[-119.3235,37.08675],[-119.32314,37.08685],[-119.32284,37.0868],[-119.32121,37.08604],[-119.32094,37.08603],[-119.32078,37.08615],[-119.3208,37.08653],[-119.32117,37.08712],[-119.3212,37.08738],[-119.3207,37.08857],[-119.32046,37.08885],[-119.31994,37.08896],[-119.31883,37.08886],[-119.31803,37.08868],[-119.31758,37.08882],[-119.31732,37.08901],[-119.31718,37.08924],[-119.31717,37.08958],[-119.31757,37.09062],[-119.31773,37.09172],[-119.31803,37.0924],[-119.31788,37.09301],[-119.31819,37.0945],[-119.3186,37.09535],[-119.3187,37.09636],[-119.31929,37.097],[-119.31941,37.09743],[-119.31921,37.09809],[-119.31851,37.09871],[-119.31857,37.09895],[-119.31898,37.09955],[-119.31899,37.09981],[-119.31881,37.10005],[-119.31821,37.10032],[-119.31806,37.10062],[-119.31859,37.10203],[-119.31973,37.10361],[-119.3197,37.10388],[-119.3192,37.10452],[-119.31956,37.10576],[-119.31905,37.10729],[-119.31904,37.10826],[-119.31975,37.11041],[-119.32083,37.11195],[-119.32076,37.113],[-119.32088,37.11392],[-119.3198,37.11546],[-119.31849,37.11788],[-119.317,37.11886],[-119.31672,37.11915],[-119.31642,37.12008],[-119.31482,37.12246],[-119.31437,37.1238],[-119.31422,37.12472],[-119.31365,37.12599],[-119.31331,37.12716],[-119.31299,37.12766],[-119.31233,37.12837],[-119.31168,37.12988],[-119.311,37.13041],[-119.31031,37.13183],[-119.31019,37.13241],[-119.31017,37.13447],[-119.31004,37.13559],[-119.30927,37.13783],[-119.30882,37.13859],[-119.30851,37.14015],[-119.30796,37.14144],[-119.30796,37.14185],[-119.30829,37.1426],[-119.30781,37.14351],[-119.30774,37.14455],[-119.3075,37.14487],[-119.30718,37.14497],[-119.30589,37.14439],[-119.3057,37.14439],[-119.30558,37.14451],[-119.30566,37.14467],[-119.30642,37.145],[-119.30724,37.14559],[-119.30776,37.1463],[-119.3078,37.14651],[-119.30768,37.14661],[-119.30752,37.1466],[-119.30731,37.14621],[-119.30712,37.1461],[-119.3065,37.14612],[-119.30579,37.14594],[-119.30551,37.14595],[-119.30468,37.14617],[-119.30412,37.14652],[-119.30272,37.14699],[-119.30179,37.14752],[-119.30157,37.14782],[-119.30136,37.14968],[-119.30115,37.15009],[-119.29982,37.15142],[-119.29876,37.15333],[-119.29599,37.15606],[-119.29542,37.15624],[-119.29459,37.15626],[-119.294,37.15604],[-119.29352,37.15564],[-119.29326,37.15487],[-119.29385,37.15322],[-119.29391,37.15257],[-119.29377,37.15184],[-119.29333,37.1511],[-119.29067,37.14801],[-119.29024,37.14766],[-119.28964,37.1474],[-119.28872,37.14734],[-119.28494,37.14802],[-119.2785,37.15108],[-119.27765,37.1513],[-119.27101,37.15032],[-119.26902,37.1495],[-119.26774,37.14862],[-119.26683,37.14843],[-119.26602,37.14859],[-119.26558,37.14887],[-119.26532,37.14916],[-119.26457,37.15052],[-119.26438,37.15105],[-119.26435,37.15152],[-119.26484,37.15329],[-119.26483,37.15365],[-119.26463,37.15409],[-119.26404,37.15453],[-119.26324,37.15467],[-119.26249,37.15449],[-119.26205,37.15416],[-119.26107,37.15297],[-119.26044,37.15253],[-119.25728,37.15136],[-119.25521,37.14987],[-119.25463,37.14969],[-119.25385,37.14972],[-119.25318,37.15002],[-119.24991,37.15276],[-119.24763,37.15394],[-119.24715,37.15427],[-119.24663,37.15484],[-119.24381,37.15861],[-119.24325,37.15906],[-119.24267,37.15924],[-119.24204,37.15924],[-119.24141,37.15904],[-119.23983,37.15768],[-119.23942,37.15741],[-119.23903,37.15729],[-119.23813,37.15727],[-119.23677,37.15783],[-119.23587,37.15794],[-119.2325,37.15746],[-119.22984,37.15661],[-119.2286,37.15649],[-119.22761,37.15669],[-119.22534,37.15779],[-119.22451,37.15801],[-119.22363,37.15796],[-119.22204,37.15751],[-119.22091,37.15738],[-119.21621,37.1577],[-119.21452,37.15747],[-119.21354,37.15754],[-119.21272,37.15782],[-119.20324,37.16187],[-119.20288,37.16218],[-119.20261,37.16258],[-119.20263,37.16335],[-119.20301,37.16388],[-119.20367,37.16446],[-119.20426,37.16515],[-119.20486,37.16662],[-119.20524,37.16712],[-119.20569,37.16749],[-119.20711,37.1683],[-119.20762,37.16879],[-119.20784,37.16913],[-119.208,37.16989],[-119.20787,37.17061],[-119.2077,37.17096],[-119.20627,37.17225],[-119.20585,37.17304],[-119.20575,37.17441],[-119.20544,37.17537],[-119.20415,37.17674],[-119.20363,37.17754],[-119.2033,37.17853],[-119.20329,37.17921],[-119.20379,37.18186],[-119.20374,37.18268],[-119.20308,37.1853],[-119.20305,37.18603],[-119.20333,37.18805],[-119.20325,37.18892],[-119.20315,37.18946],[-119.20248,37.1911],[-119.20239,37.19212],[-119.20272,37.19297],[-119.20388,37.19465],[-119.20478,37.19572],[-119.20547,37.19619],[-119.20613,37.19645],[-119.20845,37.19679],[-119.20918,37.19708],[-119.20957,37.19734],[-119.21021,37.19798],[-119.21064,37.19919],[-119.21104,37.19981],[-119.21392,37.20193],[-119.21419,37.20236],[-119.21422,37.20303],[-119.21366,37.20424],[-119.21336,37.20552],[-119.21272,37.20631],[-119.21083,37.20755],[-119.20914,37.20897],[-119.20364,37.21317],[-119.2014,37.21467],[-119.19993,37.21535],[-119.19824,37.21581],[-119.19683,37.21645],[-119.19557,37.21672],[-119.19358,37.2168],[-119.19264,37.21707],[-119.19203,37.2175],[-119.19165,37.21799],[-119.19152,37.21839],[-119.19149,37.21896],[-119.19171,37.22022],[-119.19163,37.22055],[-119.19134,37.22099],[-119.18956,37.22279],[-119.18913,37.2231],[-119.18849,37.22333],[-119.18693,37.22346],[-119.18616,37.22383],[-119.18576,37.22427],[-119.18519,37.22524],[-119.18506,37.22605],[-119.18559,37.22774],[-119.18654,37.2289],[-119.1867,37.22928],[-119.18651,37.23],[-119.18603,37.23042],[-119.18532,37.23057],[-119.18293,37.2306],[-119.17971,37.23085],[-119.17857,37.23079],[-119.1765,37.23046],[-119.1752,37.23058],[-119.17385,37.23105],[-119.17243,37.23129],[-119.17176,37.23154],[-119.1715,37.23173],[-119.17025,37.23352],[-119.16917,37.23414],[-119.16844,37.23431],[-119.16743,37.23427],[-119.1635,37.23346],[-119.16294,37.23343],[-119.16044,37.2338],[-119.15967,37.23416],[-119.15932,37.23475],[-119.15939,37.23524],[-119.15976,37.23568],[-119.16073,37.23644],[-119.16098,37.23697],[-119.16087,37.23758],[-119.16019,37.23855],[-119.16006,37.23895],[-119.16004,37.23932],[-119.16021,37.23983],[-119.16047,37.24019],[-119.16171,37.2412],[-119.16354,37.24197],[-119.16392,37.24238],[-119.16403,37.24281],[-119.16388,37.24332],[-119.16356,37.24366],[-119.16213,37.24428],[-119.16164,37.24475],[-119.16129,37.24615],[-119.16102,37.24672],[-119.15954,37.24857],[-119.15893,37.25076],[-119.15893,37.25152],[-119.15913,37.25209],[-119.16062,37.25473],[-119.16091,37.25511],[-119.16144,37.25539]],[[-119.37571,37.05],[-119.37392,37.05097],[-119.37254,37.05233],[-119.37221,37.0532],[-119.37247,37.05415],[-119.37242,37.05438],[-119.37205,37.05468],[-119.37074,37.05529],[-119.37044,37.05564],[-119.37048,37.05612],[-119.3709,37.05689],[-119.37078,37.0573],[-119.36978,37.05804],[-119.36865,37.0581],[-119.36767,37.05881],[-119.36725,37.05926],[-119.36646,37.0593],[-119.36623,37.05964],[-119.36646,37.06031]],[[-119.15059,37.26265],[-119.15164,37.26286],[-119.15206,37.26305],[-119.15275,37.26352],[-119.15323,37.2641],[-119.15382,37.26439],[-119.15534,37.2644],[-119.15591,37.26454],[-119.15676,37.26522],[-119.15685,37.26551],[-119.1568,37.26594],[-119.15655,37.26621],[-119.15617,37.26639],[-119.15582,37.26644],[-119.1548,37.26631],[-119.15445,37.26634],[-119.154,37.26652],[-119.15318,37.26707],[-119.15246,37.2671],[-119.15133,37.2666],[-119.15102,37.26626],[-119.15054,37.26548],[-119.15067,37.26428],[-119.15032,37.2639]]]}},{"type":"Feature","properties":{"id":"nine-mile-canyon-road","name":"Nine Mile Canyon Road","difficulty":3,"character":"High speed"},"geometry":{"type":"MultiLineString","coordinates":[[[-118.00847,35.86136],[-118.00748,35.86104],[-118.00627,35.85999],[-118.00523,35.85959],[-118.00479,35.85873],[-118.00406,35.85817],[-118.00363,35.85759],[-118.00333,35.85748],[-118.00257,35.85744],[-118.00185,35.85691],[-118.00094,35.85671],[-117.99991,35.85493],[-117.99959,35.8547],[-117.99838,35.85465],[-117.9971,35.85429],[-117.99633,35.85427],[-117.9954,35.85463],[-117.99394,35.85556],[-117.9934,35.85565],[-117.99252,35.8552],[-117.99176,35.85446],[-117.99053,35.85357],[-117.99001,35.85334],[-117.98944,35.85323],[-117.98892,35.85323],[-117.98779,35.85344],[-117.98733,35.85358],[-117.98683,35.85389],[-117.98644,35.85442],[-117.98629,35.85498],[-117.98632,35.85614],[-117.98655,35.85705],[-117.9865,35.85733],[-117.98624,35.85756],[-117.98545,35.85766],[-117.98483,35.85817],[-117.98434,35.85813],[-117.98411,35.85794],[-117.9839,35.8573],[-117.98298,35.85586],[-117.98131,35.85432],[-117.98093,35.8542],[-117.9804,35.8542],[-117.97856,35.85479],[-117.97808,35.85472],[-117.97775,35.85447],[-117.97764,35.8542],[-117.97767,35.85339],[-117.97751,35.85254],[-117.97649,35.85088],[-117.97644,35.8504],[-117.97609,35.8497],[-117.97543,35.84893],[-117.97529,35.84829],[-117.97492,35.8475],[-117.97416,35.84671],[-117.97152,35.84521],[-117.96949,35.8451],[-117.96932,35.84517],[-117.96926,35.84633],[-117.969,35.84695],[-117.96849,35.84743],[-117.96704,35.84821],[-117.96669,35.84852],[-117.96648,35.84886],[-117.96643,35.84928],[-117.96697,35.85095],[-117.96675,35.85133],[-117.96598,35.85182],[-117.96578,35.85208],[-117.96575,35.85279],[-117.96589,35.85332],[-117.96571,35.85359],[-117.96527,35.8537],[-117.96447,35.8537],[-117.96152,35.85328],[-117.96112,35.85331],[-117.9604,35.85354],[-117.96013,35.85343],[-117.95904,35.85218],[-117.95665,35.84975],[-117.95572,35.8487],[-117.95535,35.84802],[-117.95489,35.84761],[-117.95127,35.84601],[-117.95034,35.84545],[-117.94966,35.84529],[-117.94899,35.84526],[-117.94823,35.84541],[-117.94682,35.84587],[-117.94558,35.84555],[-117.94516,35.84555],[-117.94485,35.84564],[-117.94424,35.84624],[-117.94239,35.84677],[-117.94182,35.84723],[-117.94095,35.84821],[-117.94047,35.84894],[-117.93982,35.85047],[-117.93953,35.85062],[-117.93934,35.8505],[-117.93838,35.84903],[-117.93793,35.84872],[-117.93709,35.84834],[-117.93659,35.8482],[-117.93583,35.84828],[-117.93558,35.84839],[-117.93512,35.84888],[-117.93482,35.84892],[-117.93368,35.84831],[-117.93285,35.84767],[-117.93241,35.84748],[-117.93058,35.84742],[-117.92839,35.84693],[-117.92677,35.84687],[-117.92596,35.84672],[-117.92464,35.846],[-117.92285,35.84544],[-117.9221,35.84489],[-117.92128,35.84413],[-117.92076,35.84386],[-117.91728,35.84251],[-117.90986,35.83995],[-117.90526,35.83708],[-117.90484,35.83697],[-117.90188,35.83675],[-117.90091,35.83675],[-117.89942,35.83707],[-117.88317,35.84206],[-117.87483,35.84215],[-117.87317,35.84209],[-117.87186,35.84212],[-117.87157,35.8422],[-117.87141,35.84237],[-117.87138,35.84258],[-117.87191,35.84531],[-117.87264,35.84805],[-117.8735,35.85032],[-117.87373,35.85118],[-117.87361,35.85128],[-117.87273,35.85142]]]}}]}
