{"type":"FeatureCollection","features":[{"type":"Feature","properties":{"id":"page-mill","name":"Page Mill Road","difficulty":3,"character":"Technical"},"geometry":{"type":"Point","coordinates":[-122.174416,37.351894]}},{"type":"Feature","properties":{"id":"west-alpine","name":"West Alpine Road","difficulty":3,"character":"Technical"},"geometry":{"type":"Point","coordinates":[-122.218574,37.288167]}},{"type":"Feature","properties":{"id":"pescadero","name":"Pescadero Creek Road","difficulty":2,"character":"Medium speed"},"geometry":{"type":"Point","coordinates":[-122.320063,37.268127]}},{"type":"Feature","properties":{"id":"skyline","name":"Skyline Boulevard \u00b7 Hwy 35","difficulty":2,"character":"High speed"},"geometry":{"type":"Point","coordinates":[-122.276577,37.388827]}},{"type":"Feature","properties":{"id":"la-honda","name":"La Honda Road \u00b7 Hwy 84","difficulty":2,"character":"Medium speed"},"geometry":{"type":"Point","coordinates":[-122.271262,37.333143]}},{"type":"Feature","properties":{"id":"kings","name":"Kings Mountain Road","difficulty":3,"character":"Technical"},"geometry":{"type":"Point","coordinates":[-122.293911,37.430684]}},{"type":"Feature","properties":{"id":"tunitas","name":"Tunitas Creek Road","difficulty":3,"character":"Technical"},"geometry":{"type":"Point","coordinates":[-122.352821,37.416749]}},{"type":"Feature","properties":{"id":"old-la-honda","name":"Old La Honda Road","difficulty":3,"character":"Technical"},"geometry":{"type":"Point","coordinates":[-122.25735,37.36713]}},{"type":"Feature","properties":{"id":"stage","name":"Stage Road","difficulty":2,"character":"Low speed"},"geometry":{"type":"Point","coordinates":[-122.38495,37.306225]}},{"type":"Feature","properties":{"id":"highway-1-coast","name":"Highway 1 \u00b7 Coastside","difficulty":1,"character":"High speed"},"geometry":{"type":"Point","coordinates":[-122.293569,37.108376]}},{"type":"Feature","properties":{"id":"bear-creek","name":"Bear Creek Road","difficulty":3,"character":"Technical"},"geometry":{"type":"Point","coordinates":[-122.029104,37.166343]}},{"type":"Feature","properties":{"id":"empire","name":"Empire Grade","difficulty":2,"character":"Medium speed"},"geometry":{"type":"Point","coordinates":[-122.124462,37.059354]}},{"type":"Feature","properties":{"id":"bonny-doon","name":"Bonny Doon Road","difficulty":2,"character":"Medium speed"},"geometry":{"type":"Point","coordinates":[-122.152566,37.034935]}},{"type":"Feature","properties":{"id":"jamison","name":"Jamison Creek Road","difficulty":3,"character":"Technical"},"geometry":{"type":"Point","coordinates":[-122.176184,37.14797]}},{"type":"Feature","properties":{"id":"big-basin","name":"Big Basin Highway \u00b7 Hwy 236","difficulty":3,"character":"Technical"},"geometry":{"type":"Point","coordinates":[-122.194752,37.197149]}},{"type":"Feature","properties":{"id":"old-santa-cruz","name":"Old Santa Cruz Highway","difficulty":2,"character":"Low speed"},"geometry":{"type":"Point","coordinates":[-121.981176,37.151463]}},{"type":"Feature","properties":{"id":"soquel","name":"Soquel\u2013San Jose Road","difficulty":2,"character":"Medium speed"},"geometry":{"type":"Point","coordinates":[-121.940833,37.063262]}},{"type":"Feature","properties":{"id":"calaveras","name":"Calaveras Road","difficulty":3,"character":"Technical"},"geometry":{"type":"Point","coordinates":[-121.830946,37.478974]}},{"type":"Feature","properties":{"id":"palomares","name":"Palomares Road","difficulty":3,"character":"Technical"},"geometry":{"type":"Point","coordinates":[-121.968807,37.643119]}},{"type":"Feature","properties":{"id":"mines","name":"Mines Road","difficulty":3,"character":"Technical"},"geometry":{"type":"Point","coordinates":[-121.567745,37.544606]}},{"type":"Feature","properties":{"id":"san-antonio","name":"San Antonio Valley Road","difficulty":3,"character":"Technical"},"geometry":{"type":"Point","coordinates":[-121.558368,37.354345]}},{"type":"Feature","properties":{"id":"hamilton","name":"Mount Hamilton Road","difficulty":3,"character":"Technical"},"geometry":{"type":"Point","coordinates":[-121.691539,37.328917]}},{"type":"Feature","properties":{"id":"patterson","name":"Patterson Pass Road","difficulty":3,"character":"Technical"},"geometry":{"type":"Point","coordinates":[-121.654246,37.686211]}},{"type":"Feature","properties":{"id":"redwood","name":"Redwood Road","difficulty":2,"character":"Medium speed"},"geometry":{"type":"Point","coordinates":[-122.119289,37.771551]}},{"type":"Feature","properties":{"id":"grizzly","name":"Grizzly Peak Boulevard","difficulty":2,"character":"Low speed"},"geometry":{"type":"Point","coordinates":[-122.23599,37.882127]}},{"type":"Feature","properties":{"id":"diablo","name":"Mount Diablo roads","difficulty":3,"character":"Technical"},"geometry":{"type":"Point","coordinates":[-121.939943,37.871379]}},{"type":"Feature","properties":{"id":"hicks","name":"Hicks Road","difficulty":3,"character":"Technical"},"geometry":{"type":"Point","coordinates":[-121.875624,37.195238]}},{"type":"Feature","properties":{"id":"umunhum","name":"Mount Umunhum Road","difficulty":3,"character":"Low speed"},"geometry":{"type":"Point","coordinates":[-121.888694,37.155597]}},{"type":"Feature","properties":{"id":"uvas","name":"Uvas Road","difficulty":2,"character":"Medium speed"},"geometry":{"type":"Point","coordinates":[-121.723094,37.101086]}},{"type":"Feature","properties":{"id":"mckean","name":"McKean Road","difficulty":1,"character":"Medium speed"},"geometry":{"type":"Point","coordinates":[-121.80419,37.193407]}},{"type":"Feature","properties":{"id":"panoramic","name":"Panoramic Highway","difficulty":3,"character":"Technical"},"geometry":{"type":"Point","coordinates":[-122.59731,37.910841]}},{"type":"Feature","properties":{"id":"ridgecrest","name":"Pantoll & East Ridgecrest","difficulty":2,"character":"Low speed"},"geometry":{"type":"Point","coordinates":[-122.60689,37.918305]}},{"type":"Feature","properties":{"id":"lucas","name":"Lucas Valley Road","difficulty":2,"character":"Medium speed"},"geometry":{"type":"Point","coordinates":[-122.620708,38.045518]}},{"type":"Feature","properties":{"id":"marshall","name":"Marshall\u2013Petaluma Road","difficulty":2,"character":"Medium speed"},"geometry":{"type":"Point","coordinates":[-122.809477,38.16567]}},{"type":"Feature","properties":{"id":"highway-1-marin","name":"Highway 1 \u00b7 Marin coast","difficulty":2,"character":"Medium speed"},"geometry":{"type":"Point","coordinates":[-122.876067,38.142465]}},{"type":"Feature","properties":{"id":"highway-128","name":"Highway 128 \u00b7 Lake Berryessa","difficulty":2,"character":"Medium speed"},"geometry":{"type":"Point","coordinates":[-122.222671,38.463152]}},{"type":"Feature","properties":{"id":"highway-29","name":"Highway 29 \u00b7 Mount St. Helena","difficulty":3,"character":"Technical"},"geometry":{"type":"Point","coordinates":[-122.592062,38.649256]}},{"type":"Feature","properties":{"id":"17-mile","name":"17-Mile Drive","difficulty":1,"character":"Low speed"},"geometry":{"type":"Point","coordinates":[-121.953622,36.562014]}},{"type":"Feature","properties":{"id":"carmel-valley","name":"Carmel Valley Road","difficulty":2,"character":"Medium speed"},"geometry":{"type":"Point","coordinates":[-121.856259,36.534443]}},{"type":"Feature","properties":{"id":"highway-9-front","name":"Highway 9 \u00b7 Front Side","difficulty":3,"character":"Technical"},"geometry":{"type":"Point","coordinates":[-122.07983,37.249173]}},{"type":"Feature","properties":{"id":"highway-9-back","name":"Highway 9 \u00b7 Back Side","difficulty":2,"character":"Medium speed"},"geometry":{"type":"Point","coordinates":[-122.15424,37.24211]}},{"type":"Feature","properties":{"id":"nicasio-valley","name":"Nicasio Valley Road","difficulty":2,"character":"Medium speed"},"geometry":{"type":"Point","coordinates":[-122.6933616,38.0547189]}},{"type":"Feature","properties":{"id":"point-reyes-petaluma","name":"Point Reyes\u2013Petaluma Road","difficulty":2,"character":"Medium speed"},"geometry":{"type":"Point","coordinates":[-122.7466773,38.0923946]}},{"type":"Feature","properties":{"id":"chileno-valley","name":"Chileno Valley Road","difficulty":2,"character":"Medium speed"},"geometry":{"type":"Point","coordinates":[-122.7412314,38.203651]}},{"type":"Feature","properties":{"id":"skaggs-springs","name":"Skaggs Springs Road","difficulty":3,"character":"Technical"},"geometry":{"type":"Point","coordinates":[-123.1799921,38.6723556]}},{"type":"Feature","properties":{"id":"sir-francis-drake","name":"Sir Francis Drake Boulevard","difficulty":2,"character":"Medium speed"},"geometry":{"type":"Point","coordinates":[-122.9235249,38.0915117]}},{"type":"Feature","properties":{"id":"limantour","name":"Limantour Road","difficulty":2,"character":"Low speed"},"geometry":{"type":"Point","coordinates":[-122.8465822,38.0600347]}},{"type":"Feature","properties":{"id":"suisun-valley","name":"Suisun Valley Road","difficulty":2,"character":"Medium speed"},"geometry":{"type":"Point","coordinates":[-122.1118866,38.2714791]}},{"type":"Feature","properties":{"id":"niles-canyon","name":"Niles Canyon Road","difficulty":2,"character":"Medium speed"},"geometry":{"type":"Point","coordinates":[-121.9346327,37.5910437]}},{"type":"Feature","properties":{"id":"pinehurst","name":"Pinehurst Road","difficulty":3,"character":"Low speed"},"geometry":{"type":"Point","coordinates":[-122.151406,37.820482]}},{"type":"Feature","properties":{"id":"bear-creek-orinda","name":"Bear Creek Road \u00b7 Orinda","difficulty":2,"character":"Medium speed"},"geometry":{"type":"Point","coordinates":[-122.1896971,37.9204267]}},{"type":"Feature","properties":{"id":"san-pablo-dam","name":"San Pablo Dam Road","difficulty":1,"character":"Medium speed"},"geometry":{"type":"Point","coordinates":[-122.2572739,37.9326062]}},{"type":"Feature","properties":{"id":"alhambra-valley","name":"Alhambra Valley Road","difficulty":2,"character":"Low speed"},"geometry":{"type":"Point","coordinates":[-122.182878,37.962339]}},{"type":"Feature","properties":{"id":"altamont-pass","name":"Altamont Pass Road","difficulty":2,"character":"Medium speed"},"geometry":{"type":"Point","coordinates":[-121.656918,37.7466631]}},{"type":"Feature","properties":{"id":"tesla-corral-hollow","name":"Tesla Road & Corral Hollow Road","difficulty":2,"character":"Medium speed"},"geometry":{"type":"Point","coordinates":[-121.6301954,37.6449506]}},{"type":"Feature","properties":{"id":"marsh-creek","name":"Marsh Creek Road","difficulty":2,"character":"Medium speed"},"geometry":{"type":"Point","coordinates":[-121.7846911,37.8865574]}},{"type":"Feature","properties":{"id":"skyline-oakland","name":"Skyline Boulevard \u00b7 Oakland","difficulty":2,"character":"Low speed"},"geometry":{"type":"Point","coordinates":[-122.1748899,37.8094741]}},{"type":"Feature","properties":{"id":"del-puerto-canyon","name":"Del Puerto Canyon Road","difficulty":3,"character":"Technical"},"geometry":{"type":"Point","coordinates":[-121.3291255,37.4368934]}},{"type":"Feature","properties":{"id":"metcalf-san-felipe","name":"Metcalf Road & San Felipe Road","difficulty":3,"character":"Technical"},"geometry":{"type":"Point","coordinates":[-121.6974696,37.2572825]}},{"type":"Feature","properties":{"id":"almaden-alamitos","name":"Almaden Road & Alamitos Road","difficulty":2,"character":"Low speed"},"geometry":{"type":"Point","coordinates":[-121.8209369,37.1902353]}},{"type":"Feature","properties":{"id":"watsonville-road","name":"Watsonville Road","difficulty":2,"character":"Medium speed"},"geometry":{"type":"Point","coordinates":[-121.662862,37.0603375]}},{"type":"Feature","properties":{"id":"hecker-pass","name":"Hecker Pass Highway \u00b7 Hwy 152","difficulty":2,"character":"Medium speed"},"geometry":{"type":"Point","coordinates":[-121.6679464,37.0065362]}},{"type":"Feature","properties":{"id":"bailey-avenue","name":"Bailey Avenue","difficulty":1,"character":"Medium speed"},"geometry":{"type":"Point","coordinates":[-121.7469121,37.1939223]}},{"type":"Feature","properties":{"id":"felton-empire","name":"Felton Empire Road","difficulty":3,"character":"Technical"},"geometry":{"type":"Point","coordinates":[-122.0971289,37.0553668]}},{"type":"Feature","properties":{"id":"lobitos-creek","name":"Lobitos Creek Road","difficulty":3,"character":"Technical"},"geometry":{"type":"Point","coordinates":[-122.3842114,37.3912643]}},{"type":"Feature","properties":{"id":"star-hill","name":"Star Hill Road & Swett Road","difficulty":3,"character":"Technical"},"geometry":{"type":"Point","coordinates":[-122.3362973,37.4018685]}},{"type":"Feature","properties":{"id":"canada-road","name":"Ca\u00f1ada Road","difficulty":1,"character":"Medium speed"},"geometry":{"type":"Point","coordinates":[-122.301003,37.4672151]}},{"type":"Feature","properties":{"id":"cloverdale-road","name":"Cloverdale Road","difficulty":2,"character":"Medium speed"},"geometry":{"type":"Point","coordinates":[-122.3534908,37.2202109]}}]}
