{"type":"FeatureCollection","features":[{"type":"Feature","properties":{"id":"mckenzie-pass","name":"McKenzie Pass \u00b7 OR 242","difficulty":2,"character":"Technical"},"geometry":{"type":"Point","coordinates":[-121.861053,44.239867]}},{"type":"Feature","properties":{"id":"historic-columbia-river-highway","name":"Historic Columbia River Highway \u00b7 US 30 Historic","difficulty":2,"character":"Medium speed"},"geometry":{"type":"Point","coordinates":[-122.2405345,45.5380238]}},{"type":"Feature","properties":{"id":"larch-mountain-road","name":"Larch Mountain Road","difficulty":2,"character":"Technical"},"geometry":{"type":"Point","coordinates":[-122.1450177,45.5206973]}},{"type":"Feature","properties":{"id":"aufderheide-drive","name":"Aufderheide Drive \u00b7 FR 19","difficulty":1,"character":"Medium speed"},"geometry":{"type":"Point","coordinates":[-122.0853124,43.8879682]}},{"type":"Feature","properties":{"id":"santiam-pass","name":"Santiam Pass \u00b7 US 20","difficulty":2,"character":"Medium speed"},"geometry":{"type":"Point","coordinates":[-122.151213,44.3943438]}},{"type":"Feature","properties":{"id":"dead-indian-memorial-road","name":"Dead Indian Memorial Road \u00b7 CR 722","difficulty":2,"character":"Medium speed"},"geometry":{"type":"Point","coordinates":[-122.429088,42.27344]}},{"type":"Feature","properties":{"id":"highway-66-green-springs","name":"Highway 66 \u00b7 Green Springs Highway","difficulty":3,"character":"Technical"},"geometry":{"type":"Point","coordinates":[-122.2667104,42.1251444]}},{"type":"Feature","properties":{"id":"hyatt-prairie-road","name":"Hyatt Prairie Road","difficulty":2,"character":"Technical"},"geometry":{"type":"Point","coordinates":[-122.416802,42.216012]}}]}
