{"type":"FeatureCollection","features":[{"type":"Feature","properties":{"id":"mckenzie-pass","name":"McKenzie Pass \u00b7 OR 242","difficulty":2,"character":"Technical"},"geometry":{"type":"MultiLineString","coordinates":[[[-122.07284,44.18445],[-122.07349,44.18413],[-122.07356,44.18373],[-122.07316,44.18319],[-122.07286,44.18298],[-122.07251,44.18287],[-122.06999,44.18307],[-122.0661,44.18251],[-122.06476,44.18285],[-122.06331,44.18307],[-122.06279,44.18306],[-122.06248,44.18296],[-122.06226,44.18277],[-122.06168,44.18181],[-122.06099,44.18118],[-122.06039,44.17925],[-122.05809,44.17586],[-122.05753,44.17553],[-122.05563,44.17502],[-122.05504,44.17473],[-122.0546,44.17434],[-122.0531,44.17248],[-122.05262,44.17213],[-122.04825,44.17029],[-122.04776,44.1703],[-122.04683,44.17071],[-122.04638,44.17077],[-122.04268,44.17045],[-122.04232,44.17034],[-122.03723,44.16787],[-122.0296,44.16253],[-122.02273,44.15939],[-122.02148,44.15912],[-122.01974,44.15896],[-122.01855,44.15914],[-122.01778,44.1595],[-122.01599,44.16082],[-122.01348,44.16141],[-122.0127,44.1614],[-122.00979,44.16102],[-122.00926,44.16118],[-122.0084,44.16195],[-122.00798,44.16211],[-122.00623,44.16207],[-122.00481,44.16248],[-122.0044,44.16253],[-122.00162,44.16221],[-122.00072,44.16227],[-121.99628,44.1634],[-121.9895,44.16537],[-121.9871,44.16581],[-121.98351,44.16585],[-121.98213,44.16648],[-121.97996,44.16684],[-121.97827,44.16684],[-121.97601,44.16737],[-121.97334,44.16838],[-121.97282,44.16838],[-121.97094,44.16766],[-121.97002,44.1675],[-121.96596,44.16785],[-121.96344,44.16823],[-121.96132,44.16893],[-121.95978,44.16965],[-121.95697,44.16958],[-121.95411,44.17031],[-121.9536,44.17029],[-121.95211,44.16998],[-121.94884,44.1699],[-121.94754,44.16949],[-121.94541,44.16923],[-121.94516,44.16907],[-121.94477,44.1685],[-121.94353,44.1683],[-121.94247,44.16786],[-121.94211,44.16782],[-121.94139,44.168],[-121.94097,44.16798],[-121.93989,44.16756],[-121.93957,44.16708],[-121.9386,44.16652],[-121.93845,44.16595],[-121.93818,44.16578],[-121.93775,44.16591],[-121.93717,44.16749],[-121.93725,44.1678],[-121.93776,44.16831],[-121.93763,44.16858],[-121.93731,44.16877],[-121.93702,44.16871],[-121.93656,44.16817],[-121.93446,44.16694],[-121.93337,44.1668],[-121.93245,44.16687],[-121.93155,44.16709],[-121.93057,44.16752],[-121.92827,44.16805],[-121.92666,44.16785],[-121.92623,44.16771],[-121.92566,44.16725],[-121.92528,44.16657],[-121.92484,44.16647],[-121.92462,44.16657],[-121.92459,44.16669],[-121.92482,44.16737],[-121.92484,44.1682],[-121.92619,44.16934],[-121.92622,44.16957],[-121.92609,44.16982],[-121.92587,44.16996],[-121.92469,44.17029],[-121.92429,44.17104],[-121.92297,44.17179],[-121.9212,44.17186],[-121.92078,44.17177],[-121.92024,44.17146],[-121.91968,44.17156],[-121.91943,44.17182],[-121.91938,44.17206],[-121.91992,44.17387],[-121.9199,44.17408],[-121.91967,44.17427],[-121.91934,44.17429],[-121.91842,44.17411],[-121.91712,44.17431],[-121.91647,44.17402],[-121.9159,44.17359],[-121.91567,44.17354],[-121.91544,44.17361],[-121.91536,44.17394],[-121.91592,44.17435],[-121.91603,44.17459],[-121.91569,44.17499],[-121.91568,44.17521],[-121.91627,44.17558],[-121.9164,44.17579],[-121.91628,44.17613],[-121.91567,44.17645],[-121.91474,44.17655],[-121.91389,44.17694],[-121.91289,44.1768],[-121.9123,44.17656],[-121.91125,44.1768],[-121.91087,44.17679],[-121.90999,44.17634],[-121.90938,44.17616],[-121.90876,44.17573],[-121.90792,44.17545],[-121.90649,44.17524],[-121.90557,44.17493],[-121.9053,44.17499],[-121.90523,44.17513],[-121.90532,44.17524],[-121.90633,44.17547],[-121.90671,44.17565],[-121.90744,44.17654],[-121.90793,44.17681],[-121.90807,44.17784],[-121.90876,44.17833],[-121.90874,44.17888],[-121.90946,44.17954],[-121.90952,44.17978],[-121.9092,44.17984],[-121.90865,44.17952],[-121.90763,44.17928],[-121.9075,44.17941],[-121.90749,44.17978],[-121.90713,44.18022],[-121.90633,44.18063],[-121.90602,44.18111],[-121.90605,44.18133],[-121.9063,44.18136],[-121.90674,44.18104],[-121.90699,44.18102],[-121.90734,44.18132],[-121.9075,44.18169],[-121.90714,44.18271],[-121.90647,44.18348],[-121.90618,44.18363],[-121.90474,44.18391],[-121.90197,44.18413],[-121.90152,44.18398],[-121.90123,44.18347],[-121.90063,44.18315],[-121.89998,44.1831],[-121.8994,44.1834],[-121.89906,44.18392],[-121.89909,44.1841],[-121.89934,44.18413],[-121.89983,44.1839],[-121.89998,44.18394],[-121.9,44.18406],[-121.8989,44.1855],[-121.89897,44.18614],[-121.89815,44.18838],[-121.89741,44.18897],[-121.89537,44.1897],[-121.89488,44.18969],[-121.8938,44.18893],[-121.8933,44.18835],[-121.89256,44.18779],[-121.89222,44.18777],[-121.89214,44.18799],[-121.89286,44.18831],[-121.89355,44.18933],[-121.89361,44.19045],[-121.89341,44.19063],[-121.89325,44.19051],[-121.89315,44.18941],[-121.89261,44.18891],[-121.89234,44.18881],[-121.89157,44.18891],[-121.89068,44.18928],[-121.8897,44.18921],[-121.88896,44.18941],[-121.88822,44.18917],[-121.88734,44.18924],[-121.88705,44.18889],[-121.8861,44.18848],[-121.88573,44.18796],[-121.88549,44.18785],[-121.88433,44.18796],[-121.88332,44.18794],[-121.88293,44.18807],[-121.88249,44.18839],[-121.88238,44.18881],[-121.88299,44.1891],[-121.8832,44.18947],[-121.88407,44.18945],[-121.88435,44.18954],[-121.88455,44.18975],[-121.8845,44.18988],[-121.88395,44.19027],[-121.88379,44.19063],[-121.88446,44.19278],[-121.88444,44.19333],[-121.88425,44.19365],[-121.88392,44.19391],[-121.87767,44.19775],[-121.87762,44.19813],[-121.87803,44.1987],[-121.87805,44.19907],[-121.8773,44.20103],[-121.87529,44.20477],[-121.87496,44.20612],[-121.87511,44.2078],[-121.87676,44.21242],[-121.878,44.21841],[-121.87836,44.22042],[-121.87831,44.2207],[-121.87814,44.22094],[-121.87779,44.22114],[-121.87474,44.22188],[-121.87323,44.22238],[-121.87285,44.22262],[-121.8723,44.22331],[-121.87086,44.22601],[-121.86723,44.22916],[-121.86696,44.22963],[-121.86698,44.23023],[-121.86729,44.23074],[-121.86798,44.23141],[-121.86803,44.23175],[-121.86787,44.23195],[-121.86755,44.23211],[-121.86595,44.23215],[-121.86545,44.23241],[-121.86536,44.2327],[-121.86546,44.23364],[-121.86523,44.23395],[-121.86445,44.23451],[-121.86418,44.23484],[-121.86339,44.23814],[-121.863,44.23868],[-121.86105,44.23987],[-121.86068,44.24],[-121.85768,44.24018],[-121.85591,44.24008],[-121.85501,44.2402],[-121.85431,44.24042],[-121.84356,44.24536],[-121.84327,44.24574],[-121.84368,44.24689],[-121.84352,44.24728],[-121.84143,44.24821],[-121.83959,44.24831],[-121.83925,44.24856],[-121.839,44.24917],[-121.83872,44.24934],[-121.83702,44.24961],[-121.83627,44.24966],[-121.8357,44.24945],[-121.8347,44.24883],[-121.8337,44.24878],[-121.83181,44.24932],[-121.82956,44.25012],[-121.82719,44.25121],[-121.80954,44.26003],[-121.80903,44.26006],[-121.8084,44.25971],[-121.80812,44.25966],[-121.80791,44.25977],[-121.8077,44.2602],[-121.80736,44.26029],[-121.80478,44.25982],[-121.80408,44.25997],[-121.80346,44.26046],[-121.80252,44.26061],[-121.80137,44.26027],[-121.79858,44.26004],[-121.79785,44.25947],[-121.79739,44.25935],[-121.79706,44.25952],[-121.79715,44.26005],[-121.79698,44.26024],[-121.79582,44.26029],[-121.79484,44.26077],[-121.79337,44.261],[-121.79254,44.26184],[-121.79175,44.26307],[-121.79113,44.26365],[-121.78888,44.26495],[-121.78788,44.26501],[-121.7875,44.26516],[-121.78572,44.26671],[-121.78481,44.26721],[-121.78461,44.26753],[-121.78489,44.26823],[-121.78471,44.26864],[-121.78432,44.26875],[-121.78368,44.26852],[-121.78322,44.26858],[-121.78243,44.26936],[-121.78153,44.2698],[-121.78013,44.27187],[-121.77985,44.27357],[-121.77943,44.27397],[-121.77816,44.27443],[-121.77729,44.27526],[-121.77701,44.27614],[-121.77638,44.27686],[-121.77601,44.27795],[-121.77584,44.27814],[-121.77548,44.27828],[-121.77502,44.27826],[-121.77389,44.27754],[-121.77351,44.27744],[-121.77259,44.27766],[-121.77181,44.27765],[-121.77141,44.27786],[-121.77086,44.27903],[-121.77058,44.28093],[-121.77054,44.28209],[-121.77029,44.28262],[-121.76941,44.28343],[-121.76816,44.28423],[-121.76761,44.28485],[-121.76647,44.28525],[-121.76548,44.28665],[-121.76519,44.28738],[-121.7642,44.28838],[-121.76358,44.2888],[-121.76321,44.28961],[-121.76287,44.28974],[-121.76193,44.28979],[-121.76068,44.29004],[-121.75972,44.2905],[-121.75917,44.29101],[-121.7571,44.29158],[-121.75644,44.29228],[-121.75556,44.29237],[-121.75472,44.29269],[-121.75426,44.29301],[-121.75298,44.29433],[-121.75238,44.29468],[-121.75093,44.2949],[-121.74913,44.29473],[-121.74807,44.29481],[-121.74735,44.29498],[-121.74548,44.29572],[-121.74486,44.29608],[-121.74445,44.2967],[-121.74387,44.29731],[-121.74186,44.29899],[-121.73901,44.30002],[-121.73751,44.30081],[-121.7344,44.30186],[-121.73349,44.30225],[-121.73271,44.30268],[-121.73198,44.30348],[-121.73057,44.30416],[-121.72957,44.30432],[-121.7276,44.30448],[-121.72717,44.3046],[-121.72589,44.30527],[-121.72508,44.30539],[-121.72459,44.30534],[-121.72291,44.30483],[-121.72233,44.30426],[-121.72167,44.30418],[-121.72078,44.30422],[-121.71719,44.30497],[-121.71608,44.3054],[-121.71424,44.30575],[-121.71161,44.30648],[-121.70986,44.30661],[-121.70698,44.30696],[-121.70524,44.30803],[-121.70311,44.3091],[-121.70206,44.30937],[-121.69995,44.30935],[-121.69872,44.30944],[-121.69751,44.30913],[-121.69654,44.30827],[-121.6963,44.30786],[-121.69632,44.3075],[-121.6968,44.30631],[-121.69676,44.30617],[-121.69647,44.306],[-121.69609,44.30604],[-121.68956,44.30786],[-121.68795,44.30803],[-121.68675,44.30793],[-121.67665,44.3058],[-121.67496,44.3056],[-121.66806,44.30595],[-121.63731,44.30938],[-121.63501,44.30985],[-121.63437,44.30989],[-121.62916,44.30849],[-121.57821,44.2939],[-121.57665,44.29326],[-121.57491,44.29174],[-121.57409,44.2914],[-121.57299,44.29131],[-121.55863,44.29132],[-121.55874,44.29303],[-121.55856,44.29331],[-121.5579,44.29367]]]}},{"type":"Feature","properties":{"id":"historic-columbia-river-highway","name":"Historic Columbia River Highway \u00b7 US 30 Historic","difficulty":2,"character":"Medium speed"},"geometry":{"type":"MultiLineString","coordinates":[[[-122.41167,45.54129],[-122.41146,45.54156],[-122.4111,45.54179],[-122.40861,45.54271],[-122.40582,45.54289],[-122.4038,45.54257],[-122.40102,45.54138],[-122.39821,45.5408],[-122.39267,45.54076],[-122.39224,45.54063],[-122.39192,45.54077],[-122.38446,45.54071],[-122.38414,45.54051],[-122.38378,45.53974],[-122.38349,45.53938],[-122.38102,45.53728],[-122.38056,45.53709],[-122.38013,45.53714],[-122.37608,45.53863],[-122.37582,45.53881],[-122.37518,45.53847],[-122.37407,45.53729],[-122.37294,45.53663],[-122.37214,45.5359],[-122.37155,45.53523],[-122.37116,45.53453],[-122.37118,45.5341],[-122.37183,45.53304],[-122.37192,45.53229],[-122.37106,45.52917],[-122.37096,45.52492],[-122.3707,45.52447],[-122.3694,45.52354],[-122.36862,45.52275],[-122.3678,45.521],[-122.3677,45.52028],[-122.36779,45.51939],[-122.36888,45.51682],[-122.3693,45.51624],[-122.37059,45.51498],[-122.3708,45.51461],[-122.37083,45.51427],[-122.3706,45.51372],[-122.3701,45.51325],[-122.3686,45.51262],[-122.36762,45.51243],[-122.36663,45.51243],[-122.36587,45.51265],[-122.36407,45.51414],[-122.36218,45.51542],[-122.36015,45.51646],[-122.35637,45.51767],[-122.354,45.51785],[-122.35021,45.51845],[-122.34777,45.51845],[-122.34662,45.51821],[-122.34581,45.51791],[-122.34509,45.51753],[-122.34425,45.51647],[-122.34384,45.51629],[-122.3433,45.51621],[-122.34205,45.51637],[-122.34094,45.51673],[-122.33789,45.51857],[-122.33687,45.51894],[-122.33613,45.51901],[-122.32988,45.51898],[-122.32954,45.5189],[-122.32923,45.51869],[-122.32816,45.51763],[-122.32582,45.51681],[-122.32472,45.51627],[-122.32422,45.51619],[-122.32357,45.51625],[-122.32115,45.51703],[-122.31865,45.51873],[-122.31822,45.51891],[-122.31435,45.51895],[-122.31361,45.51917],[-122.31335,45.51943],[-122.31326,45.51975],[-122.31317,45.52261],[-122.3119,45.52412],[-122.31176,45.52469],[-122.31175,45.52568],[-122.31124,45.52627],[-122.30999,45.52659],[-122.30812,45.52663],[-122.30569,45.52707],[-122.30489,45.52736],[-122.30105,45.52926],[-122.29697,45.53026],[-122.28877,45.5325],[-122.28779,45.5325],[-122.28334,45.53196],[-122.28292,45.53178],[-122.28081,45.53029],[-122.27763,45.52975],[-122.2752,45.5298],[-122.2739,45.53033],[-122.27198,45.53068],[-122.26855,45.53247],[-122.26794,45.5327],[-122.26554,45.53329],[-122.26056,45.53322],[-122.26005,45.53302],[-122.25873,45.53223],[-122.25776,45.53186],[-122.25487,45.53137],[-122.25365,45.53148],[-122.25098,45.53205],[-122.25039,45.5323],[-122.24976,45.53271],[-122.2494,45.53313],[-122.2488,45.53455],[-122.24866,45.5355],[-122.24803,45.53583],[-122.24748,45.53648],[-122.24746,45.53749],[-122.24653,45.53822],[-122.24538,45.53827],[-122.24473,45.53857],[-122.2444,45.53907],[-122.24474,45.53952],[-122.24473,45.53971],[-122.24441,45.5399],[-122.24404,45.53981],[-122.24392,45.53967],[-122.24401,45.53857],[-122.24395,45.53843],[-122.24373,45.53831],[-122.24331,45.5384],[-122.24284,45.5389],[-122.24217,45.53893],[-122.2415,45.53923],[-122.24094,45.53908],[-122.24075,45.53888],[-122.24059,45.53813],[-122.24038,45.53787],[-122.24002,45.53777],[-122.23939,45.53779],[-122.23898,45.5376],[-122.23892,45.53722],[-122.23917,45.53668],[-122.23909,45.53633],[-122.23779,45.53529],[-122.23754,45.53461],[-122.23671,45.53403],[-122.23536,45.53359],[-122.23485,45.53289],[-122.23452,45.53279],[-122.23425,45.53291],[-122.23398,45.53356],[-122.23377,45.53377],[-122.23296,45.53408],[-122.23012,45.53393],[-122.22985,45.53408],[-122.22985,45.53432],[-122.23,45.53442],[-122.23121,45.5345],[-122.23136,45.53472],[-122.23128,45.53487],[-122.23103,45.53496],[-122.23015,45.53479],[-122.22988,45.53502],[-122.23002,45.53528],[-122.23046,45.53539],[-122.23201,45.53533],[-122.23277,45.53549],[-122.23295,45.53574],[-122.23275,45.53593],[-122.23153,45.53581],[-122.23019,45.53592],[-122.22913,45.5365],[-122.22772,45.53704],[-122.22613,45.5376],[-122.22559,45.53766],[-122.2249,45.53761],[-122.22414,45.53815],[-122.22311,45.53843],[-122.22062,45.53869],[-122.21953,45.53854],[-122.21735,45.53902],[-122.21183,45.54077],[-122.21114,45.54117],[-122.21077,45.54128],[-122.20863,45.541],[-122.20653,45.5412],[-122.2058,45.54145],[-122.20386,45.54245],[-122.20154,45.5442],[-122.2006,45.5446],[-122.19876,45.54575],[-122.19837,45.54622],[-122.19803,45.54639],[-122.19709,45.54718],[-122.19686,45.54767],[-122.19628,45.548],[-122.19453,45.54866],[-122.19231,45.5491],[-122.19103,45.54966],[-122.18981,45.54991],[-122.18914,45.55027],[-122.18748,45.55142],[-122.18538,45.55244],[-122.18086,45.55391],[-122.17946,45.55452],[-122.17923,45.5548],[-122.17933,45.55518],[-122.17914,45.55561],[-122.17755,45.55653],[-122.17264,45.56033],[-122.17206,45.56059],[-122.17167,45.56115],[-122.16223,45.56697],[-122.16163,45.56751],[-122.1612,45.56769],[-122.16043,45.56781],[-122.15972,45.56811],[-122.15697,45.57099],[-122.15666,45.57122],[-122.15621,45.5714],[-122.15368,45.57181],[-122.15128,45.57232],[-122.15053,45.57257],[-122.14533,45.57481],[-122.14391,45.57487],[-122.14259,45.57534],[-122.14188,45.57543],[-122.13985,45.57542],[-122.13677,45.57516],[-122.13427,45.57541],[-122.13321,45.57565],[-122.13223,45.57564],[-122.13095,45.57596],[-122.1305,45.57591],[-122.12938,45.57552],[-122.12874,45.5754],[-122.12722,45.57548],[-122.12673,45.57561],[-122.12547,45.57619],[-122.1218,45.57699],[-122.11722,45.57775],[-122.11453,45.57852],[-122.11165,45.57915],[-122.10267,45.58077],[-122.1012,45.58151],[-122.09995,45.58185],[-122.09915,45.58217],[-122.09826,45.58233],[-122.09751,45.58268],[-122.09487,45.58343],[-122.09284,45.58372],[-122.09084,45.58431],[-122.08728,45.58627],[-122.08631,45.58661],[-122.08532,45.58685],[-122.0833,45.58707],[-122.08282,45.58733],[-122.07931,45.58828],[-122.07727,45.58918],[-122.0763,45.58948],[-122.07498,45.58976],[-122.07053,45.59027],[-122.06815,45.59029],[-122.06619,45.59085],[-122.06521,45.59098],[-122.06387,45.59101],[-122.06317,45.59115],[-122.05934,45.59249],[-122.05532,45.59496],[-122.05129,45.59642],[-122.05049,45.59708],[-122.04841,45.59935],[-122.04782,45.59967],[-122.04715,45.59994],[-122.04454,45.60036],[-122.0439,45.60055]]]}},{"type":"Feature","properties":{"id":"larch-mountain-road","name":"Larch Mountain Road","difficulty":2,"character":"Technical"},"geometry":{"type":"MultiLineString","coordinates":[[[-122.25365,45.53148],[-122.25104,45.53186],[-122.24891,45.53262],[-122.24696,45.53261],[-122.24561,45.53223],[-122.24421,45.53265],[-122.24327,45.53274],[-122.24245,45.53247],[-122.24084,45.53173],[-122.23911,45.53179],[-122.23853,45.53166],[-122.23485,45.52929],[-122.23372,45.5288],[-122.23306,45.5287],[-122.23036,45.52878],[-122.23,45.52872],[-122.22958,45.52845],[-122.22947,45.52807],[-122.22968,45.52771],[-122.23046,45.52693],[-122.23056,45.52579],[-122.23001,45.52523],[-122.2294,45.52486],[-122.22768,45.52451],[-122.22733,45.52418],[-122.22727,45.5239],[-122.22737,45.52326],[-122.22759,45.5229],[-122.23052,45.52122],[-122.23078,45.52086],[-122.23061,45.52049],[-122.22837,45.51928],[-122.22493,45.51828],[-122.22259,45.51775],[-122.22124,45.51719],[-122.21718,45.51588],[-122.21507,45.5148],[-122.21409,45.51475],[-122.21113,45.51499],[-122.21052,45.51488],[-122.20924,45.51412],[-122.20862,45.51363],[-122.20843,45.51304],[-122.20836,45.51164],[-122.20805,45.51137],[-122.20741,45.51111],[-122.20532,45.51081],[-122.19806,45.51102],[-122.19554,45.5112],[-122.19247,45.51188],[-122.1879,45.51181],[-122.1842,45.51132],[-122.18346,45.51152],[-122.18312,45.51174],[-122.1807,45.5149],[-122.17967,45.5156],[-122.17693,45.51643],[-122.17253,45.51759],[-122.17207,45.51775],[-122.17146,45.51811],[-122.17054,45.51915],[-122.16841,45.52227],[-122.16802,45.52262],[-122.16754,45.52282],[-122.16653,45.52287],[-122.16233,45.52224],[-122.16169,45.52223],[-122.15868,45.52267],[-122.15764,45.5226],[-122.15698,45.52224],[-122.15677,45.52193],[-122.15671,45.52156],[-122.15712,45.52049],[-122.15711,45.52015],[-122.15676,45.5197],[-122.15627,45.51945],[-122.15534,45.51943],[-122.15216,45.5198],[-122.14969,45.51969],[-122.14573,45.52072],[-122.14502,45.5207],[-122.14444,45.52052],[-122.14168,45.51883],[-122.14098,45.51871],[-122.14016,45.51886],[-122.13841,45.52018],[-122.13812,45.52058],[-122.13821,45.5213],[-122.13877,45.52238],[-122.13877,45.52275],[-122.13848,45.52315],[-122.13577,45.52538],[-122.13357,45.5283],[-122.13174,45.53046],[-122.13096,45.53086],[-122.1303,45.53093],[-122.12605,45.52973],[-122.12542,45.5298],[-122.12475,45.53025],[-122.12448,45.53132],[-122.12428,45.53155],[-122.12336,45.53188],[-122.12281,45.5323],[-122.12268,45.53297],[-122.12288,45.53463],[-122.1228,45.53494],[-122.12233,45.53551],[-122.12193,45.53575],[-122.12095,45.53597],[-122.11799,45.53572],[-122.11719,45.53574],[-122.11654,45.53593],[-122.11468,45.53675],[-122.11465,45.53693],[-122.11482,45.53716],[-122.11624,45.53755],[-122.11713,45.53802],[-122.11747,45.53858],[-122.1174,45.5392],[-122.11572,45.54112],[-122.11276,45.54279],[-122.11171,45.54399],[-122.1113,45.54428],[-122.10953,45.54498],[-122.10736,45.546],[-122.10536,45.54648],[-122.10334,45.54718],[-122.10247,45.54708],[-122.10138,45.54668],[-122.10046,45.5467],[-122.09995,45.54693],[-122.09737,45.54872],[-122.09621,45.54904],[-122.09435,45.54937],[-122.09299,45.5498],[-122.0927,45.54982],[-122.09208,45.54959],[-122.09194,45.54932],[-122.092,45.54906],[-122.09223,45.54886],[-122.09445,45.54804],[-122.09519,45.54749],[-122.09584,45.5467],[-122.09667,45.5454],[-122.09734,45.54463],[-122.09901,45.54357],[-122.10022,45.54262],[-122.10147,45.54034],[-122.10144,45.53981],[-122.10081,45.53815],[-122.10057,45.53689],[-122.09987,45.53181],[-122.09975,45.53141],[-122.09821,45.52907],[-122.09783,45.5288],[-122.09181,45.52695],[-122.08841,45.52638],[-122.08512,45.52632],[-122.08445,45.52639],[-122.08353,45.52664],[-122.0815,45.52776],[-122.08146,45.52806],[-122.08159,45.52819],[-122.08202,45.52823],[-122.08228,45.52816],[-122.08282,45.5278],[-122.08365,45.52751],[-122.08462,45.52748],[-122.08571,45.52781],[-122.08665,45.52852],[-122.0875,45.5289]]]}},{"type":"Feature","properties":{"id":"aufderheide-drive","name":"Aufderheide Drive \u00b7 FR 19","difficulty":1,"character":"Medium speed"},"geometry":{"type":"MultiLineString","coordinates":[[[-122.49533,43.75826],[-122.49428,43.759],[-122.49381,43.75968],[-122.49344,43.76001],[-122.4915,43.76101],[-122.49115,43.76131],[-122.4904,43.76281],[-122.48931,43.76452],[-122.48873,43.76699],[-122.48778,43.76864],[-122.4864,43.76996],[-122.48338,43.77253],[-122.48239,43.77325],[-122.47744,43.77615],[-122.47651,43.77657],[-122.47531,43.77686],[-122.46868,43.7775],[-122.46734,43.77785],[-122.4662,43.77847],[-122.46574,43.77897],[-122.46532,43.77972],[-122.46369,43.78608],[-122.46328,43.78693],[-122.46218,43.78855],[-122.46124,43.78942],[-122.45711,43.79255],[-122.45635,43.79288],[-122.45303,43.79397],[-122.45236,43.79433],[-122.45121,43.79571],[-122.45048,43.79682],[-122.45016,43.79748],[-122.45021,43.79803],[-122.4501,43.79848],[-122.44977,43.79898],[-122.44955,43.79912],[-122.4488,43.79933],[-122.44757,43.79901],[-122.44699,43.79899],[-122.44514,43.79944],[-122.4436,43.80066],[-122.44296,43.80105],[-122.43957,43.80222],[-122.43853,43.80235],[-122.43732,43.80235],[-122.43649,43.80223],[-122.43567,43.80234],[-122.43491,43.80291],[-122.43457,43.8036],[-122.43306,43.80525],[-122.43236,43.80545],[-122.43089,43.80541],[-122.42993,43.806],[-122.42896,43.80727],[-122.42885,43.80769],[-122.42893,43.80853],[-122.4288,43.80886],[-122.42837,43.80926],[-122.42803,43.80938],[-122.42704,43.80947],[-122.42587,43.80987],[-122.42267,43.81154],[-122.42204,43.81175],[-122.42108,43.81189],[-122.41925,43.8119],[-122.41805,43.81205],[-122.41763,43.81202],[-122.41652,43.81174],[-122.41581,43.81169],[-122.41436,43.81225],[-122.41161,43.81283],[-122.41107,43.81317],[-122.41023,43.81421],[-122.40921,43.81508],[-122.40849,43.81595],[-122.408,43.81622],[-122.40559,43.817],[-122.40439,43.81796],[-122.40368,43.81884],[-122.40361,43.82086],[-122.40395,43.82256],[-122.40361,43.82427],[-122.40296,43.82556],[-122.40296,43.82626],[-122.40275,43.82662],[-122.40181,43.82755],[-122.40032,43.82989],[-122.39947,43.83222],[-122.3995,43.83278],[-122.40056,43.83609],[-122.40138,43.83703],[-122.40182,43.83806],[-122.40418,43.84002],[-122.4044,43.84069],[-122.4049,43.84246],[-122.40438,43.84334],[-122.40473,43.84436],[-122.40465,43.84596],[-122.40397,43.84688],[-122.40466,43.84926],[-122.40593,43.85077],[-122.40692,43.85151],[-122.40728,43.85233],[-122.40909,43.85356],[-122.41064,43.85445],[-122.41117,43.85505],[-122.41137,43.85575],[-122.4108,43.85746],[-122.4117,43.85921],[-122.41183,43.86043],[-122.41172,43.86066],[-122.41127,43.86122],[-122.41071,43.8617],[-122.40987,43.86339],[-122.40704,43.86569],[-122.40529,43.8665],[-122.40452,43.86706],[-122.40393,43.86733],[-122.40344,43.86743],[-122.40202,43.86733],[-122.40163,43.86748],[-122.4011,43.86786],[-122.40054,43.86934],[-122.39962,43.87037],[-122.39898,43.87167],[-122.39691,43.87389],[-122.39443,43.87695],[-122.39377,43.87749],[-122.39152,43.87801],[-122.38707,43.87825],[-122.38578,43.87862],[-122.38377,43.87937],[-122.3806,43.88013],[-122.3797,43.88009],[-122.3772,43.88046],[-122.37603,43.88077],[-122.3756,43.88106],[-122.37515,43.88176],[-122.37395,43.88311],[-122.37344,43.88459],[-122.37337,43.88535],[-122.37297,43.88558],[-122.37123,43.88552],[-122.37029,43.88529],[-122.3696,43.88497],[-122.36839,43.88394],[-122.36761,43.88397],[-122.36652,43.88437],[-122.36609,43.88444],[-122.36317,43.88403],[-122.36161,43.88401],[-122.36059,43.88376],[-122.35911,43.88377],[-122.35818,43.88361],[-122.35613,43.8839],[-122.35404,43.88355],[-122.3528,43.88299],[-122.35204,43.88288],[-122.35147,43.88269],[-122.35016,43.88204],[-122.34933,43.88199],[-122.34837,43.88205],[-122.34764,43.88238],[-122.34269,43.88409],[-122.34225,43.88437],[-122.34193,43.88497],[-122.34161,43.88632],[-122.34092,43.8875],[-122.34055,43.88787],[-122.33959,43.88835],[-122.33828,43.88976],[-122.33769,43.89022],[-122.33677,43.89059],[-122.33535,43.89091],[-122.33446,43.89082],[-122.33316,43.89029],[-122.3325,43.89017],[-122.33195,43.89016],[-122.33126,43.89033],[-122.32987,43.89126],[-122.32817,43.89356],[-122.32649,43.89495],[-122.32579,43.89521],[-122.32414,43.89532],[-122.32295,43.8951],[-122.32126,43.89418],[-122.31994,43.89418],[-122.31758,43.89323],[-122.31296,43.89183],[-122.31096,43.89112],[-122.30845,43.89066],[-122.30771,43.89029],[-122.30587,43.88964],[-122.30491,43.88887],[-122.30459,43.88873],[-122.30335,43.88868],[-122.30237,43.88884],[-122.302,43.88909],[-122.30136,43.88991],[-122.30067,43.89022],[-122.30025,43.89028],[-122.29986,43.89027],[-122.29936,43.89009],[-122.29839,43.88925],[-122.29739,43.88904],[-122.29654,43.88905],[-122.29517,43.88925],[-122.29379,43.88958],[-122.29246,43.88959],[-122.2918,43.88927],[-122.28938,43.88771],[-122.28779,43.88709],[-122.28642,43.88691],[-122.28172,43.8872],[-122.28001,43.88712],[-122.27924,43.8868],[-122.27763,43.88574],[-122.27545,43.88497],[-122.27338,43.88438],[-122.26808,43.88409],[-122.2661,43.8836],[-122.26433,43.88352],[-122.26245,43.88373],[-122.25915,43.88452],[-122.25809,43.88464],[-122.25722,43.88463],[-122.256,43.88438],[-122.25461,43.88381],[-122.25388,43.88332],[-122.25298,43.88237],[-122.25235,43.88205],[-122.25014,43.88185],[-122.24876,43.88216],[-122.24649,43.88357],[-122.24556,43.88403],[-122.24467,43.88478],[-122.2442,43.8849],[-122.2425,43.8843],[-122.23887,43.88396],[-122.23316,43.88294],[-122.23135,43.88276],[-122.22195,43.88042],[-122.21522,43.87817],[-122.21095,43.8774],[-122.21027,43.87714],[-122.20726,43.87563],[-122.2036,43.87366],[-122.20279,43.87347],[-122.19958,43.87362],[-122.18563,43.87481],[-122.18414,43.87459],[-122.18196,43.87349],[-122.18079,43.87333],[-122.1769,43.87414],[-122.17299,43.87507],[-122.16677,43.87566],[-122.14601,43.87717],[-122.13819,43.87732],[-122.13411,43.87786],[-122.13041,43.87822],[-122.12471,43.87784],[-122.12349,43.87794],[-122.12247,43.87817],[-122.1214,43.87873],[-122.12102,43.87906],[-122.11683,43.8839],[-122.1159,43.88478],[-122.11484,43.88557],[-122.11358,43.88623],[-122.1123,43.88666],[-122.10666,43.88759],[-122.10241,43.88875],[-122.10116,43.88895],[-122.08971,43.8889],[-122.08806,43.88885],[-122.08678,43.88863],[-122.08593,43.88832],[-122.08492,43.88772],[-122.07877,43.88274],[-122.07741,43.8818],[-122.0727,43.8796],[-122.07125,43.87902],[-122.07067,43.87903],[-122.06994,43.87951],[-122.06986,43.87996],[-122.07045,43.88131],[-122.07081,43.88282],[-122.07336,43.88678],[-122.07452,43.88818],[-122.07803,43.89178],[-122.07951,43.89387],[-122.0803,43.89603],[-122.08099,43.89746],[-122.08128,43.89841],[-122.08132,43.89903],[-122.08171,43.9007],[-122.08265,43.90167],[-122.08346,43.90299],[-122.08362,43.9035],[-122.083,43.9046],[-122.08219,43.90782],[-122.08047,43.91086],[-122.07997,43.91153],[-122.07829,43.91296],[-122.0767,43.91568],[-122.07643,43.91591],[-122.0753,43.91639],[-122.07465,43.91693],[-122.0741,43.91786],[-122.0732,43.91989],[-122.07314,43.92048],[-122.07342,43.92174],[-122.07368,43.92435],[-122.0736,43.9252],[-122.07326,43.926],[-122.07326,43.92635],[-122.07353,43.92762],[-122.07388,43.92837],[-122.07401,43.92922],[-122.07441,43.92999],[-122.07385,43.93147],[-122.07316,43.93259],[-122.07253,43.93304],[-122.07021,43.93427],[-122.06905,43.93519],[-122.06793,43.93558],[-122.06676,43.93569],[-122.06662,43.9359],[-122.06677,43.93619],[-122.06708,43.9363],[-122.06833,43.93613],[-122.06866,43.93616],[-122.06897,43.93624],[-122.06933,43.93653],[-122.06955,43.93714],[-122.07043,43.93792],[-122.07054,43.93913],[-122.0713,43.94032],[-122.07194,43.94106],[-122.07292,43.94109],[-122.07339,43.9412],[-122.07382,43.94153],[-122.07499,43.94287],[-122.07559,43.94333],[-122.07695,43.94389],[-122.07754,43.94428],[-122.08032,43.94516],[-122.08111,43.94558],[-122.08148,43.9459],[-122.08206,43.94668],[-122.08266,43.949],[-122.08415,43.95117],[-122.08448,43.95186],[-122.08532,43.95541],[-122.0851,43.95676],[-122.08564,43.9573],[-122.08914,43.95834],[-122.09003,43.95851],[-122.09312,43.95824],[-122.10003,43.95741],[-122.10078,43.95743],[-122.10212,43.95764],[-122.10333,43.95794],[-122.11038,43.95997],[-122.11675,43.95998],[-122.11934,43.96023],[-122.12305,43.9612],[-122.12587,43.96182],[-122.1277,43.96198],[-122.12954,43.96178],[-122.13089,43.96196],[-122.13159,43.96217],[-122.13217,43.96249],[-122.13325,43.96358],[-122.13349,43.9637],[-122.13572,43.96417],[-122.13702,43.96439],[-122.1379,43.96441],[-122.14193,43.96383],[-122.14299,43.96391],[-122.14592,43.96514],[-122.14655,43.9653],[-122.14748,43.96524],[-122.14893,43.9659],[-122.15038,43.96576],[-122.15192,43.96621],[-122.15345,43.96621],[-122.15807,43.96815],[-122.15879,43.96861],[-122.16015,43.96973],[-122.16111,43.97098],[-122.16154,43.97137],[-122.16386,43.97256],[-122.16644,43.97419],[-122.16728,43.97483],[-122.16805,43.97561],[-122.16838,43.97605],[-122.16993,43.9791],[-122.17024,43.97946],[-122.17118,43.98013],[-122.17248,43.98186],[-122.17361,43.9826],[-122.17465,43.98346],[-122.17546,43.9848],[-122.17555,43.98533],[-122.1751,43.98855],[-122.17619,43.99206],[-122.17623,43.99308],[-122.17605,43.9941],[-122.17639,43.99489],[-122.17618,43.99568],[-122.17556,43.99689],[-122.17435,43.99838],[-122.17396,43.99976],[-122.17309,44.00042],[-122.17279,44.00122],[-122.17205,44.00204],[-122.17136,44.00336],[-122.1715,44.00395],[-122.1719,44.00451],[-122.17247,44.00505],[-122.17396,44.00615],[-122.17418,44.00658],[-122.17387,44.00713],[-122.17341,44.00756],[-122.17211,44.00815],[-122.17164,44.0085],[-122.17166,44.00879],[-122.17207,44.00978],[-122.17221,44.01162],[-122.17321,44.01288],[-122.17363,44.01369],[-122.17351,44.01393],[-122.17205,44.01527],[-122.17176,44.01604],[-122.17183,44.01667],[-122.17245,44.01748],[-122.17395,44.01849],[-122.17491,44.01978],[-122.176,44.02053],[-122.17696,44.02153],[-122.17968,44.02327],[-122.18052,44.02368],[-122.18247,44.02395],[-122.18292,44.02411],[-122.18478,44.02518],[-122.18632,44.02556],[-122.18731,44.02597],[-122.18788,44.02649],[-122.18852,44.0274],[-122.18958,44.02975],[-122.1905,44.03055],[-122.19173,44.03104],[-122.19322,44.0314],[-122.19589,44.03288],[-122.19924,44.03364],[-122.19998,44.03396],[-122.2005,44.03457],[-122.20148,44.03695],[-122.20163,44.03763],[-122.20189,44.03795],[-122.2055,44.04043],[-122.20636,44.04152],[-122.20685,44.04191],[-122.21013,44.04372],[-122.21138,44.04507],[-122.21218,44.04527],[-122.21368,44.04534],[-122.21477,44.0457],[-122.21652,44.04612],[-122.21697,44.04635],[-122.21737,44.04694],[-122.21743,44.04742],[-122.21665,44.05099],[-122.21662,44.05201],[-122.21708,44.05357],[-122.21899,44.05611],[-122.21908,44.05778],[-122.21932,44.0581],[-122.21999,44.05837],[-122.22169,44.05803],[-122.22229,44.05812],[-122.22422,44.05976],[-122.22449,44.0613],[-122.22447,44.0623],[-122.22478,44.06266],[-122.22637,44.06389],[-122.22669,44.06443],[-122.22667,44.06529],[-122.22617,44.06623],[-122.22639,44.06724],[-122.22647,44.06951],[-122.22694,44.06977],[-122.22843,44.06968],[-122.22908,44.06976],[-122.22947,44.06992],[-122.2299,44.07029],[-122.23003,44.07058],[-122.23018,44.07235],[-122.23118,44.07603],[-122.23219,44.07714],[-122.2324,44.07753],[-122.23243,44.07815],[-122.23196,44.07987],[-122.23211,44.08039],[-122.2324,44.08072],[-122.23243,44.08093],[-122.23206,44.08159],[-122.23201,44.082],[-122.23272,44.08309],[-122.23282,44.08341],[-122.23211,44.08549],[-122.2322,44.08589],[-122.23312,44.08727],[-122.23322,44.08764],[-122.23309,44.08819],[-122.23234,44.08886],[-122.23218,44.08933],[-122.23243,44.08978],[-122.23331,44.09039],[-122.23345,44.09076],[-122.23334,44.09114],[-122.23258,44.09176],[-122.23242,44.09214],[-122.23261,44.09525],[-122.23276,44.0955],[-122.23305,44.09568],[-122.23355,44.09574],[-122.23445,44.09558],[-122.23484,44.09583],[-122.23486,44.09608],[-122.23449,44.09694],[-122.23443,44.0974],[-122.23454,44.09868],[-122.2342,44.09971],[-122.2344,44.10021],[-122.23479,44.10048],[-122.23549,44.10062],[-122.23583,44.10081],[-122.23634,44.10185],[-122.23764,44.10303],[-122.23783,44.10371],[-122.23804,44.10398],[-122.23864,44.10429],[-122.24023,44.10458],[-122.24056,44.1048],[-122.24071,44.10511],[-122.2406,44.10553],[-122.24016,44.10583],[-122.23815,44.10616],[-122.23758,44.10644],[-122.23716,44.10735],[-122.23568,44.10846],[-122.23568,44.10892],[-122.23618,44.10968],[-122.23634,44.11049],[-122.23712,44.11172],[-122.23764,44.11218],[-122.23801,44.11237],[-122.23851,44.11246],[-122.2396,44.112],[-122.24024,44.11206],[-122.24056,44.11237],[-122.24069,44.11308],[-122.2416,44.11363],[-122.24185,44.11417],[-122.2426,44.11514],[-122.24308,44.11535],[-122.24406,44.11549],[-122.24444,44.11586],[-122.24427,44.11631],[-122.24329,44.11707],[-122.24251,44.11751],[-122.24233,44.11794],[-122.24245,44.11815],[-122.2428,44.11833],[-122.24393,44.11832],[-122.24435,44.11854],[-122.24435,44.11891],[-122.24356,44.11944],[-122.24344,44.11984],[-122.24373,44.12012],[-122.24457,44.12029],[-122.24487,44.12054],[-122.24488,44.12081],[-122.24444,44.12139],[-122.24465,44.1223],[-122.24496,44.12298],[-122.2466,44.12497],[-122.2467,44.1255],[-122.24661,44.12577],[-122.24611,44.12638],[-122.24613,44.12732],[-122.24591,44.12759],[-122.24507,44.12796],[-122.24398,44.12798],[-122.24381,44.12823],[-122.24446,44.12874],[-122.24588,44.13055],[-122.24678,44.13111],[-122.24692,44.13146],[-122.24703,44.13255],[-122.24737,44.13279],[-122.24802,44.13301],[-122.24872,44.13403],[-122.25139,44.1353],[-122.25172,44.13533],[-122.25241,44.13522],[-122.25278,44.13529],[-122.25308,44.13546],[-122.25364,44.13615],[-122.25372,44.13646],[-122.25346,44.13683],[-122.25258,44.13726],[-122.25234,44.13777],[-122.25245,44.13808],[-122.25285,44.13855],[-122.25307,44.13913],[-122.25383,44.13976],[-122.2539,44.14097],[-122.25475,44.14154],[-122.25714,44.14426],[-122.25936,44.14601],[-122.25964,44.14637],[-122.25969,44.14672],[-122.25936,44.14851],[-122.25918,44.14879],[-122.25825,44.14963],[-122.2583,44.1503],[-122.25805,44.15126],[-122.25807,44.1517],[-122.25841,44.15228],[-122.25948,44.15311],[-122.26014,44.15397],[-122.26284,44.15618],[-122.26295,44.15653],[-122.26272,44.15678],[-122.25747,44.1589],[-122.25722,44.15917],[-122.25707,44.1597],[-122.2571,44.15994],[-122.26052,44.16476],[-122.26062,44.16568]]]}},{"type":"Feature","properties":{"id":"santiam-pass","name":"Santiam Pass \u00b7 US 20","difficulty":2,"character":"Medium speed"},"geometry":{"type":"MultiLineString","coordinates":[[[-122.73612,44.39763],[-122.73396,44.39735],[-122.73236,44.39738],[-122.73138,44.39751],[-122.65768,44.40976],[-122.65294,44.41007],[-122.65167,44.41001],[-122.64812,44.40951],[-122.64378,44.40808],[-122.64274,44.40794],[-122.6414,44.40798],[-122.64034,44.4082],[-122.63912,44.40873],[-122.63821,44.4094],[-122.63658,44.41113],[-122.63559,44.41174],[-122.63067,44.41327],[-122.62986,44.41344],[-122.62912,44.41347],[-122.62577,44.41301],[-122.61891,44.41331],[-122.6167,44.41267],[-122.6148,44.41242],[-122.61283,44.41181],[-122.61135,44.41165],[-122.60972,44.41125],[-122.60806,44.41121],[-122.60738,44.41111],[-122.60671,44.41077],[-122.60627,44.41017],[-122.60606,44.40916],[-122.60614,44.40834],[-122.60582,44.4078],[-122.60531,44.40753],[-122.60442,44.40741],[-122.60278,44.40699],[-122.60196,44.40707],[-122.60093,44.40758],[-122.59967,44.408],[-122.59928,44.40803],[-122.59799,44.40777],[-122.59739,44.40778],[-122.59478,44.40863],[-122.59387,44.40868],[-122.59366,44.40858],[-122.59341,44.40827],[-122.59317,44.40734],[-122.59372,44.40497],[-122.59366,44.40396],[-122.59333,44.40326],[-122.59197,44.4018],[-122.59133,44.40126],[-122.59069,44.40097],[-122.58751,44.40007],[-122.58696,44.40002],[-122.58628,44.40012],[-122.57866,44.40278],[-122.56866,44.40581],[-122.56795,44.40588],[-122.5674,44.40562],[-122.56723,44.40525],[-122.56791,44.40378],[-122.56781,44.40313],[-122.56741,44.40254],[-122.56695,44.40221],[-122.56636,44.40197],[-122.56552,44.40184],[-122.55792,44.40133],[-122.55471,44.40153],[-122.55345,44.40188],[-122.55275,44.40195],[-122.54494,44.40136],[-122.54385,44.40096],[-122.54082,44.39922],[-122.53914,44.39899],[-122.53821,44.39878],[-122.53378,44.39701],[-122.53256,44.39619],[-122.53224,44.39571],[-122.53216,44.39512],[-122.53197,44.39482],[-122.5311,44.39435],[-122.53061,44.39426],[-122.52932,44.39434],[-122.52865,44.39429],[-122.52435,44.39351],[-122.51917,44.39288],[-122.5165,44.39225],[-122.50869,44.39011],[-122.5076,44.38996],[-122.50266,44.39002],[-122.50109,44.39023],[-122.48311,44.39677],[-122.48228,44.39702],[-122.48102,44.39724],[-122.47886,44.39724],[-122.47249,44.39624],[-122.46569,44.39582],[-122.46423,44.39593],[-122.4537,44.39747],[-122.45219,44.39743],[-122.44886,44.39686],[-122.44739,44.39684],[-122.44553,44.39718],[-122.43823,44.39983],[-122.43676,44.40012],[-122.43539,44.40017],[-122.42496,44.39951],[-122.42345,44.39923],[-122.42132,44.39855],[-122.42072,44.39856],[-122.4198,44.3988],[-122.41935,44.39882],[-122.41834,44.39846],[-122.41762,44.39834],[-122.41707,44.3984],[-122.41613,44.39868],[-122.41555,44.39864],[-122.41514,44.39847],[-122.41484,44.39818],[-122.41366,44.39572],[-122.41322,44.3953],[-122.41269,44.39506],[-122.41092,44.39472],[-122.40908,44.39403],[-122.40836,44.39391],[-122.40755,44.39408],[-122.4044,44.39531],[-122.40047,44.39614],[-122.39978,44.39637],[-122.399,44.39685],[-122.39802,44.39785],[-122.39757,44.39807],[-122.39697,44.3982],[-122.39435,44.39847],[-122.39296,44.3989],[-122.39235,44.39921],[-122.3916,44.39974],[-122.391,44.40041],[-122.39019,44.40169],[-122.38983,44.402],[-122.38907,44.4024],[-122.38253,44.40388],[-122.38162,44.40391],[-122.37971,44.40373],[-122.37778,44.40404],[-122.37416,44.4041],[-122.37288,44.40379],[-122.37145,44.40302],[-122.37085,44.40298],[-122.3703,44.40315],[-122.36999,44.40338],[-122.36962,44.40421],[-122.3693,44.40457],[-122.36878,44.40476],[-122.36825,44.40474],[-122.36728,44.40441],[-122.3667,44.40403],[-122.3644,44.40174],[-122.36383,44.40149],[-122.36228,44.4012],[-122.36122,44.40052],[-122.36074,44.40033],[-122.35994,44.40021],[-122.35906,44.40021],[-122.35818,44.40031],[-122.35626,44.40074],[-122.35516,44.40069],[-122.3516,44.40014],[-122.35006,44.39892],[-122.34922,44.39862],[-122.34485,44.39838],[-122.34425,44.39845],[-122.34346,44.39869],[-122.34126,44.40008],[-122.33843,44.40103],[-122.33715,44.40155],[-122.3355,44.4028],[-122.33468,44.4031],[-122.33364,44.40309],[-122.32846,44.40222],[-122.32744,44.40223],[-122.32483,44.40273],[-122.32361,44.40282],[-122.32218,44.40273],[-122.31765,44.40209],[-122.31677,44.40204],[-122.31586,44.40225],[-122.31459,44.40297],[-122.31271,44.40341],[-122.3111,44.40443],[-122.31028,44.40475],[-122.3085,44.40523],[-122.30523,44.40563],[-122.30447,44.40558],[-122.3035,44.40525],[-122.30291,44.40486],[-122.30232,44.40408],[-122.30174,44.40373],[-122.30126,44.40363],[-122.29925,44.40354],[-122.29787,44.40359],[-122.29685,44.40377],[-122.29556,44.40427],[-122.29445,44.40504],[-122.29326,44.40639],[-122.29282,44.40663],[-122.2922,44.40676],[-122.28177,44.40602],[-122.2798,44.40578],[-122.2783,44.40518],[-122.27578,44.403],[-122.27441,44.40212],[-122.27402,44.40204],[-122.27343,44.40206],[-122.27165,44.4027],[-122.27075,44.40283],[-122.26991,44.4028],[-122.26917,44.40247],[-122.26827,44.40115],[-122.26752,44.40055],[-122.26644,44.40022],[-122.2641,44.4001],[-122.2621,44.39971],[-122.26164,44.39937],[-122.26148,44.39854],[-122.26101,44.39816],[-122.26044,44.39806],[-122.25931,44.39835],[-122.25858,44.39836],[-122.25664,44.3975],[-122.25424,44.39717],[-122.25148,44.39627],[-122.2503,44.39569],[-122.2495,44.39543],[-122.24826,44.39529],[-122.24497,44.39516],[-122.24418,44.39525],[-122.24039,44.39603],[-122.23873,44.39638],[-122.23828,44.39654],[-122.23784,44.397],[-122.2378,44.3973],[-122.23802,44.39808],[-122.23787,44.39844],[-122.23761,44.39863],[-122.23724,44.39877],[-122.236,44.39882],[-122.23479,44.39959],[-122.23374,44.40004],[-122.23315,44.40017],[-122.23222,44.40019],[-122.23169,44.4004],[-122.23115,44.40137],[-122.23021,44.40234],[-122.22866,44.40343],[-122.22846,44.4038],[-122.22844,44.40462],[-122.22826,44.40496],[-122.228,44.40518],[-122.22723,44.40533],[-122.22588,44.40491],[-122.22524,44.40494],[-122.22454,44.40529],[-122.22374,44.40623],[-122.22312,44.40656],[-122.22157,44.40691],[-122.21977,44.40667],[-122.21899,44.40679],[-122.21828,44.40725],[-122.21704,44.40892],[-122.21648,44.40921],[-122.21584,44.40928],[-122.21501,44.40904],[-122.21271,44.40721],[-122.21095,44.4061],[-122.21063,44.40553],[-122.21076,44.40494],[-122.21116,44.40454],[-122.21382,44.40319],[-122.21465,44.40237],[-122.21495,44.4015],[-122.21481,44.39955],[-122.21492,44.3987],[-122.21513,44.39847],[-122.21719,44.39741],[-122.21784,44.3972],[-122.21836,44.39716],[-122.22144,44.39741],[-122.22211,44.39726],[-122.22252,44.39695],[-122.22332,44.39604],[-122.2253,44.39513],[-122.2257,44.39473],[-122.2258,44.39422],[-122.2255,44.39385],[-122.22502,44.39368],[-122.22259,44.39386],[-122.22118,44.39371],[-122.21627,44.39247],[-122.2152,44.39202],[-122.21481,44.39163],[-122.21461,44.39122],[-122.21449,44.39009],[-122.21422,44.38955],[-122.21382,44.38921],[-122.21243,44.38854],[-122.212,44.38815],[-122.2118,44.3878],[-122.21168,44.38734],[-122.21173,44.38694],[-122.2123,44.3855],[-122.21222,44.38487],[-122.212,44.38442],[-122.21143,44.38384],[-122.21095,44.38357],[-122.21012,44.38331],[-122.20926,44.38325],[-122.20733,44.38346],[-122.20645,44.38375],[-122.20612,44.38394],[-122.20579,44.38436],[-122.20543,44.38578],[-122.20491,44.38638],[-122.20406,44.38702],[-122.2025,44.38762],[-122.20126,44.38765],[-122.20017,44.38789],[-122.19819,44.38868],[-122.19623,44.38876],[-122.19469,44.38871],[-122.19318,44.3891],[-122.19245,44.38915],[-122.18869,44.38842],[-122.18796,44.38836],[-122.18713,44.38851],[-122.18585,44.38908],[-122.18525,44.38916],[-122.18449,44.389],[-122.18314,44.38836],[-122.18264,44.38831],[-122.18212,44.38839],[-122.18136,44.38882],[-122.17945,44.39081],[-122.17932,44.39121],[-122.17935,44.39164],[-122.1799,44.39259],[-122.18,44.39299],[-122.17987,44.3934],[-122.17958,44.39367],[-122.1791,44.39385],[-122.17849,44.39389],[-122.17803,44.39385],[-122.17709,44.39356],[-122.17664,44.39356],[-122.17561,44.39391],[-122.17426,44.39405],[-122.17009,44.39482],[-122.16873,44.39538],[-122.16689,44.39692],[-122.16611,44.39722],[-122.16558,44.39724],[-122.16487,44.39701],[-122.16363,44.39601],[-122.16314,44.39577],[-122.15998,44.39505],[-122.15844,44.39425],[-122.15783,44.39404],[-122.15676,44.39404],[-122.15465,44.39458],[-122.15357,44.39471],[-122.15254,44.39465],[-122.15052,44.39422],[-122.14983,44.39421],[-122.14887,44.39441],[-122.14739,44.39524],[-122.14644,44.39553],[-122.14227,44.39564],[-122.14156,44.39574],[-122.14065,44.39618],[-122.13845,44.39806],[-122.13749,44.39866],[-122.13626,44.39907],[-122.13462,44.39916],[-122.13336,44.39891],[-122.13026,44.39785],[-122.12058,44.396],[-122.11258,44.39353],[-122.1112,44.39334],[-122.10975,44.39336],[-122.10869,44.39354],[-122.10732,44.394],[-122.10437,44.39576],[-122.10332,44.39622],[-122.10222,44.39654],[-122.09868,44.3971],[-122.0979,44.39733],[-122.09697,44.3978],[-122.09508,44.39916],[-122.09415,44.3996],[-122.08525,44.40254],[-122.08294,44.40311],[-122.05887,44.40769],[-122.05731,44.40806],[-122.05619,44.40849],[-122.05505,44.40915],[-122.05227,44.41157],[-122.05029,44.41271],[-122.0483,44.4134],[-122.04284,44.41482],[-122.04148,44.41497],[-122.0397,44.41499],[-122.02977,44.41415],[-122.02864,44.41386],[-122.02754,44.41335],[-122.02512,44.41143],[-122.02387,44.41074],[-122.0229,44.41043],[-122.02198,44.41028],[-122.02095,44.41024],[-122.01972,44.41038],[-122.01874,44.41064],[-122.01764,44.41117],[-122.0034,44.42027],[-122.00042,44.42191],[-121.99831,44.42275],[-121.97394,44.43116],[-121.9713,44.43202],[-121.96855,44.43253],[-121.95823,44.43295],[-121.95457,44.43332],[-121.95234,44.43379],[-121.94389,44.43614],[-121.94154,44.43654],[-121.93902,44.43654],[-121.93828,44.43643],[-121.92723,44.43408],[-121.92658,44.43388],[-121.92618,44.43366],[-121.92568,44.43306],[-121.92554,44.43231],[-121.92557,44.43164],[-121.92548,44.43128],[-121.92522,44.43089],[-121.92255,44.42892],[-121.9214,44.42863],[-121.9053,44.42935],[-121.90309,44.4292],[-121.90179,44.429],[-121.89897,44.42833],[-121.89763,44.42827],[-121.89253,44.42873],[-121.8916,44.42898],[-121.89037,44.42951],[-121.88918,44.42983],[-121.8885,44.4299],[-121.8849,44.42984],[-121.88427,44.42991],[-121.88076,44.43099],[-121.87997,44.43114],[-121.8783,44.43119],[-121.87632,44.43105],[-121.87567,44.43092],[-121.87519,44.43068],[-121.87483,44.43034],[-121.87464,44.43003],[-121.87462,44.4294],[-121.87508,44.42877],[-121.87703,44.42746],[-121.87773,44.42678],[-121.87791,44.42637],[-121.87853,44.42343],[-121.87847,44.42205],[-121.87784,44.42098],[-121.87664,44.41985],[-121.87617,44.41955],[-121.87519,44.41915],[-121.873,44.41887],[-121.87196,44.41903],[-121.86842,44.42052],[-121.86704,44.42089],[-121.85722,44.42215],[-121.84552,44.42475],[-121.84238,44.42534],[-121.84074,44.42527],[-121.83723,44.42439],[-121.83539,44.42383],[-121.83395,44.42299],[-121.83307,44.42279],[-121.83259,44.42276],[-121.83155,44.42291],[-121.82981,44.42344],[-121.8292,44.42348],[-121.82776,44.42335],[-121.82678,44.42344],[-121.82627,44.42361],[-121.82394,44.42475],[-121.8233,44.42496],[-121.82221,44.42522],[-121.82033,44.42538],[-121.81907,44.4253],[-121.81566,44.42447],[-121.81439,44.42443],[-121.81252,44.42458],[-121.81087,44.42443],[-121.80585,44.42325],[-121.80444,44.42301],[-121.80345,44.42311],[-121.80203,44.42366],[-121.80087,44.4239],[-121.8003,44.42391],[-121.79663,44.42343],[-121.79285,44.4225],[-121.79107,44.42138],[-121.78995,44.42087],[-121.78402,44.41916],[-121.7812,44.41862],[-121.77954,44.41856],[-121.77531,44.41884],[-121.7734,44.41886],[-121.76646,44.41839],[-121.7658,44.41841],[-121.7649,44.41849],[-121.76371,44.41877],[-121.76053,44.42014],[-121.75823,44.42089],[-121.75088,44.42285],[-121.73871,44.42551],[-121.7369,44.42604],[-121.73381,44.42723],[-121.7308,44.42804],[-121.72954,44.42819],[-121.72163,44.42841],[-121.72076,44.42852],[-121.71571,44.42975],[-121.71487,44.42983],[-121.71384,44.42967],[-121.71321,44.42941],[-121.71263,44.42902],[-121.71099,44.42751],[-121.7071,44.42383],[-121.70019,44.4169],[-121.68324,44.40042],[-121.67792,44.39542],[-121.65778,44.38175],[-121.65576,44.38058],[-121.65366,44.37985],[-121.62869,44.37311],[-121.62643,44.37222],[-121.62462,44.37118],[-121.62372,44.37053],[-121.62234,44.36919],[-121.62063,44.36721],[-121.5689,44.30662]]]}}]}
