{"type":"FeatureCollection","features":[{"type":"Feature","properties":{"id":"latigo-canyon","name":"Latigo Canyon Road","difficulty":3,"character":"Technical"},"geometry":{"type":"Point","coordinates":[-118.7831357,34.0675864]}},{"type":"Feature","properties":{"id":"piuma-road","name":"Piuma Road","difficulty":3,"character":"Technical"},"geometry":{"type":"Point","coordinates":[-118.6950505,34.0721399]}},{"type":"Feature","properties":{"id":"stunt-road","name":"Stunt Road","difficulty":3,"character":"Technical"},"geometry":{"type":"Point","coordinates":[-118.6583379,34.0909937]}},{"type":"Feature","properties":{"id":"schueren-saddle-peak","name":"Schueren / Saddle Peak connector","difficulty":3,"character":"Technical"},"geometry":{"type":"Point","coordinates":[-118.6448213,34.0752875]}},{"type":"Feature","properties":{"id":"decker-canyon","name":"Decker Road \u00b7 SR 23","difficulty":3,"character":"Technical"},"geometry":{"type":"Point","coordinates":[-118.8950575,34.0667736]}},{"type":"Feature","properties":{"id":"encinal-canyon","name":"Encinal Canyon Road","difficulty":2,"character":"Medium speed"},"geometry":{"type":"Point","coordinates":[-118.8751995,34.06704]}},{"type":"Feature","properties":{"id":"mulholland-highway-malibu","name":"Mulholland Highway \u00b7 Malibu mountains","difficulty":2,"character":"Medium speed"},"geometry":{"type":"Point","coordinates":[-118.846754,34.1042972]}},{"type":"Feature","properties":{"id":"pch-malibu","name":"Pacific Coast Highway \u00b7 Malibu","difficulty":1,"character":"Medium speed"},"geometry":{"type":"Point","coordinates":[-118.7772888,34.0259193]}},{"type":"Feature","properties":{"id":"angeles-crest-west","name":"Angeles Crest Highway \u00b7 western SR 2","difficulty":2,"character":"Medium speed"},"geometry":{"type":"Point","coordinates":[-118.1531297,34.2702723]}},{"type":"Feature","properties":{"id":"angeles-forest","name":"Angeles Forest Highway \u00b7 N3","difficulty":2,"character":"Medium speed"},"geometry":{"type":"Point","coordinates":[-118.179459,34.282805]}},{"type":"Feature","properties":{"id":"big-tujunga","name":"Big Tujunga Canyon Road","difficulty":2,"character":"Medium speed"},"geometry":{"type":"Point","coordinates":[-118.234385,34.2935675]}},{"type":"Feature","properties":{"id":"upper-big-tujunga","name":"Upper Big Tujunga Canyon Road","difficulty":2,"character":"Medium speed"},"geometry":{"type":"Point","coordinates":[-118.0688548,34.307519]}},{"type":"Feature","properties":{"id":"glendora-mountain","name":"Glendora Mountain Road \u00b7 GMR","difficulty":3,"character":"Technical"},"geometry":{"type":"Point","coordinates":[-117.841682,34.1880342]}},{"type":"Feature","properties":{"id":"glendora-ridge","name":"Glendora Ridge Road \u00b7 GRR","difficulty":3,"character":"Technical"},"geometry":{"type":"Point","coordinates":[-117.73513,34.226098]}},{"type":"Feature","properties":{"id":"mount-baldy-road","name":"Mount Baldy Road","difficulty":2,"character":"Medium speed"},"geometry":{"type":"Point","coordinates":[-117.6767634,34.1848219]}},{"type":"Feature","properties":{"id":"santiago-canyon","name":"Santiago Canyon Road","difficulty":2,"character":"High speed"},"geometry":{"type":"Point","coordinates":[-117.6777568,33.7479704]}},{"type":"Feature","properties":{"id":"live-oak-trabuco","name":"Live Oak / Trabuco Canyon","difficulty":2,"character":"Low speed"},"geometry":{"type":"Point","coordinates":[-117.6023091,33.6708537]}},{"type":"Feature","properties":{"id":"ortega-highway","name":"Ortega Highway \u00b7 SR 74","difficulty":3,"character":"Technical"},"geometry":{"type":"Point","coordinates":[-117.4996997,33.5903733]}},{"type":"Feature","properties":{"id":"carbon-canyon","name":"Carbon Canyon Road \u00b7 SR 142","difficulty":2,"character":"Medium speed"},"geometry":{"type":"Point","coordinates":[-117.7863648,33.942336]}},{"type":"Feature","properties":{"id":"pch-orange-county","name":"Pacific Coast Highway \u00b7 Orange County","difficulty":1,"character":"Low speed"},"geometry":{"type":"Point","coordinates":[-117.7995047,33.5481518]}},{"type":"Feature","properties":{"id":"the-snake","name":"Mulholland Highway \u00b7 The Snake","difficulty":3,"character":"Technical"},"geometry":{"type":"Point","coordinates":[-118.7288276,34.105883]}},{"type":"Feature","properties":{"id":"mulholland-drive","name":"Mulholland Drive","difficulty":2,"character":"Low speed"},"geometry":{"type":"Point","coordinates":[-118.3985154,34.1217171]}},{"type":"Feature","properties":{"id":"angeles-crest-newcombs","name":"Angeles Crest Highway \u00b7 to Newcomb's Ranch","difficulty":2,"character":"Medium speed"},"geometry":{"type":"Point","coordinates":[-117.9987167,34.2933697]}},{"type":"Feature","properties":{"id":"east-fork-road","name":"East Fork Road","difficulty":2,"character":"Medium speed"},"geometry":{"type":"Point","coordinates":[-117.8123556,34.2373057]}},{"type":"Feature","properties":{"id":"bouquet-canyon","name":"Bouquet Canyon Road","difficulty":2,"character":"Medium speed"},"geometry":{"type":"Point","coordinates":[-118.3806521,34.5768267]}},{"type":"Feature","properties":{"id":"lake-hughes-road","name":"Lake Hughes Road","difficulty":2,"character":"Medium speed"},"geometry":{"type":"Point","coordinates":[-118.5615765,34.5929937]}},{"type":"Feature","properties":{"id":"corral-canyon","name":"Corral Canyon Road","difficulty":3,"character":"Technical"},"geometry":{"type":"Point","coordinates":[-118.7409212,34.059032]}},{"type":"Feature","properties":{"id":"deer-creek","name":"Deer Creek Road","difficulty":3,"character":"Technical"},"geometry":{"type":"Point","coordinates":[-118.9925087,34.0721817]}},{"type":"Feature","properties":{"id":"modjeska-grade","name":"Modjeska Grade Road","difficulty":3,"character":"Technical"},"geometry":{"type":"Point","coordinates":[-117.6366513,33.7027646]}},{"type":"Feature","properties":{"id":"old-topanga-canyon","name":"Old Topanga Canyon Road","difficulty":3,"character":"Technical"},"geometry":{"type":"Point","coordinates":[-118.6336676,34.1154427]}},{"type":"Feature","properties":{"id":"tuna-canyon","name":"Tuna Canyon Road","difficulty":3,"character":"Technical"},"geometry":{"type":"Point","coordinates":[-118.6009172,34.0571814]}},{"type":"Feature","properties":{"id":"little-tujunga","name":"Little Tujunga Canyon Road","difficulty":3,"character":"Technical"},"geometry":{"type":"Point","coordinates":[-118.3381417,34.3358662]}}]}
