{"type":"FeatureCollection","features":[{"type":"Feature","properties":{"id":"north-cascades-highway","name":"North Cascades Highway \u00b7 SR 20","difficulty":2,"character":"Medium speed"},"geometry":{"type":"Point","coordinates":[-120.8208195,48.6091964]}},{"type":"Feature","properties":{"id":"sherman-pass","name":"Sherman Pass \u00b7 SR 20","difficulty":1,"character":"Medium speed"},"geometry":{"type":"Point","coordinates":[-118.4407831,48.629707]}},{"type":"Feature","properties":{"id":"chuckanut-drive","name":"Chuckanut Drive \u00b7 SR 11","difficulty":2,"character":"Technical"},"geometry":{"type":"Point","coordinates":[-122.4219158,48.5969649]}},{"type":"Feature","properties":{"id":"yakima-canyon-road","name":"Yakima Canyon Road \u00b7 SR 821","difficulty":2,"character":"Technical"},"geometry":{"type":"Point","coordinates":[-120.4537026,46.8174104]}},{"type":"Feature","properties":{"id":"chinook-pass","name":"Chinook Pass \u00b7 SR 410","difficulty":2,"character":"Medium speed"},"geometry":{"type":"Point","coordinates":[-121.5052812,46.8859955]}},{"type":"Feature","properties":{"id":"white-pass","name":"White Pass \u00b7 US 12","difficulty":1,"character":"Medium speed"},"geometry":{"type":"Point","coordinates":[-121.2170895,46.6434286]}},{"type":"Feature","properties":{"id":"stevens-canyon-road","name":"Stevens Canyon Road","difficulty":2,"character":"Technical"},"geometry":{"type":"Point","coordinates":[-121.6251577,46.7562594]}},{"type":"Feature","properties":{"id":"columbia-river-gorge-wa","name":"Columbia River Gorge \u00b7 SR 14","difficulty":1,"character":"Medium speed"},"geometry":{"type":"Point","coordinates":[-122.1037125,45.6025207]}}]}
