{"type":"FeatureCollection","features":[{"type":"Feature","properties":{"id":"north-cascades-highway","name":"North Cascades Highway \u00b7 SR 20","difficulty":2,"character":"Medium speed"},"geometry":{"type":"MultiLineString","coordinates":[[[-121.43064,48.53248],[-121.43046,48.53315],[-121.42853,48.53759],[-121.42801,48.53829],[-121.42593,48.54052],[-121.42561,48.54114],[-121.42527,48.54222],[-121.42522,48.54482],[-121.42479,48.54729],[-121.42411,48.549],[-121.42298,48.55063],[-121.42217,48.55231],[-121.41983,48.55479],[-121.41871,48.55627],[-121.41085,48.56427],[-121.41011,48.56653],[-121.4091,48.5734],[-121.40771,48.57508],[-121.4073,48.57737],[-121.40705,48.57806],[-121.40612,48.5795],[-121.40412,48.581],[-121.40258,48.58303],[-121.40198,48.5836],[-121.40116,48.58423],[-121.3956,48.58766],[-121.39474,48.58799],[-121.39358,48.58822],[-121.38767,48.58858],[-121.38492,48.58924],[-121.38317,48.58936],[-121.38188,48.58955],[-121.38122,48.58973],[-121.37864,48.59074],[-121.37588,48.59197],[-121.37321,48.59407],[-121.37275,48.59457],[-121.37111,48.59729],[-121.37051,48.5988],[-121.36914,48.60014],[-121.36849,48.60111],[-121.36614,48.60239],[-121.3652,48.60315],[-121.36395,48.60397],[-121.36224,48.60635],[-121.36198,48.60702],[-121.36189,48.60772],[-121.36193,48.60967],[-121.36217,48.61204],[-121.36172,48.61302],[-121.36168,48.61385],[-121.36139,48.61429],[-121.3596,48.61534],[-121.35831,48.61582],[-121.35699,48.61621],[-121.35513,48.61656],[-121.35392,48.61699],[-121.35296,48.61707],[-121.35246,48.61723],[-121.35075,48.61883],[-121.3471,48.6231],[-121.34639,48.62408],[-121.34575,48.62461],[-121.34484,48.62492],[-121.34368,48.62516],[-121.34086,48.62553],[-121.33807,48.62734],[-121.33692,48.62778],[-121.33463,48.6283],[-121.33265,48.62844],[-121.33096,48.6288],[-121.32828,48.62994],[-121.32569,48.63164],[-121.3244,48.63238],[-121.32326,48.6329],[-121.32203,48.6339],[-121.32148,48.63486],[-121.32101,48.63532],[-121.31688,48.63774],[-121.30537,48.64785],[-121.30355,48.64986],[-121.3029,48.65044],[-121.29927,48.65271],[-121.29399,48.65682],[-121.29051,48.65857],[-121.28732,48.66165],[-121.28498,48.6634],[-121.28296,48.66452],[-121.28067,48.66596],[-121.26897,48.67347],[-121.26811,48.67379],[-121.26713,48.67394],[-121.26333,48.67382],[-121.26228,48.6737],[-121.26034,48.6732],[-121.2531,48.67246],[-121.25132,48.67268],[-121.24322,48.67463],[-121.24262,48.675],[-121.24243,48.67548],[-121.24301,48.6773],[-121.24275,48.67887],[-121.24292,48.6806],[-121.24278,48.68136],[-121.24289,48.68218],[-121.24261,48.68299],[-121.24205,48.68376],[-121.24203,48.6844],[-121.24177,48.68483],[-121.24094,48.68536],[-121.23996,48.68571],[-121.23849,48.68641],[-121.23743,48.68744],[-121.23681,48.68781],[-121.23601,48.68796],[-121.23504,48.68778],[-121.23453,48.68777],[-121.23267,48.68822],[-121.2322,48.68841],[-121.23088,48.68926],[-121.22864,48.68975],[-121.22573,48.69085],[-121.2237,48.6922],[-121.22134,48.6934],[-121.22,48.69477],[-121.21903,48.69543],[-121.21672,48.69662],[-121.21603,48.69719],[-121.21433,48.69904],[-121.21341,48.69962],[-121.21256,48.69986],[-121.21117,48.70006],[-121.21051,48.70026],[-121.20996,48.70053],[-121.209,48.70122],[-121.20872,48.7013],[-121.20819,48.7012],[-121.20679,48.70049],[-121.20566,48.70031],[-121.20467,48.70045],[-121.1995,48.70153],[-121.19851,48.70166],[-121.19466,48.70139],[-121.19307,48.70147],[-121.19232,48.70177],[-121.19115,48.70288],[-121.19047,48.7031],[-121.18807,48.70357],[-121.18673,48.70446],[-121.18455,48.70519],[-121.18386,48.70522],[-121.18229,48.70484],[-121.18102,48.70494],[-121.17948,48.70472],[-121.17879,48.70479],[-121.17559,48.7058],[-121.17361,48.70678],[-121.1722,48.7071],[-121.16872,48.70833],[-121.1675,48.70891],[-121.16447,48.71011],[-121.162,48.71168],[-121.16108,48.71199],[-121.15982,48.71222],[-121.15836,48.71221],[-121.15182,48.71146],[-121.15106,48.71156],[-121.14961,48.71227],[-121.14881,48.71228],[-121.14818,48.712],[-121.14709,48.7105],[-121.14619,48.7099],[-121.14568,48.70978],[-121.14521,48.7098],[-121.14334,48.71044],[-121.14242,48.71044],[-121.14194,48.7102],[-121.14127,48.70934],[-121.14071,48.70892],[-121.13956,48.70825],[-121.1385,48.70794],[-121.13812,48.70795],[-121.13761,48.70813],[-121.13654,48.7089],[-121.13452,48.71137],[-121.13363,48.71179],[-121.13258,48.71185],[-121.13154,48.71158],[-121.13018,48.71112],[-121.12914,48.71037],[-121.12845,48.71016],[-121.12672,48.71043],[-121.12439,48.71058],[-121.12236,48.71094],[-121.12167,48.71083],[-121.12063,48.71002],[-121.11964,48.70952],[-121.11863,48.70882],[-121.11506,48.70736],[-121.11397,48.7062],[-121.11249,48.70541],[-121.1123,48.70509],[-121.11202,48.7039],[-121.11103,48.70251],[-121.11065,48.70166],[-121.10963,48.69599],[-121.10917,48.69519],[-121.10874,48.69481],[-121.10526,48.69253],[-121.10497,48.69214],[-121.10445,48.69083],[-121.10366,48.69004],[-121.10289,48.68966],[-121.1017,48.68936],[-121.10092,48.68932],[-121.0998,48.68947],[-121.09507,48.69127],[-121.09469,48.69153],[-121.09454,48.6918],[-121.09458,48.69218],[-121.09524,48.6931],[-121.09546,48.69369],[-121.09545,48.69437],[-121.09516,48.69538],[-121.09564,48.69896],[-121.09587,48.69954],[-121.09645,48.70032],[-121.09656,48.70069],[-121.09646,48.70125],[-121.09588,48.702],[-121.09571,48.7026],[-121.09633,48.70468],[-121.0962,48.70518],[-121.09569,48.70592],[-121.09573,48.70697],[-121.09593,48.70753],[-121.09651,48.70836],[-121.09666,48.70879],[-121.09653,48.70924],[-121.09625,48.70959],[-121.09575,48.70988],[-121.09521,48.71001],[-121.09282,48.70993],[-121.09238,48.70977],[-121.09196,48.70948],[-121.09141,48.70875],[-121.09074,48.70818],[-121.09012,48.70798],[-121.08938,48.70795],[-121.08866,48.70808],[-121.08694,48.70865],[-121.08542,48.70896],[-121.08423,48.70946],[-121.08293,48.70969],[-121.0811,48.71084],[-121.07925,48.71168],[-121.07889,48.71203],[-121.07894,48.71241],[-121.07947,48.7135],[-121.07954,48.71446],[-121.07925,48.71537],[-121.07817,48.71655],[-121.07743,48.71698],[-121.07692,48.71715],[-121.07445,48.7176],[-121.07198,48.71862],[-121.07001,48.71906],[-121.06923,48.71948],[-121.06898,48.71982],[-121.06862,48.72095],[-121.06761,48.72201],[-121.06663,48.7239],[-121.06553,48.72481],[-121.06372,48.72598],[-121.06319,48.72687],[-121.06267,48.72747],[-121.06204,48.7278],[-121.06111,48.72807],[-121.05474,48.72904],[-121.05327,48.72912],[-121.05248,48.72902],[-121.0499,48.72825],[-121.04845,48.72806],[-121.04249,48.72831],[-121.04145,48.72819],[-121.03752,48.72728],[-121.03191,48.72528],[-121.02957,48.72482],[-121.02532,48.72424],[-121.02237,48.72326],[-121.02019,48.72282],[-121.01926,48.7224],[-121.01821,48.7216],[-121.01719,48.72126],[-121.01529,48.72089],[-121.01102,48.71883],[-121.01011,48.71862],[-121.00837,48.7184],[-121.00762,48.71815],[-121.003,48.71559],[-120.99645,48.71374],[-120.99202,48.71221],[-120.99065,48.71189],[-120.9896,48.71151],[-120.9883,48.71079],[-120.9867,48.71023],[-120.97986,48.70853],[-120.977,48.70737],[-120.97578,48.70696],[-120.97206,48.70631],[-120.96887,48.70532],[-120.96691,48.70519],[-120.96395,48.70589],[-120.96208,48.70586],[-120.96094,48.70593],[-120.95977,48.70614],[-120.9582,48.70621],[-120.95718,48.70614],[-120.95453,48.70564],[-120.95369,48.70532],[-120.95267,48.70471],[-120.95199,48.70442],[-120.95076,48.70411],[-120.95021,48.70407],[-120.9493,48.70417],[-120.9473,48.70484],[-120.94527,48.70517],[-120.94279,48.70521],[-120.94074,48.70473],[-120.93972,48.70466],[-120.93873,48.70482],[-120.93748,48.70529],[-120.93661,48.70547],[-120.93568,48.7054],[-120.93274,48.70478],[-120.93213,48.70477],[-120.929,48.7056],[-120.9271,48.70584],[-120.92203,48.70612],[-120.91956,48.70587],[-120.91704,48.70618],[-120.91632,48.7062],[-120.91535,48.70591],[-120.91497,48.70569],[-120.91423,48.70496],[-120.91235,48.70413],[-120.91057,48.70297],[-120.91004,48.70273],[-120.90782,48.70217],[-120.90617,48.70084],[-120.90189,48.69931],[-120.90052,48.69799],[-120.90013,48.69776],[-120.89855,48.69713],[-120.89805,48.69671],[-120.89724,48.69526],[-120.89673,48.6946],[-120.89493,48.69364],[-120.89388,48.69244],[-120.89122,48.69097],[-120.89072,48.69039],[-120.89032,48.68939],[-120.88992,48.68899],[-120.88922,48.68865],[-120.88776,48.68839],[-120.88725,48.68815],[-120.88681,48.68772],[-120.88627,48.68615],[-120.88493,48.68487],[-120.88347,48.68248],[-120.88302,48.6814],[-120.88169,48.67986],[-120.88152,48.67815],[-120.87926,48.67423],[-120.8774,48.67207],[-120.8769,48.67076],[-120.87642,48.66997],[-120.8739,48.66806],[-120.8736,48.66769],[-120.87333,48.66667],[-120.8727,48.66582],[-120.86825,48.66252],[-120.8653,48.66159],[-120.86481,48.66132],[-120.86369,48.66023],[-120.86307,48.65981],[-120.86151,48.65908],[-120.86077,48.65862],[-120.86009,48.65789],[-120.85892,48.6558],[-120.85907,48.65389],[-120.85833,48.65231],[-120.85804,48.64949],[-120.85732,48.64829],[-120.85714,48.64719],[-120.85698,48.6469],[-120.85592,48.64597],[-120.85385,48.6429],[-120.85227,48.64101],[-120.85185,48.64036],[-120.85051,48.63732],[-120.85004,48.6366],[-120.84653,48.63272],[-120.84601,48.63186],[-120.84551,48.63068],[-120.84491,48.6299],[-120.84318,48.62873],[-120.8423,48.62793],[-120.83995,48.62392],[-120.83921,48.62325],[-120.83561,48.62159],[-120.83487,48.62103],[-120.83339,48.61892],[-120.83253,48.61816],[-120.83167,48.6177],[-120.82902,48.61657],[-120.82683,48.61496],[-120.82594,48.61394],[-120.82488,48.61184],[-120.82409,48.61106],[-120.8204,48.60892],[-120.81122,48.60208],[-120.80816,48.59972],[-120.80505,48.59663],[-120.8045,48.59585],[-120.80262,48.58923],[-120.80138,48.58752],[-120.79901,48.58474],[-120.79809,48.58389],[-120.79463,48.58116],[-120.79354,48.57999],[-120.79261,48.5784],[-120.79183,48.57642],[-120.79078,48.57508],[-120.78928,48.57418],[-120.78781,48.57363],[-120.78556,48.57245],[-120.78225,48.56937],[-120.7817,48.56868],[-120.78089,48.56706],[-120.78048,48.5665],[-120.77922,48.56537],[-120.77776,48.56461],[-120.7736,48.5632],[-120.77297,48.56285],[-120.77192,48.56183],[-120.76897,48.55797],[-120.76877,48.55716],[-120.76862,48.55528],[-120.76824,48.55445],[-120.76546,48.5506],[-120.76492,48.54793],[-120.76457,48.54714],[-120.76364,48.54625],[-120.76158,48.54501],[-120.7608,48.54417],[-120.75664,48.53712],[-120.75569,48.53589],[-120.75516,48.53543],[-120.75421,48.53489],[-120.74882,48.53288],[-120.74762,48.53235],[-120.73627,48.52463],[-120.73548,48.5239],[-120.73497,48.52322],[-120.73464,48.52254],[-120.7341,48.52057],[-120.73389,48.51268],[-120.73374,48.51127],[-120.73326,48.51039],[-120.73146,48.50844],[-120.73109,48.50772],[-120.73073,48.50624],[-120.73045,48.50578],[-120.72983,48.50526],[-120.72899,48.50489],[-120.72771,48.50475],[-120.7241,48.50494],[-120.71579,48.50437],[-120.71398,48.50406],[-120.71039,48.50307],[-120.7062,48.5014],[-120.70549,48.50133],[-120.70455,48.50143],[-120.70413,48.50158],[-120.70353,48.50198],[-120.70118,48.50388],[-120.69812,48.50519],[-120.69717,48.50568],[-120.69062,48.51153],[-120.68302,48.51657],[-120.68222,48.51699],[-120.67802,48.51864],[-120.67217,48.52039],[-120.67142,48.52076],[-120.66814,48.52299],[-120.66342,48.52439],[-120.66244,48.52459],[-120.66149,48.52464],[-120.65655,48.52429],[-120.65573,48.52417],[-120.65454,48.52374],[-120.64978,48.52088],[-120.64725,48.51699],[-120.64489,48.51469],[-120.64446,48.51441],[-120.64382,48.51427],[-120.64336,48.51429],[-120.64272,48.51446],[-120.6423,48.51491],[-120.64222,48.51514],[-120.64223,48.51541],[-120.64251,48.51584],[-120.64305,48.51611],[-120.64453,48.51649],[-120.64503,48.51677],[-120.64547,48.51718],[-120.6458,48.51777],[-120.64638,48.51893],[-120.64656,48.51981],[-120.64663,48.52068],[-120.64652,48.52154],[-120.64563,48.52439],[-120.64271,48.52975],[-120.64049,48.53195],[-120.63934,48.53355],[-120.63217,48.54506],[-120.63094,48.54888],[-120.63087,48.54986],[-120.63123,48.55216],[-120.63118,48.55452],[-120.63128,48.55533],[-120.63258,48.55955],[-120.63353,48.56143],[-120.63394,48.56183],[-120.63572,48.56279],[-120.63613,48.56316],[-120.63637,48.56383],[-120.63626,48.56431],[-120.63434,48.56694],[-120.6324,48.57],[-120.63123,48.57236],[-120.63102,48.57327],[-120.63085,48.57535],[-120.63055,48.57628],[-120.62959,48.57795],[-120.62909,48.57852],[-120.62252,48.58317],[-120.62009,48.58428],[-120.61956,48.58462],[-120.61915,48.58501],[-120.61639,48.58883],[-120.6154,48.58964],[-120.61392,48.59031],[-120.61298,48.59056],[-120.60998,48.59111],[-120.60917,48.59143],[-120.60158,48.59646],[-120.6005,48.59694],[-120.59871,48.5973],[-120.58956,48.59869],[-120.58746,48.59866],[-120.58319,48.59833],[-120.58094,48.59835],[-120.5745,48.59909],[-120.57372,48.59925],[-120.57112,48.6001],[-120.57043,48.60018],[-120.56692,48.60008],[-120.56011,48.60103],[-120.5584,48.60118],[-120.55568,48.60103],[-120.5472,48.59959],[-120.53875,48.59872],[-120.53782,48.59875],[-120.53449,48.59931],[-120.53328,48.59938],[-120.53251,48.59929],[-120.52533,48.59753],[-120.52386,48.59703],[-120.52298,48.5966],[-120.52015,48.59476],[-120.51611,48.5933],[-120.51258,48.59136],[-120.5117,48.591],[-120.50706,48.59015],[-120.50134,48.58842],[-120.49958,48.5882],[-120.49884,48.58825],[-120.49633,48.58879],[-120.49447,48.58887],[-120.49305,48.58865],[-120.48772,48.5872],[-120.48579,48.5869],[-120.4792,48.58682],[-120.47776,48.58692],[-120.47571,48.5875],[-120.47397,48.58823],[-120.47309,48.589],[-120.47233,48.58934],[-120.47007,48.58998],[-120.46868,48.59024],[-120.46511,48.59067],[-120.46412,48.59096],[-120.46078,48.59256],[-120.45861,48.5942],[-120.45766,48.59509],[-120.45661,48.59574],[-120.45534,48.59615],[-120.44453,48.5978],[-120.43958,48.59797],[-120.43751,48.59796],[-120.43482,48.5977],[-120.43141,48.59685],[-120.4288,48.59574],[-120.42546,48.59406],[-120.41549,48.58858],[-120.41437,48.58809],[-120.41349,48.58789],[-120.41083,48.58753],[-120.40921,48.5871],[-120.39242,48.57947],[-120.39163,48.579],[-120.39028,48.57781],[-120.3885,48.57605],[-120.38617,48.57407],[-120.38297,48.57099],[-120.38151,48.57022],[-120.37916,48.56954],[-120.37578,48.56871],[-120.37367,48.56789],[-120.3722,48.56685],[-120.36746,48.56186],[-120.36646,48.56123],[-120.36477,48.56041],[-120.36042,48.55885],[-120.35836,48.55792],[-120.35321,48.55446],[-120.35014,48.55255],[-120.347,48.55139],[-120.33971,48.54895],[-120.336,48.54715],[-120.33245,48.54559],[-120.33106,48.54524],[-120.32831,48.54517],[-120.32699,48.54504],[-120.32413,48.54436],[-120.32228,48.54356],[-120.32118,48.5428],[-120.32021,48.54177],[-120.31761,48.53754],[-120.31675,48.53663],[-120.31537,48.53569],[-120.30668,48.53253],[-120.30516,48.53214],[-120.3026,48.53174],[-120.30125,48.53139],[-120.29608,48.52918],[-120.29025,48.52702],[-120.27642,48.52169],[-120.27468,48.5209],[-120.27363,48.52014],[-120.27141,48.51789],[-120.27042,48.51719],[-120.26656,48.51495],[-120.26576,48.51458],[-120.26213,48.5133],[-120.2609,48.51274],[-120.25928,48.51162],[-120.25503,48.50675],[-120.25439,48.50574],[-120.25275,48.50259],[-120.25233,48.5021],[-120.25137,48.50134],[-120.25046,48.50081],[-120.24386,48.49763],[-120.23853,48.49537],[-120.23742,48.49478],[-120.23306,48.49229],[-120.22831,48.48882],[-120.22711,48.48817],[-120.22576,48.48761],[-120.22396,48.48714],[-120.21913,48.48663],[-120.21745,48.48626],[-120.2137,48.48477],[-120.21075,48.48392],[-120.19836,48.47957],[-120.19376,48.47809],[-120.1932,48.47796],[-120.19152,48.47784],[-120.18752,48.47711],[-120.18673,48.4772]]]}},{"type":"Feature","properties":{"id":"sherman-pass","name":"Sherman Pass \u00b7 SR 20","difficulty":1,"character":"Medium speed"},"geometry":{"type":"MultiLineString","coordinates":[[[-118.73863,48.64766],[-118.73803,48.64771],[-118.73735,48.64341],[-118.737,48.64267],[-118.73638,48.64192],[-118.73494,48.64072],[-118.73461,48.64054],[-118.73408,48.64046],[-118.72902,48.64225],[-118.72398,48.64418],[-118.72186,48.64551],[-118.72141,48.6459],[-118.71999,48.64764],[-118.71944,48.64809],[-118.71819,48.64888],[-118.71734,48.64926],[-118.71536,48.64982],[-118.7103,48.65046],[-118.70751,48.65092],[-118.7046,48.65172],[-118.70198,48.65268],[-118.70067,48.653],[-118.69924,48.6531],[-118.69799,48.653],[-118.69604,48.65259],[-118.69262,48.6516],[-118.69078,48.65119],[-118.68967,48.65106],[-118.68632,48.65107],[-118.68494,48.65068],[-118.6844,48.65026],[-118.68407,48.64978],[-118.68396,48.64905],[-118.68422,48.64841],[-118.68563,48.64671],[-118.68581,48.64584],[-118.68575,48.64535],[-118.68537,48.64462],[-118.67838,48.63776],[-118.6778,48.63704],[-118.67748,48.63612],[-118.67643,48.6292],[-118.67575,48.62732],[-118.67524,48.62642],[-118.67462,48.62551],[-118.66197,48.61084],[-118.65332,48.60062],[-118.652,48.59948],[-118.65059,48.59869],[-118.6492,48.59817],[-118.64441,48.59735],[-118.63298,48.59584],[-118.63212,48.59585],[-118.63112,48.59607],[-118.63034,48.59641],[-118.62872,48.59767],[-118.62764,48.59827],[-118.62552,48.59899],[-118.62376,48.59929],[-118.62131,48.59947],[-118.62046,48.5997],[-118.61903,48.60043],[-118.61751,48.60106],[-118.61597,48.60147],[-118.61419,48.60178],[-118.61133,48.60188],[-118.61047,48.60201],[-118.6097,48.60231],[-118.60853,48.60319],[-118.60781,48.60352],[-118.60683,48.6037],[-118.60444,48.60387],[-118.60228,48.60439],[-118.59271,48.60795],[-118.59139,48.60852],[-118.59014,48.60944],[-118.58837,48.61102],[-118.58727,48.61163],[-118.58622,48.61202],[-118.58517,48.61228],[-118.57854,48.6133],[-118.57765,48.61334],[-118.5768,48.61325],[-118.57507,48.61251],[-118.57441,48.61242],[-118.57388,48.61247],[-118.57312,48.61279],[-118.57212,48.61385],[-118.5715,48.6143],[-118.57072,48.6146],[-118.56784,48.61538],[-118.56701,48.61519],[-118.56655,48.61479],[-118.56646,48.61416],[-118.56685,48.61299],[-118.56662,48.61248],[-118.56615,48.61224],[-118.56561,48.6122],[-118.56509,48.61237],[-118.56411,48.61349],[-118.56335,48.6139],[-118.56244,48.61398],[-118.56093,48.61376],[-118.56013,48.61373],[-118.55742,48.61403],[-118.55409,48.61382],[-118.55327,48.61357],[-118.55191,48.61281],[-118.55104,48.61259],[-118.55006,48.61256],[-118.54837,48.61269],[-118.54746,48.61254],[-118.5438,48.61127],[-118.5414,48.6099],[-118.53992,48.60854],[-118.5377,48.60683],[-118.53738,48.60626],[-118.53727,48.60576],[-118.53754,48.60424],[-118.53743,48.60322],[-118.5366,48.60204],[-118.53604,48.60162],[-118.52902,48.59833],[-118.52796,48.59728],[-118.52745,48.597],[-118.52678,48.59681],[-118.52517,48.5968],[-118.52443,48.59665],[-118.52374,48.59632],[-118.52305,48.59562],[-118.52265,48.59543],[-118.52208,48.59536],[-118.52145,48.59551],[-118.52016,48.59622],[-118.51949,48.59635],[-118.51883,48.59632],[-118.51814,48.59613],[-118.51581,48.59531],[-118.51463,48.59517],[-118.51387,48.5952],[-118.51229,48.5956],[-118.51014,48.59655],[-118.50981,48.59684],[-118.50973,48.59712],[-118.51004,48.59761],[-118.51494,48.59902],[-118.5153,48.59919],[-118.51549,48.5994],[-118.5156,48.59989],[-118.51528,48.60046],[-118.51383,48.60157],[-118.51352,48.60282],[-118.51316,48.60315],[-118.50934,48.60384],[-118.50765,48.60397],[-118.50404,48.60327],[-118.50299,48.60327],[-118.50197,48.60339],[-118.49987,48.60407],[-118.49801,48.60439],[-118.4952,48.60449],[-118.49014,48.60527],[-118.48623,48.60541],[-118.48487,48.60571],[-118.48222,48.60679],[-118.48155,48.60696],[-118.4784,48.60722],[-118.47783,48.60721],[-118.47603,48.60669],[-118.47315,48.6057],[-118.47208,48.60508],[-118.47149,48.60495],[-118.46909,48.60496],[-118.46536,48.60442],[-118.46453,48.6044],[-118.46222,48.60449],[-118.46091,48.60473],[-118.45841,48.60476],[-118.45789,48.60503],[-118.45774,48.60546],[-118.45832,48.606],[-118.45905,48.60632],[-118.45976,48.6065],[-118.4631,48.60676],[-118.464,48.60699],[-118.46478,48.60731],[-118.46584,48.60796],[-118.46667,48.60883],[-118.46701,48.60972],[-118.46705,48.61061],[-118.4665,48.61187],[-118.46549,48.61272],[-118.46471,48.61308],[-118.46392,48.6133],[-118.46302,48.6134],[-118.46192,48.61334],[-118.46109,48.61313],[-118.46047,48.61292],[-118.45974,48.61247],[-118.45857,48.61201],[-118.45685,48.6116],[-118.45376,48.61135],[-118.45126,48.61063],[-118.4492,48.61017],[-118.44793,48.61017],[-118.44717,48.61028],[-118.44445,48.61126],[-118.44401,48.61151],[-118.44371,48.61218],[-118.44376,48.61272],[-118.44451,48.61448],[-118.44455,48.61528],[-118.44369,48.61802],[-118.44352,48.61907],[-118.44366,48.61996],[-118.44489,48.62286],[-118.44493,48.62384],[-118.44474,48.6244],[-118.44348,48.62579],[-118.44322,48.62637],[-118.44321,48.6269],[-118.44378,48.62828],[-118.44378,48.62908],[-118.44331,48.62955],[-118.44266,48.62984],[-118.4421,48.62993],[-118.44149,48.62991],[-118.44078,48.62971],[-118.4404,48.62948],[-118.43994,48.6288],[-118.43993,48.62787],[-118.43979,48.6275],[-118.43952,48.62723],[-118.43734,48.62591],[-118.43404,48.62248],[-118.43318,48.62195],[-118.43258,48.62175],[-118.43155,48.62163],[-118.43033,48.62165],[-118.42929,48.62178],[-118.42798,48.62207],[-118.42028,48.62463],[-118.41908,48.62461],[-118.4185,48.62445],[-118.41692,48.62366],[-118.41616,48.62353],[-118.41528,48.62353],[-118.41353,48.6237],[-118.41226,48.62362],[-118.41117,48.62334],[-118.40878,48.62234],[-118.40782,48.62203],[-118.40487,48.62141],[-118.40293,48.62084],[-118.39926,48.61941],[-118.3907,48.61697],[-118.39003,48.61652],[-118.38883,48.61524],[-118.38809,48.6149],[-118.3871,48.61468],[-118.38405,48.61459],[-118.38273,48.61442],[-118.37751,48.61278],[-118.37654,48.61224],[-118.37507,48.61109],[-118.37374,48.61041],[-118.3635,48.60711],[-118.36297,48.60681],[-118.36254,48.60631],[-118.36156,48.60469],[-118.36071,48.60401],[-118.35986,48.60361],[-118.35731,48.60306],[-118.35645,48.60268],[-118.34983,48.59892],[-118.34714,48.59757],[-118.34474,48.59687],[-118.31212,48.59016],[-118.30892,48.58916],[-118.30621,48.5878],[-118.30473,48.58648],[-118.30377,48.58488],[-118.30283,48.5837],[-118.30208,48.58318],[-118.29955,48.58179],[-118.29684,48.58039],[-118.29503,48.57957],[-118.29415,48.57934],[-118.2909,48.57889],[-118.28262,48.57804],[-118.28066,48.57813],[-118.27839,48.57865],[-118.27717,48.5787],[-118.27573,48.57852],[-118.274,48.57818],[-118.27223,48.57815],[-118.26966,48.57843],[-118.26653,48.5783],[-118.26523,48.57846],[-118.26304,48.57911],[-118.26206,48.57921],[-118.25483,48.57903],[-118.2511,48.57919],[-118.24845,48.5794],[-118.24537,48.57982],[-118.21713,48.5843],[-118.21411,48.58424],[-118.21186,48.58485],[-118.21078,48.58503],[-118.20958,48.58501],[-118.20693,48.58471],[-118.2045,48.58498],[-118.19686,48.58632],[-118.19527,48.58668],[-118.19441,48.58697],[-118.19304,48.58753],[-118.18895,48.58986],[-118.18827,48.59038],[-118.1873,48.59168],[-118.18651,48.59209],[-118.18576,48.59224],[-118.1665,48.59223],[-118.16455,48.59211],[-118.16368,48.59186],[-118.15898,48.5899],[-118.15562,48.58895],[-118.15207,48.58772],[-118.15127,48.58757],[-118.15077,48.58756],[-118.14963,48.58773],[-118.14855,48.58832],[-118.14808,48.58891],[-118.14682,48.5938],[-118.14643,48.59439],[-118.14406,48.59663],[-118.1432,48.59773],[-118.13917,48.60461],[-118.13857,48.60582],[-118.13839,48.60705],[-118.1385,48.61555],[-118.13845,48.61617],[-118.13819,48.61673],[-118.13757,48.61732],[-118.12975,48.62243],[-118.12859,48.623],[-118.12695,48.62352],[-118.12631,48.62389],[-118.12566,48.62466],[-118.12529,48.62568],[-118.12479,48.62635],[-118.12373,48.62703],[-118.12273,48.62738],[-118.12204,48.62689],[-118.12131,48.62662],[-118.11441,48.62505],[-118.11273,48.62439],[-118.11167,48.62367],[-118.10528,48.61702],[-118.10336,48.61563],[-118.1019,48.61483],[-118.09508,48.61213],[-118.07968,48.60623],[-118.0784,48.60597],[-118.07732,48.60593],[-118.07552,48.60616],[-118.07132,48.60762],[-118.06564,48.60975],[-118.06312,48.61038],[-118.0614,48.61059]]]}},{"type":"Feature","properties":{"id":"chuckanut-drive","name":"Chuckanut Drive \u00b7 SR 11","difficulty":2,"character":"Technical"},"geometry":{"type":"MultiLineString","coordinates":[[[-122.49631,48.69624],[-122.49537,48.69562],[-122.49382,48.69396],[-122.49243,48.69174],[-122.4915,48.68948],[-122.49094,48.68801],[-122.48807,48.67501],[-122.48729,48.67283],[-122.48661,48.67183],[-122.48612,48.6703],[-122.48528,48.66857],[-122.48522,48.66815],[-122.48504,48.66663],[-122.48549,48.6658],[-122.48619,48.66543],[-122.48802,48.66553],[-122.4884,48.66548],[-122.4898,48.66493],[-122.49108,48.66366],[-122.49185,48.66244],[-122.49211,48.6616],[-122.49216,48.66081],[-122.49196,48.6601],[-122.49016,48.65678],[-122.49001,48.65568],[-122.49005,48.65374],[-122.49024,48.65252],[-122.49073,48.65127],[-122.49084,48.65058],[-122.49065,48.65011],[-122.48986,48.64897],[-122.48891,48.64826],[-122.48646,48.64733],[-122.48386,48.64459],[-122.48212,48.64355],[-122.48142,48.64274],[-122.48051,48.64213],[-122.48033,48.64189],[-122.48017,48.64131],[-122.47861,48.63997],[-122.47565,48.63663],[-122.47402,48.63504],[-122.47251,48.63389],[-122.47101,48.63245],[-122.46799,48.63008],[-122.4637,48.62739],[-122.4627,48.62647],[-122.46212,48.62627],[-122.46139,48.62615],[-122.45997,48.62617],[-122.45752,48.6259],[-122.45701,48.62577],[-122.45525,48.62492],[-122.45468,48.6248],[-122.45359,48.62482],[-122.45274,48.62434],[-122.45159,48.62393],[-122.45023,48.62384],[-122.44872,48.62393],[-122.4484,48.62387],[-122.44788,48.62361],[-122.44546,48.62178],[-122.44456,48.62028],[-122.44412,48.61986],[-122.44277,48.61901],[-122.44236,48.61828],[-122.44212,48.61748],[-122.44263,48.61595],[-122.44263,48.61561],[-122.44232,48.61536],[-122.44153,48.61537],[-122.44105,48.61554],[-122.44041,48.61628],[-122.4397,48.61773],[-122.43945,48.61781],[-122.43923,48.61771],[-122.43901,48.61646],[-122.4384,48.61442],[-122.43788,48.61338],[-122.43651,48.61221],[-122.43567,48.61118],[-122.43425,48.60991],[-122.43359,48.60913],[-122.43266,48.60719],[-122.43182,48.60595],[-122.43176,48.60498],[-122.43144,48.60439],[-122.43099,48.6041],[-122.42655,48.60204],[-122.42347,48.60012],[-122.4228,48.59936],[-122.422,48.59748],[-122.42173,48.59506],[-122.42193,48.59406],[-122.42196,48.59275],[-122.42221,48.56585],[-122.42194,48.56354],[-122.42151,48.56244],[-122.4209,48.56147],[-122.37596,48.51414],[-122.33938,48.48785],[-122.33869,48.48709],[-122.33847,48.48591]]]}},{"type":"Feature","properties":{"id":"yakima-canyon-road","name":"Yakima Canyon Road \u00b7 SR 821","difficulty":2,"character":"Technical"},"geometry":{"type":"MultiLineString","coordinates":[[[-120.49718,46.92621],[-120.51009,46.92616],[-120.50821,46.91838],[-120.50793,46.9155],[-120.50765,46.91489],[-120.50556,46.9124],[-120.50513,46.91082],[-120.50477,46.91004],[-120.50393,46.90929],[-120.49452,46.90417],[-120.494,46.90381],[-120.49334,46.90311],[-120.4929,46.90206],[-120.49292,46.90111],[-120.49335,46.9002],[-120.49467,46.89891],[-120.49542,46.89845],[-120.49679,46.89813],[-120.49793,46.89816],[-120.49974,46.89839],[-120.50236,46.89892],[-120.50288,46.89891],[-120.50364,46.89866],[-120.50401,46.89835],[-120.50421,46.89791],[-120.50405,46.89733],[-120.50299,46.89606],[-120.5003,46.89446],[-120.49895,46.89338],[-120.49846,46.89286],[-120.49758,46.89165],[-120.49641,46.88915],[-120.49363,46.88527],[-120.49277,46.88443],[-120.49218,46.88408],[-120.49103,46.88361],[-120.49037,46.88345],[-120.4897,46.88336],[-120.4883,46.88339],[-120.48645,46.88382],[-120.4843,46.88502],[-120.48287,46.88547],[-120.48127,46.8856],[-120.47887,46.88531],[-120.47752,46.8849],[-120.47612,46.8842],[-120.47529,46.88356],[-120.47473,46.88277],[-120.47422,46.88147],[-120.47411,46.88073],[-120.47422,46.87999],[-120.47479,46.87888],[-120.47562,46.87778],[-120.47663,46.87689],[-120.47782,46.87618],[-120.4789,46.8757],[-120.48245,46.87474],[-120.48328,46.87466],[-120.4848,46.87476],[-120.48581,46.87489],[-120.48708,46.87521],[-120.48765,46.87544],[-120.49207,46.87806],[-120.49294,46.87838],[-120.49367,46.87841],[-120.4941,46.87834],[-120.49479,46.87803],[-120.49528,46.8774],[-120.49521,46.87665],[-120.49431,46.87569],[-120.49336,46.87497],[-120.48984,46.87292],[-120.48841,46.87237],[-120.4851,46.87173],[-120.48407,46.87139],[-120.48293,46.87081],[-120.48167,46.86972],[-120.47928,46.86705],[-120.47879,46.86603],[-120.47854,46.86506],[-120.47855,46.86391],[-120.47878,46.8624],[-120.47916,46.8614],[-120.48017,46.85972],[-120.48247,46.85683],[-120.48262,46.85607],[-120.48248,46.85574],[-120.48208,46.85529],[-120.48148,46.85495],[-120.48067,46.85476],[-120.47231,46.85483],[-120.46525,46.85397],[-120.46434,46.85368],[-120.4635,46.85311],[-120.46172,46.85092],[-120.46116,46.85003],[-120.46108,46.84931],[-120.46145,46.84862],[-120.46254,46.84776],[-120.46276,46.8474],[-120.46296,46.84547],[-120.46283,46.8448],[-120.46253,46.84414],[-120.46194,46.84341],[-120.46066,46.84253],[-120.45968,46.84213],[-120.45704,46.84152],[-120.45612,46.84101],[-120.45575,46.84065],[-120.45478,46.83905],[-120.45425,46.83729],[-120.45433,46.83689],[-120.45504,46.8358],[-120.45505,46.83528],[-120.45476,46.83434],[-120.45483,46.83386],[-120.45863,46.8306],[-120.45998,46.82895],[-120.46079,46.82776],[-120.46072,46.82718],[-120.46037,46.82654],[-120.45961,46.82452],[-120.45921,46.82315],[-120.45879,46.82252],[-120.45545,46.81908],[-120.4537,46.81741],[-120.45281,46.81669],[-120.45139,46.81571],[-120.44674,46.81319],[-120.44409,46.81153],[-120.44265,46.81045],[-120.44067,46.80829],[-120.44027,46.80764],[-120.44015,46.80716],[-120.44044,46.80488],[-120.44072,46.80408],[-120.44111,46.80354],[-120.44239,46.80239],[-120.44404,46.80143],[-120.44534,46.80093],[-120.44736,46.80042],[-120.44873,46.80031],[-120.44947,46.80034],[-120.45127,46.80065],[-120.45251,46.80097],[-120.45745,46.80246],[-120.45832,46.80258],[-120.45911,46.80258],[-120.46071,46.80221],[-120.46162,46.80169],[-120.46215,46.8011],[-120.46248,46.80034],[-120.46248,46.79965],[-120.46221,46.79893],[-120.46027,46.79656],[-120.45919,46.79568],[-120.45256,46.79132],[-120.45197,46.7908],[-120.45083,46.78931],[-120.45045,46.78834],[-120.45047,46.78647],[-120.45148,46.78423],[-120.4535,46.78067],[-120.45378,46.77977],[-120.45379,46.77899],[-120.45357,46.77819],[-120.45303,46.77737],[-120.44858,46.77258],[-120.44823,46.7721],[-120.44813,46.77166],[-120.44857,46.76901],[-120.44912,46.76838],[-120.45121,46.7675],[-120.45498,46.76647],[-120.45555,46.76607],[-120.45578,46.76573],[-120.45586,46.76531],[-120.45572,46.76492],[-120.45366,46.76295],[-120.45307,46.76214],[-120.45287,46.76119],[-120.45307,46.75895],[-120.4533,46.75834],[-120.45379,46.75777],[-120.45664,46.75567],[-120.45705,46.75522],[-120.45716,46.75491],[-120.45705,46.7543],[-120.45567,46.75261],[-120.45544,46.75221],[-120.45535,46.75167],[-120.45578,46.75088],[-120.45835,46.74869],[-120.45852,46.74819],[-120.45837,46.7479],[-120.45783,46.74761],[-120.45561,46.7473],[-120.45198,46.74646],[-120.45112,46.74606],[-120.44969,46.74512],[-120.44885,46.74432],[-120.44763,46.74237],[-120.44736,46.74136],[-120.44745,46.74013],[-120.44781,46.7392],[-120.44898,46.7373],[-120.44974,46.73649],[-120.45165,46.73478],[-120.45288,46.73307],[-120.45286,46.73053],[-120.45272,46.72969],[-120.45244,46.72915],[-120.45213,46.72882],[-120.45042,46.72731],[-120.45009,46.72689],[-120.44984,46.72611],[-120.44996,46.72523],[-120.45105,46.72299],[-120.4524,46.72188],[-120.4543,46.7211],[-120.45572,46.72022],[-120.45621,46.71977],[-120.4573,46.71835],[-120.45824,46.7175],[-120.46106,46.71575],[-120.46264,46.71458],[-120.46394,46.71333],[-120.46992,46.70611],[-120.47077,46.70556],[-120.47274,46.70469],[-120.47333,46.70404],[-120.47863,46.68393],[-120.47931,46.68306],[-120.48294,46.68061],[-120.48327,46.6803],[-120.48344,46.67994],[-120.48339,46.6794],[-120.48305,46.67896],[-120.48014,46.6772]]]}},{"type":"Feature","properties":{"id":"chinook-pass","name":"Chinook Pass \u00b7 SR 410","difficulty":2,"character":"Medium speed"},"geometry":{"type":"MultiLineString","coordinates":[[[-121.98841,47.19943],[-121.98427,47.19945],[-121.96558,47.19919],[-121.95328,47.19886],[-121.95223,47.19869],[-121.95119,47.19837],[-121.94717,47.19631],[-121.94583,47.19573],[-121.94379,47.19528],[-121.9408,47.19512],[-121.93998,47.195],[-121.93848,47.19462],[-121.93735,47.19414],[-121.93602,47.19328],[-121.92734,47.18615],[-121.91966,47.17876],[-121.91929,47.1783],[-121.91839,47.17675],[-121.91755,47.17602],[-121.91643,47.17529],[-121.9157,47.17455],[-121.91198,47.16677],[-121.911,47.16579],[-121.90988,47.16517],[-121.90875,47.16479],[-121.90732,47.16458],[-121.87433,47.16172],[-121.87216,47.16143],[-121.87084,47.16108],[-121.86953,47.16047],[-121.86508,47.15723],[-121.86358,47.15647],[-121.8625,47.15611],[-121.85634,47.15454],[-121.85204,47.15295],[-121.8513,47.15276],[-121.85025,47.15265],[-121.8491,47.15271],[-121.84278,47.1543],[-121.84161,47.15503],[-121.8376,47.15828],[-121.8363,47.15885],[-121.832,47.15943],[-121.8307,47.15939],[-121.827,47.15898],[-121.82605,47.15904],[-121.82504,47.15932],[-121.82406,47.15986],[-121.81832,47.16456],[-121.81724,47.16528],[-121.81591,47.16597],[-121.80988,47.16875],[-121.80719,47.16952],[-121.80583,47.17001],[-121.80518,47.17036],[-121.80313,47.17184],[-121.80252,47.17219],[-121.79311,47.17695],[-121.79137,47.17754],[-121.79036,47.17766],[-121.78922,47.17764],[-121.78677,47.17743],[-121.7859,47.17726],[-121.77813,47.17444],[-121.76654,47.16985],[-121.76242,47.16798],[-121.76146,47.16768],[-121.75976,47.1674],[-121.75877,47.16713],[-121.7576,47.16657],[-121.75543,47.16519],[-121.75462,47.16481],[-121.75304,47.16452],[-121.74818,47.16446],[-121.74686,47.16459],[-121.74454,47.16513],[-121.74325,47.16503],[-121.74221,47.16464],[-121.73691,47.16151],[-121.73549,47.16103],[-121.73267,47.16033],[-121.72617,47.15761],[-121.72399,47.15695],[-121.71374,47.15457],[-121.71126,47.15418],[-121.70984,47.15411],[-121.70307,47.15427],[-121.69471,47.15355],[-121.68919,47.15328],[-121.68164,47.15319],[-121.68078,47.1533],[-121.67991,47.15354],[-121.66915,47.15781],[-121.66815,47.15824],[-121.66596,47.15956],[-121.66506,47.15999],[-121.66364,47.16027],[-121.66267,47.16025],[-121.66195,47.16013],[-121.65996,47.15943],[-121.65909,47.15901],[-121.65517,47.15614],[-121.62455,47.13688],[-121.61958,47.13294],[-121.61896,47.13221],[-121.6134,47.12254],[-121.61219,47.12082],[-121.61056,47.1194],[-121.59802,47.10915],[-121.59624,47.10722],[-121.59527,47.10634],[-121.59217,47.10389],[-121.59048,47.10187],[-121.5894,47.10039],[-121.58668,47.09422],[-121.586,47.09326],[-121.58418,47.09134],[-121.58352,47.0903],[-121.58324,47.08892],[-121.58245,47.07988],[-121.58218,47.07869],[-121.58128,47.077],[-121.57804,47.07318],[-121.57727,47.07197],[-121.57679,47.0702],[-121.57657,47.06665],[-121.57518,47.06112],[-121.57412,47.05922],[-121.57367,47.05811],[-121.57347,47.05694],[-121.57334,47.05476],[-121.57294,47.05397],[-121.57143,47.05224],[-121.57086,47.05121],[-121.57016,47.04903],[-121.57012,47.04622],[-121.56994,47.04548],[-121.56846,47.04212],[-121.56723,47.04012],[-121.5663,47.03912],[-121.56497,47.03799],[-121.55674,47.03142],[-121.55519,47.03038],[-121.55406,47.02991],[-121.55256,47.02955],[-121.55124,47.02942],[-121.54833,47.02936],[-121.54686,47.02901],[-121.54558,47.02845],[-121.5387,47.02501],[-121.53414,47.02263],[-121.53311,47.02179],[-121.53245,47.02101],[-121.53199,47.02014],[-121.53136,47.01842],[-121.52831,47.01402],[-121.52733,47.01215],[-121.52666,47.00896],[-121.52662,47.00812],[-121.52688,47.00721],[-121.52806,47.00511],[-121.52847,47.00405],[-121.52863,47.00309],[-121.5289,46.99896],[-121.52908,46.99804],[-121.52964,46.99667],[-121.53385,46.98856],[-121.53481,46.98635],[-121.53515,46.98518],[-121.5365,46.97693],[-121.53633,46.97574],[-121.53589,46.97462],[-121.53285,46.96939],[-121.53017,46.96537],[-121.52769,46.96261],[-121.52642,46.96098],[-121.52589,46.96015],[-121.52549,46.95909],[-121.52547,46.95869],[-121.52592,46.95711],[-121.52644,46.9562],[-121.52735,46.95537],[-121.52954,46.95384],[-121.5304,46.95266],[-121.53119,46.95109],[-121.53207,46.94796],[-121.53241,46.94645],[-121.53244,46.94473],[-121.53188,46.93926],[-121.53096,46.93607],[-121.53099,46.93142],[-121.53202,46.92658],[-121.5333,46.92442],[-121.53385,46.92219],[-121.53482,46.91969],[-121.53534,46.91768],[-121.5367,46.91117],[-121.53771,46.90828],[-121.54097,46.90398],[-121.54331,46.90135],[-121.54378,46.89988],[-121.54453,46.89833],[-121.54469,46.89698],[-121.54473,46.89492],[-121.5445,46.89417],[-121.54318,46.89021],[-121.54231,46.88864],[-121.54162,46.88785],[-121.5413,46.88548],[-121.54079,46.88433],[-121.54049,46.88226],[-121.53967,46.88092],[-121.53919,46.87982],[-121.53916,46.87892],[-121.54066,46.87569],[-121.54079,46.87516],[-121.54058,46.87446],[-121.53954,46.87355],[-121.53932,46.87312],[-121.54004,46.86976],[-121.54059,46.86838],[-121.54061,46.86781],[-121.54042,46.86736],[-121.54008,46.86698],[-121.539,46.86641],[-121.53774,46.86619],[-121.5371,46.86621],[-121.53651,46.86633],[-121.53213,46.8687],[-121.53145,46.86893],[-121.5304,46.86898],[-121.52707,46.86799],[-121.52518,46.86726],[-121.52478,46.86693],[-121.52444,46.86611],[-121.52361,46.86511],[-121.52319,46.86493],[-121.52264,46.86499],[-121.52238,46.86519],[-121.52232,46.86554],[-121.52298,46.86688],[-121.5233,46.86724],[-121.52389,46.86755],[-121.52626,46.86818],[-121.52781,46.86939],[-121.52896,46.86986],[-121.52987,46.86998],[-121.5304,46.86992],[-121.53398,46.86909],[-121.53612,46.86823],[-121.53658,46.86817],[-121.53702,46.86834],[-121.53711,46.86859],[-121.53694,46.86887],[-121.53484,46.86999],[-121.53351,46.87039],[-121.52957,46.87118],[-121.52878,46.87108],[-121.52751,46.87065],[-121.52578,46.86965],[-121.52366,46.86896],[-121.52286,46.86898],[-121.5213,46.86941],[-121.5204,46.86932],[-121.51972,46.86889],[-121.5184,46.86721],[-121.5181,46.86706],[-121.51761,46.86698],[-121.51681,46.8672],[-121.51566,46.86792],[-121.51505,46.86848],[-121.5148,46.86901],[-121.51474,46.87007],[-121.51494,46.87061],[-121.51559,46.87151],[-121.51574,46.87299],[-121.51646,46.87409],[-121.51744,46.875],[-121.51773,46.87545],[-121.51773,46.87606],[-121.51745,46.8765],[-121.51551,46.87824],[-121.51494,46.87936],[-121.51379,46.88076],[-121.51168,46.88246],[-121.50759,46.88499],[-121.50528,46.886],[-121.50215,46.88712],[-121.49954,46.88842],[-121.49796,46.88859],[-121.49659,46.88902],[-121.49553,46.88922],[-121.49385,46.88995],[-121.49257,46.89028],[-121.48619,46.89247],[-121.48174,46.89368],[-121.47968,46.89412],[-121.47562,46.89465],[-121.47401,46.89496],[-121.46954,46.89532],[-121.46266,46.89656],[-121.45876,46.89686],[-121.4534,46.89693],[-121.45219,46.89702],[-121.44767,46.89759],[-121.44318,46.89846],[-121.44128,46.89904],[-121.43815,46.90026],[-121.43675,46.90091],[-121.428,46.90559],[-121.42688,46.90604],[-121.42256,46.90727],[-121.42136,46.90771],[-121.41926,46.90867],[-121.41692,46.90995],[-121.41597,46.91024],[-121.4155,46.9103],[-121.41303,46.91025],[-121.41208,46.91043],[-121.41115,46.91102],[-121.40985,46.9121],[-121.40869,46.91341],[-121.40746,46.91388],[-121.40608,46.91398],[-121.40394,46.91354],[-121.40257,46.91342],[-121.40166,46.91352],[-121.39727,46.91443],[-121.39601,46.91459],[-121.38357,46.91493],[-121.38253,46.91502],[-121.38127,46.91523],[-121.37523,46.91666],[-121.37404,46.91705],[-121.37263,46.91773],[-121.36937,46.91969],[-121.36847,46.92046],[-121.36634,46.92477],[-121.36591,46.9252],[-121.36386,46.92658],[-121.36336,46.92703],[-121.36051,46.93137],[-121.36,46.93186],[-121.35938,46.93226],[-121.33857,46.94097],[-121.32835,46.94448],[-121.32422,46.94613],[-121.32294,46.94643],[-121.32056,46.9465],[-121.31961,46.94671],[-121.31899,46.94698],[-121.31734,46.94828],[-121.31636,46.94882],[-121.31535,46.94922],[-121.30964,46.95079],[-121.27407,46.96283],[-121.27193,46.96339],[-121.25849,46.9659],[-121.25537,46.96666],[-121.2416,46.96639],[-121.24049,46.96658],[-121.23948,46.96695],[-121.23878,46.96709],[-121.23809,46.96705],[-121.23667,46.96677],[-121.23568,46.96674],[-121.23385,46.96702],[-121.23246,46.9676],[-121.23192,46.96772],[-121.22885,46.96785],[-121.2272,46.96779],[-121.22188,46.96845],[-121.22075,46.96835],[-121.21916,46.96771],[-121.21844,46.96757],[-121.21355,46.96788],[-121.21252,46.96817],[-121.20917,46.96961],[-121.20408,46.97055],[-121.203,46.9709],[-121.20073,46.97221],[-121.19766,46.97358],[-121.19671,46.97386],[-121.19595,46.97388],[-121.19422,46.97346],[-121.19357,46.9734],[-121.19293,46.97344],[-121.18985,46.97398],[-121.18876,46.97423],[-121.1803,46.97728],[-121.1795,46.97745],[-121.1788,46.97751],[-121.17627,46.97732],[-121.1754,46.97735],[-121.17147,46.97793],[-121.16789,46.97813],[-121.16459,46.97868],[-121.16374,46.97872],[-121.15871,46.9782],[-121.1572,46.97822],[-121.1542,46.97882],[-121.14179,46.98167],[-121.13965,46.98198],[-121.1372,46.982],[-121.12983,46.98109],[-121.12841,46.98096],[-121.12762,46.98099],[-121.12635,46.98125],[-121.12518,46.98176],[-121.1244,46.9824],[-121.12329,46.98386],[-121.1226,46.98433],[-121.11711,46.98575],[-121.11646,46.986],[-121.11454,46.98705],[-121.11387,46.98716],[-121.1133,46.98712],[-121.11149,46.98645],[-121.11053,46.98639],[-121.1054,46.98756],[-121.10452,46.98764],[-121.10254,46.98756],[-121.10102,46.98787],[-121.09944,46.98796],[-121.09828,46.98835],[-121.09737,46.98905],[-121.09686,46.98931],[-121.09622,46.98949],[-121.09527,46.98948],[-121.09478,46.98935],[-121.0943,46.98909],[-121.09269,46.98756],[-121.09156,46.9864],[-121.09137,46.98557],[-121.09183,46.98476],[-121.09284,46.98391],[-121.09337,46.98332],[-121.09383,46.98243],[-121.09461,46.9773],[-121.09495,46.97153],[-121.09487,46.97093],[-121.09463,46.9704],[-121.09382,46.96964],[-121.09074,46.9682],[-121.08949,46.96736],[-121.08705,46.96494],[-121.08145,46.96077],[-121.07961,46.95895],[-121.07872,46.95836],[-121.07647,46.95715],[-121.07529,46.95627],[-121.07203,46.95295],[-121.0717,46.95247],[-121.07072,46.95027],[-121.07068,46.94767],[-121.07036,46.94693],[-121.06966,46.94605],[-121.06532,46.94316],[-121.06383,46.94194],[-121.05918,46.93659],[-121.05793,46.93484],[-121.05749,46.93441],[-121.05635,46.93373],[-121.05371,46.93264],[-121.05163,46.93113],[-121.04809,46.92898],[-121.04711,46.92816],[-121.04636,46.92719],[-121.0459,46.9257],[-121.04611,46.92476],[-121.04725,46.92331],[-121.04759,46.92242],[-121.04761,46.92184],[-121.04748,46.9213],[-121.04683,46.92029],[-121.04609,46.91972],[-121.04262,46.91778],[-121.04039,46.91591],[-121.03927,46.91518],[-121.03383,46.91258],[-121.03133,46.91165],[-121.03055,46.91126],[-121.02968,46.91051],[-121.02897,46.90945],[-121.02814,46.90866],[-121.02577,46.90749],[-121.02215,46.90548],[-121.02155,46.90506],[-121.02038,46.90385],[-121.01957,46.90332],[-121.01858,46.90293],[-121.01399,46.90152],[-121.01255,46.90082],[-121.00999,46.89923],[-121.00609,46.8975],[-121.00509,46.89697],[-121.00415,46.89632],[-121.00343,46.89565],[-121.00137,46.89302],[-120.99978,46.89201],[-120.9967,46.89038],[-120.99479,46.88946],[-120.99439,46.88934],[-120.99253,46.8891],[-120.98816,46.88889],[-120.9874,46.88861],[-120.98713,46.88834],[-120.98696,46.88792],[-120.9875,46.88643],[-120.98745,46.88605],[-120.9872,46.88557],[-120.98639,46.88496],[-120.98385,46.88403],[-120.98295,46.88352],[-120.98251,46.88297],[-120.97929,46.87723],[-120.97853,46.87657],[-120.97601,46.87484],[-120.9729,46.87205],[-120.97186,46.87139],[-120.96458,46.86938],[-120.96289,46.86862],[-120.95836,46.8663],[-120.9575,46.86571],[-120.95683,46.86499],[-120.95301,46.85949],[-120.95281,46.8583],[-120.95322,46.85567],[-120.95314,46.85453],[-120.95236,46.85303],[-120.95132,46.85148],[-120.95019,46.85012],[-120.9498,46.84943],[-120.94951,46.84854],[-120.94929,46.84626],[-120.94886,46.84528],[-120.94395,46.83993],[-120.93711,46.83047],[-120.93124,46.82376],[-120.9309,46.82319],[-120.93052,46.82181],[-120.92998,46.82103],[-120.92728,46.81904],[-120.92547,46.8171],[-120.92503,46.8163],[-120.92469,46.8145],[-120.92439,46.81393],[-120.92377,46.81324],[-120.92194,46.81169],[-120.92033,46.80936],[-120.91972,46.8088],[-120.91857,46.80812],[-120.91402,46.80604],[-120.90609,46.80154],[-120.90343,46.80018],[-120.88023,46.79454],[-120.87908,46.79413],[-120.8777,46.79347],[-120.87193,46.79045],[-120.8698,46.78895],[-120.8671,46.78664],[-120.86648,46.78568],[-120.86617,46.78404],[-120.86558,46.78265],[-120.86489,46.78165],[-120.86383,46.78058],[-120.86271,46.77975],[-120.85224,46.77308],[-120.85039,46.77222],[-120.83975,46.76868],[-120.83597,46.76778],[-120.83463,46.76738],[-120.82866,46.76497],[-120.82793,46.76459],[-120.8274,46.76392],[-120.82744,46.76319],[-120.82778,46.7627],[-120.82916,46.76154],[-120.82961,46.76072],[-120.82961,46.75984],[-120.82913,46.759],[-120.82809,46.75826],[-120.82223,46.75565],[-120.82007,46.75425],[-120.81832,46.75274],[-120.81761,46.75229],[-120.81435,46.75115],[-120.81202,46.75047],[-120.80056,46.74874],[-120.79844,46.74848],[-120.79652,46.74838],[-120.78846,46.74831]]]}},{"type":"Feature","properties":{"id":"white-pass","name":"White Pass \u00b7 US 12","difficulty":1,"character":"Medium speed"},"geometry":{"type":"MultiLineString","coordinates":[[[-121.67111,46.60644],[-121.66384,46.61815],[-121.66169,46.62067],[-121.66017,46.6221],[-121.65886,46.62314],[-121.6435,46.63289],[-121.63272,46.63959],[-121.61812,46.64697],[-121.61597,46.6479],[-121.60887,46.65055],[-121.60679,46.65158],[-121.60576,46.65228],[-121.60285,46.65473],[-121.60246,46.65539],[-121.60132,46.65985],[-121.60102,46.66047],[-121.60034,46.66121],[-121.59628,46.66436],[-121.59582,46.665],[-121.59509,46.66665],[-121.59434,46.66749],[-121.59094,46.66938],[-121.58993,46.6697],[-121.58772,46.67004],[-121.58652,46.67035],[-121.58571,46.67074],[-121.58266,46.6727],[-121.58161,46.67309],[-121.57903,46.67374],[-121.57821,46.67412],[-121.57764,46.67452],[-121.57716,46.67502],[-121.57672,46.67577],[-121.57512,46.67994],[-121.57484,46.68113],[-121.57485,46.6824],[-121.57511,46.68314],[-121.57572,46.68391],[-121.57636,46.6844],[-121.57799,46.68524],[-121.57885,46.68607],[-121.57918,46.68669],[-121.57969,46.68846],[-121.57961,46.68903],[-121.57928,46.68945],[-121.57886,46.68971],[-121.57574,46.6911],[-121.57498,46.69125],[-121.57297,46.6913],[-121.57227,46.69146],[-121.5716,46.69175],[-121.57116,46.69214],[-121.57056,46.69332],[-121.56924,46.69428],[-121.56862,46.69559],[-121.56814,46.69596],[-121.56735,46.6962],[-121.56673,46.69621],[-121.56356,46.69577],[-121.56245,46.69546],[-121.56146,46.695],[-121.56063,46.6944],[-121.55995,46.69369],[-121.55883,46.69141],[-121.55852,46.69101],[-121.55792,46.69055],[-121.55677,46.69004],[-121.55465,46.68948],[-121.55302,46.6888],[-121.5512,46.68769],[-121.55085,46.68738],[-121.5497,46.68524],[-121.54905,46.68451],[-121.5485,46.68409],[-121.54756,46.6836],[-121.54308,46.68178],[-121.54183,46.6811],[-121.53946,46.67957],[-121.53879,46.67927],[-121.53786,46.67903],[-121.53707,46.67897],[-121.53298,46.67916],[-121.53223,46.67898],[-121.53024,46.67812],[-121.52941,46.67799],[-121.52811,46.67805],[-121.52737,46.67787],[-121.52543,46.67711],[-121.52372,46.67602],[-121.52059,46.67491],[-121.51954,46.67426],[-121.51744,46.67259],[-121.51642,46.67211],[-121.51543,46.67185],[-121.51421,46.67173],[-121.51051,46.67183],[-121.50786,46.67126],[-121.50587,46.67092],[-121.50508,46.67087],[-121.50372,46.67106],[-121.5018,46.67177],[-121.50039,46.67185],[-121.49623,46.67106],[-121.49246,46.66983],[-121.49155,46.66971],[-121.48962,46.66973],[-121.48861,46.66943],[-121.48807,46.66903],[-121.48719,46.66792],[-121.48662,46.6674],[-121.48195,46.66442],[-121.48155,46.66399],[-121.48082,46.66267],[-121.47773,46.66029],[-121.47553,46.6579],[-121.47386,46.65704],[-121.47328,46.65662],[-121.47194,46.65443],[-121.47108,46.65351],[-121.46921,46.65227],[-121.46684,46.65114],[-121.46533,46.64995],[-121.46277,46.64836],[-121.46228,46.64768],[-121.46153,46.64546],[-121.46127,46.645],[-121.45904,46.64297],[-121.45711,46.64065],[-121.45612,46.63998],[-121.45208,46.63798],[-121.45091,46.63723],[-121.44988,46.6364],[-121.44731,46.63342],[-121.4472,46.63282],[-121.44783,46.63071],[-121.44795,46.62988],[-121.44753,46.62913],[-121.44614,46.62827],[-121.44565,46.62774],[-121.4455,46.62713],[-121.44569,46.62632],[-121.44567,46.62583],[-121.44545,46.62544],[-121.44509,46.62507],[-121.44436,46.6247],[-121.44281,46.62435],[-121.4414,46.6238],[-121.44041,46.6237],[-121.43681,46.62426],[-121.4362,46.62456],[-121.43532,46.62533],[-121.43422,46.62578],[-121.42764,46.62721],[-121.42382,46.62749],[-121.42204,46.62785],[-121.41853,46.62928],[-121.41363,46.63045],[-121.41244,46.63084],[-121.41116,46.6315],[-121.40935,46.63285],[-121.40817,46.63338],[-121.39832,46.63546],[-121.39505,46.63646],[-121.3869,46.63969],[-121.38292,46.64199],[-121.37796,46.64427],[-121.37744,46.64465],[-121.37714,46.64521],[-121.377,46.64793],[-121.37687,46.64827],[-121.37631,46.64879],[-121.37542,46.64905],[-121.37488,46.64904],[-121.37436,46.64894],[-121.37257,46.64823],[-121.37185,46.64804],[-121.37066,46.64802],[-121.36801,46.6483],[-121.36433,46.64898],[-121.36353,46.6494],[-121.36197,46.65111],[-121.36178,46.65172],[-121.36207,46.65323],[-121.36173,46.65383],[-121.36099,46.65433],[-121.36029,46.65452],[-121.35849,46.65457],[-121.35799,46.65467],[-121.35716,46.65506],[-121.35535,46.65618],[-121.3543,46.65658],[-121.34891,46.65714],[-121.34386,46.65854],[-121.34171,46.65937],[-121.34107,46.65936],[-121.34014,46.65897],[-121.33961,46.65807],[-121.33955,46.6568],[-121.33933,46.65624],[-121.33891,46.65598],[-121.33839,46.65589],[-121.33462,46.65623],[-121.33295,46.65658],[-121.33039,46.65727],[-121.32801,46.65756],[-121.31699,46.65734],[-121.31303,46.65708],[-121.31067,46.65706],[-121.30891,46.65684],[-121.30817,46.65666],[-121.3053,46.65549],[-121.30365,46.65492],[-121.30098,46.65348],[-121.29906,46.65295],[-121.29793,46.65282],[-121.29648,46.65319],[-121.296,46.65318],[-121.29541,46.65292],[-121.29439,46.65211],[-121.2933,46.65174],[-121.28887,46.65167],[-121.2838,46.65141],[-121.28201,46.65112],[-121.28032,46.65061],[-121.2787,46.64978],[-121.27774,46.64909],[-121.27679,46.64817],[-121.27532,46.64636],[-121.27458,46.64568],[-121.27358,46.64507],[-121.27223,46.64481],[-121.2643,46.64502],[-121.26313,46.64498],[-121.26139,46.64477],[-121.25739,46.64391],[-121.25556,46.64378],[-121.25392,46.64402],[-121.24876,46.64585],[-121.24798,46.64599],[-121.24676,46.64605],[-121.23759,46.64495],[-121.23253,46.64364],[-121.23038,46.64326],[-121.22944,46.6432],[-121.22732,46.64325],[-121.22355,46.64365],[-121.2225,46.64362],[-121.22052,46.64332],[-121.21933,46.64325],[-121.21661,46.64346],[-121.21373,46.64333],[-121.2116,46.64347],[-121.21079,46.64342],[-121.20731,46.64286],[-121.20359,46.64274],[-121.20234,46.64287],[-121.19858,46.64371],[-121.19743,46.6438],[-121.19352,46.64367],[-121.19044,46.64325],[-121.18944,46.6433],[-121.18813,46.64356],[-121.18708,46.64357],[-121.18301,46.64293],[-121.18212,46.6429],[-121.18135,46.64301],[-121.18069,46.64323],[-121.17718,46.64519],[-121.17607,46.64566],[-121.17197,46.6468],[-121.17033,46.64708],[-121.16862,46.64704],[-121.16545,46.64668],[-121.16322,46.64666],[-121.16119,46.64649],[-121.15812,46.64576],[-121.1576,46.64557],[-121.15593,46.64452],[-121.15538,46.64432],[-121.15403,46.64417],[-121.1533,46.64424],[-121.15236,46.64446],[-121.14443,46.64769],[-121.14353,46.64822],[-121.14192,46.64956],[-121.13939,46.65068],[-121.13531,46.65323],[-121.13271,46.65412],[-121.13188,46.65455],[-121.13134,46.65522],[-121.12984,46.65901],[-121.12809,46.66125],[-121.127,46.66418],[-121.12652,46.66474],[-121.1259,46.66508],[-121.12512,46.66527],[-121.12446,46.6653],[-121.11786,46.66494],[-121.11374,46.66502],[-121.11143,46.66521],[-121.1045,46.66643],[-121.10271,46.66666],[-121.10055,46.66685],[-121.09578,46.66696],[-121.09482,46.66709],[-121.09403,46.66734],[-121.09309,46.66786],[-121.08309,46.67409],[-121.0814,46.67502],[-121.07964,46.67557],[-121.07277,46.6766],[-121.06953,46.67704],[-121.0678,46.67697],[-121.0668,46.67676],[-121.06337,46.67551],[-121.06206,46.67515],[-121.06133,46.67505],[-121.05761,46.67487],[-121.05668,46.67494],[-121.05412,46.67534],[-121.05268,46.67543],[-121.05166,46.67538],[-121.0431,46.67405],[-121.03818,46.67249],[-121.03664,46.67222],[-121.03285,46.67251],[-121.02881,46.67202],[-121.02621,46.67186],[-121.0241,46.67197],[-121.02127,46.67239],[-121.02047,46.67242],[-121.01965,46.67232],[-121.01778,46.67167],[-121.01633,46.67151],[-121.0155,46.6716],[-121.01475,46.67181],[-121.01218,46.67294],[-121.01143,46.6731],[-121.01055,46.67317],[-121.00944,46.67309],[-121.00874,46.67291],[-121.00795,46.6726],[-121.00616,46.67149],[-121.00542,46.67124],[-121.00464,46.67112],[-121.00382,46.67114],[-121.00139,46.67149],[-121.00012,46.6715],[-120.9836,46.67023],[-120.9812,46.67034],[-120.97478,46.67125],[-120.97337,46.67174],[-120.97219,46.67247],[-120.97036,46.67473],[-120.96918,46.67558],[-120.96789,46.67628],[-120.95907,46.68019],[-120.95779,46.68097],[-120.95453,46.6834],[-120.9538,46.68374],[-120.95255,46.6839],[-120.94428,46.68326],[-120.94247,46.68343],[-120.94108,46.68383],[-120.94023,46.6842],[-120.93762,46.68597],[-120.93583,46.68677],[-120.93379,46.68738],[-120.9277,46.68877],[-120.92554,46.68944],[-120.92408,46.69002],[-120.92334,46.69035],[-120.92292,46.69065],[-120.92245,46.69121],[-120.92182,46.69383],[-120.92153,46.69429],[-120.92076,46.69498],[-120.91971,46.69547],[-120.91855,46.69569],[-120.91738,46.69568],[-120.91217,46.69478],[-120.90793,46.69392],[-120.90647,46.69376],[-120.90507,46.69381],[-120.90382,46.69401],[-120.90287,46.69426],[-120.90169,46.69472],[-120.90071,46.69527],[-120.9,46.69579],[-120.89895,46.6967],[-120.89844,46.69747],[-120.89844,46.69822],[-120.89949,46.70044],[-120.89979,46.70207],[-120.89977,46.70246],[-120.89958,46.70284],[-120.89912,46.70338],[-120.89875,46.70361],[-120.89787,46.70392],[-120.89459,46.70436],[-120.89298,46.70486],[-120.88738,46.70779],[-120.88645,46.70836],[-120.88567,46.70901],[-120.88496,46.70994],[-120.88416,46.71183],[-120.88349,46.71246],[-120.88284,46.71274],[-120.88206,46.71285],[-120.88123,46.71282],[-120.87699,46.71211],[-120.87603,46.71203],[-120.87514,46.71203],[-120.87391,46.71219],[-120.87202,46.71287],[-120.86575,46.71577],[-120.86442,46.71626],[-120.86294,46.71652],[-120.85342,46.71736],[-120.85275,46.71752],[-120.85196,46.7178],[-120.85133,46.71816],[-120.84928,46.72001],[-120.84794,46.72078],[-120.84598,46.72143],[-120.84408,46.72171],[-120.84219,46.72169],[-120.84049,46.72141],[-120.83895,46.72088],[-120.83642,46.71957],[-120.83575,46.71936],[-120.83482,46.71922],[-120.83396,46.71923],[-120.83322,46.71934],[-120.82855,46.72069],[-120.82697,46.72092],[-120.82593,46.72091],[-120.82462,46.72074],[-120.82315,46.7203],[-120.82109,46.71952],[-120.82031,46.71934],[-120.81915,46.71937],[-120.81812,46.71968],[-120.81765,46.71997],[-120.81706,46.72055],[-120.81242,46.72567],[-120.81132,46.72662],[-120.8102,46.72738],[-120.8081,46.72846],[-120.79597,46.73316],[-120.79456,46.73386],[-120.7936,46.73445],[-120.79217,46.73556],[-120.79102,46.73675],[-120.79059,46.73738],[-120.78967,46.73932],[-120.789,46.74354],[-120.78846,46.74831],[-120.78608,46.74835],[-120.7816,46.74876],[-120.78018,46.74867],[-120.77195,46.74746],[-120.75672,46.744],[-120.74059,46.73956],[-120.69525,46.7268]]]}},{"type":"Feature","properties":{"id":"stevens-canyon-road","name":"Stevens Canyon Road","difficulty":2,"character":"Technical"},"geometry":{"type":"MultiLineString","coordinates":[[[-121.73962,46.77907],[-121.73904,46.77858],[-121.739,46.7781],[-121.7404,46.77732],[-121.74099,46.77661],[-121.74205,46.77593],[-121.74319,46.77466],[-121.74388,46.77369],[-121.74383,46.772],[-121.74355,46.77036],[-121.74337,46.7698],[-121.74301,46.76947],[-121.74211,46.76934],[-121.73934,46.76984],[-121.73633,46.76952],[-121.7342,46.76965],[-121.73329,46.7694],[-121.73135,46.76838],[-121.73041,46.76811],[-121.72971,46.76804],[-121.7288,46.76806],[-121.72782,46.76823],[-121.72586,46.76898],[-121.72462,46.76901],[-121.72391,46.76878],[-121.72342,46.76849],[-121.72273,46.7676],[-121.72223,46.76723],[-121.72077,46.76677],[-121.71941,46.76613],[-121.71867,46.76595],[-121.71807,46.766],[-121.71771,46.76613],[-121.71633,46.76707],[-121.71534,46.76835],[-121.71419,46.77048],[-121.71378,46.77078],[-121.71314,46.77085],[-121.71275,46.77074],[-121.71242,46.77041],[-121.7121,46.76914],[-121.71182,46.76867],[-121.71146,46.7683],[-121.71074,46.76789],[-121.71023,46.76774],[-121.70932,46.76763],[-121.70668,46.76803],[-121.70329,46.76799],[-121.70271,46.7679],[-121.70213,46.76771],[-121.70151,46.76731],[-121.69974,46.76589],[-121.69897,46.76505],[-121.6984,46.76468],[-121.69689,46.76398],[-121.69625,46.76356],[-121.6957,46.76362],[-121.69567,46.76385],[-121.69672,46.76421],[-121.6976,46.7647],[-121.6984,46.76534],[-121.6988,46.76597],[-121.69964,46.76785],[-121.7004,46.76877],[-121.70105,46.76929],[-121.70178,46.76975],[-121.70283,46.77018],[-121.70375,46.77037],[-121.70522,46.77047],[-121.7057,46.7706],[-121.70605,46.77079],[-121.70638,46.77116],[-121.70648,46.77172],[-121.7061,46.77231],[-121.70548,46.77261],[-121.70422,46.77276],[-121.70387,46.77288],[-121.70331,46.77326],[-121.7031,46.77383],[-121.7032,46.77535],[-121.70282,46.77575],[-121.70205,46.77594],[-121.70141,46.77584],[-121.69998,46.77517],[-121.69838,46.77501],[-121.69775,46.77481],[-121.69298,46.77218],[-121.69008,46.77089],[-121.68891,46.77067],[-121.68747,46.77073],[-121.68567,46.77039],[-121.68394,46.7703],[-121.68268,46.77006],[-121.68108,46.77011],[-121.68071,46.76999],[-121.67993,46.76949],[-121.67931,46.76928],[-121.67786,46.76922],[-121.677,46.76904],[-121.67409,46.7677],[-121.673,46.76695],[-121.67249,46.76682],[-121.67108,46.76672],[-121.6679,46.7652],[-121.66689,46.76481],[-121.66659,46.76457],[-121.66612,46.76384],[-121.66557,46.76352],[-121.66412,46.76333],[-121.6619,46.7629],[-121.66087,46.76296],[-121.66,46.76286],[-121.65819,46.7623],[-121.65689,46.76164],[-121.65406,46.76128],[-121.65209,46.76073],[-121.64935,46.75957],[-121.64844,46.75932],[-121.64695,46.75906],[-121.64451,46.75889],[-121.64288,46.75887],[-121.64166,46.75909],[-121.64011,46.75963],[-121.63966,46.75998],[-121.63918,46.76062],[-121.6378,46.7641],[-121.63711,46.7649],[-121.63612,46.76546],[-121.63495,46.76578],[-121.6341,46.76576],[-121.63316,46.76547],[-121.63275,46.76519],[-121.63198,46.76403],[-121.63105,46.76313],[-121.63007,46.7615],[-121.62943,46.76106],[-121.62796,46.76053],[-121.62733,46.7601],[-121.62448,46.75512],[-121.62399,46.75463],[-121.62257,46.75365],[-121.62201,46.75315],[-121.62091,46.75171],[-121.62052,46.75099],[-121.61972,46.7485],[-121.61942,46.74694],[-121.61949,46.74443],[-121.61888,46.74352],[-121.61764,46.74274],[-121.6158,46.7422],[-121.61503,46.74182],[-121.61238,46.73964],[-121.6121,46.73872],[-121.61222,46.73787],[-121.6128,46.73702],[-121.61453,46.73558],[-121.61473,46.73516],[-121.61473,46.73473],[-121.61445,46.73422],[-121.61324,46.73333],[-121.61262,46.73254],[-121.60623,46.72652],[-121.60517,46.72523],[-121.60495,46.72421],[-121.60494,46.72316],[-121.60425,46.7216],[-121.60438,46.72067],[-121.60431,46.72027],[-121.60258,46.71736],[-121.60196,46.71604],[-121.59999,46.70907],[-121.59981,46.70878],[-121.5995,46.70857],[-121.59873,46.70834],[-121.59816,46.70831],[-121.59512,46.70883],[-121.59422,46.70923],[-121.59368,46.70983],[-121.59359,46.71011],[-121.59363,46.71396],[-121.59274,46.71777],[-121.59207,46.71931],[-121.59139,46.7203],[-121.59034,46.72141],[-121.58842,46.72209],[-121.5879,46.72233],[-121.58768,46.72259],[-121.58705,46.7245],[-121.5861,46.72685],[-121.58547,46.72767],[-121.58453,46.72935],[-121.58347,46.73051],[-121.58226,46.73228],[-121.58005,46.735],[-121.57962,46.73572],[-121.57885,46.73763],[-121.57784,46.73886],[-121.57776,46.73938],[-121.57784,46.7404],[-121.57771,46.74085],[-121.57616,46.74315],[-121.57489,46.74584],[-121.57436,46.7467],[-121.57419,46.74686],[-121.57366,46.74701],[-121.57297,46.74693],[-121.5726,46.74668],[-121.57253,46.74625],[-121.57327,46.745],[-121.57333,46.74453],[-121.57314,46.74431],[-121.57274,46.74416],[-121.57222,46.74413],[-121.57192,46.74423],[-121.5711,46.74487],[-121.57062,46.74567],[-121.57051,46.74884],[-121.57022,46.74952],[-121.56976,46.74988],[-121.569,46.75017],[-121.56594,46.75056],[-121.56546,46.75077],[-121.56505,46.75114],[-121.56491,46.75145],[-121.56493,46.75185],[-121.5657,46.75359],[-121.56552,46.75403],[-121.56523,46.75418],[-121.56481,46.75424],[-121.56442,46.75416],[-121.56416,46.754],[-121.56407,46.75366],[-121.56448,46.75246],[-121.56453,46.75174],[-121.56416,46.75148],[-121.5636,46.75154],[-121.56335,46.75168],[-121.56319,46.75211],[-121.56366,46.75505],[-121.56351,46.75559],[-121.56311,46.75613],[-121.56133,46.75756],[-121.5609,46.7581],[-121.56034,46.75954],[-121.55981,46.76003],[-121.55917,46.76016],[-121.55878,46.7601],[-121.55824,46.7598],[-121.55803,46.75947],[-121.55771,46.75858],[-121.5576,46.75771],[-121.55813,46.75624],[-121.55811,46.756],[-121.55782,46.75537],[-121.55755,46.75507],[-121.55689,46.75467]]]}},{"type":"Feature","properties":{"id":"columbia-river-gorge-wa","name":"Columbia River Gorge \u00b7 SR 14","difficulty":1,"character":"Medium speed"},"geometry":{"type":"MultiLineString","coordinates":[[[-122.35616,45.57686],[-122.3557,45.57658],[-122.35421,45.57609],[-122.35237,45.5756],[-122.35084,45.57532],[-122.33869,45.57454],[-122.33786,45.5744],[-122.33739,45.57443],[-122.33699,45.57426],[-122.33533,45.57421],[-122.31272,45.57098],[-122.31097,45.57087],[-122.30884,45.57088],[-122.30048,45.57159],[-122.29952,45.57161],[-122.298,45.57142],[-122.29676,45.57112],[-122.29564,45.57072],[-122.29197,45.56919],[-122.28263,45.56631],[-122.281,45.5659],[-122.2777,45.56526],[-122.27364,45.5637],[-122.26762,45.56179],[-122.26317,45.56066],[-122.25924,45.55988],[-122.25398,45.5597],[-122.24979,45.5598],[-122.24846,45.55947],[-122.24762,45.55944],[-122.24652,45.55972],[-122.24503,45.55982],[-122.24263,45.56018],[-122.24084,45.55991],[-122.23908,45.56032],[-122.23735,45.5604],[-122.23394,45.5612],[-122.23312,45.56125],[-122.23176,45.56105],[-122.22906,45.56161],[-122.22827,45.562],[-122.2271,45.56301],[-122.22604,45.56345],[-122.22139,45.5642],[-122.22035,45.56453],[-122.21965,45.56496],[-122.21887,45.56589],[-122.21838,45.56618],[-122.21772,45.56622],[-122.21663,45.56594],[-122.21586,45.56586],[-122.21352,45.56612],[-122.2128,45.56633],[-122.21171,45.56686],[-122.20993,45.56829],[-122.2095,45.56851],[-122.20854,45.56879],[-122.20466,45.56957],[-122.20202,45.56957],[-122.20131,45.56982],[-122.20084,45.57018],[-122.20055,45.57082],[-122.20067,45.57143],[-122.20111,45.57217],[-122.20109,45.57244],[-122.20088,45.57274],[-122.20008,45.57307],[-122.19756,45.57337],[-122.19643,45.57361],[-122.19573,45.57395],[-122.19519,45.57457],[-122.19483,45.57567],[-122.19493,45.57685],[-122.19442,45.57997],[-122.19448,45.58076],[-122.19482,45.58147],[-122.19483,45.58182],[-122.19461,45.58258],[-122.19429,45.58309],[-122.19315,45.58424],[-122.19249,45.58475],[-122.19174,45.58516],[-122.19004,45.58567],[-122.18801,45.58745],[-122.18732,45.58774],[-122.18584,45.5879],[-122.18394,45.58852],[-122.18179,45.58886],[-122.17584,45.58875],[-122.17113,45.58857],[-122.16744,45.58822],[-122.1665,45.5882],[-122.16591,45.58827],[-122.16353,45.58886],[-122.15855,45.58967],[-122.15778,45.58996],[-122.15602,45.59088],[-122.15463,45.59127],[-122.1522,45.59166],[-122.14761,45.59204],[-122.14634,45.59188],[-122.14515,45.59145],[-122.14442,45.5913],[-122.14327,45.59128],[-122.14141,45.5915],[-122.13993,45.59198],[-122.1301,45.5964],[-122.12819,45.59719],[-122.12618,45.59788],[-122.12555,45.59799],[-122.12493,45.59796],[-122.12338,45.59742],[-122.123,45.59736],[-122.12072,45.59748],[-122.11956,45.59781],[-122.11182,45.6012],[-122.10987,45.60201],[-122.10867,45.60236],[-122.10665,45.60269],[-122.10371,45.60252],[-122.10131,45.6028],[-122.0988,45.60267],[-122.09814,45.60288],[-122.096,45.60405],[-122.09106,45.60573],[-122.087,45.60675],[-122.08589,45.60683],[-122.08374,45.60669],[-122.07876,45.60703],[-122.0703,45.60855],[-122.06648,45.60952],[-122.06304,45.60986],[-122.06025,45.61076],[-122.05502,45.61321],[-122.04982,45.61526],[-122.04057,45.61744],[-122.03826,45.61819],[-122.03725,45.61837],[-122.03533,45.61892],[-122.03212,45.6195],[-122.03127,45.61994],[-122.03003,45.6212],[-122.02956,45.6215],[-122.02882,45.62179],[-122.0266,45.62233],[-122.02552,45.62298],[-122.025,45.62357],[-122.02478,45.62403],[-122.02448,45.62659],[-122.02396,45.62756],[-122.02226,45.62864],[-122.01846,45.63028],[-122.01645,45.63191],[-122.01555,45.63219],[-122.01472,45.63223],[-122.01362,45.63198],[-122.01164,45.63104],[-122.01082,45.6308],[-122.0096,45.63073],[-122.0086,45.63096],[-122.00667,45.63194],[-122.00389,45.63438],[-122.00285,45.63507],[-122.00199,45.63542],[-121.99967,45.63605],[-121.99328,45.63872],[-121.9888,45.64078],[-121.98793,45.64109],[-121.9864,45.64135],[-121.98474,45.64133],[-121.98403,45.64122],[-121.98124,45.64046],[-121.97972,45.64031],[-121.97137,45.64098],[-121.96934,45.64134],[-121.96754,45.64191],[-121.94443,45.65142],[-121.94244,45.65197],[-121.94017,45.65208],[-121.93879,45.6519],[-121.93754,45.65158],[-121.93623,45.65102],[-121.93222,45.64875],[-121.93078,45.64827],[-121.93004,45.64817],[-121.92896,45.64818],[-121.92841,45.64826],[-121.92752,45.64855],[-121.92644,45.64909],[-121.92308,45.65159],[-121.92163,45.65254],[-121.92098,45.65283],[-121.92021,45.65308],[-121.91907,45.65331],[-121.91496,45.65374],[-121.9135,45.65425],[-121.90933,45.6572],[-121.90817,45.65819],[-121.90675,45.65995],[-121.90526,45.66303],[-121.90504,45.66387],[-121.90516,45.66457],[-121.90537,45.66499],[-121.90785,45.66827],[-121.90923,45.66975],[-121.90955,45.67033],[-121.90979,45.67303],[-121.90979,45.67462],[-121.90945,45.67596],[-121.90897,45.67697],[-121.90826,45.67796],[-121.90731,45.67892],[-121.90564,45.68012],[-121.89104,45.68808],[-121.88979,45.68911],[-121.88698,45.69183]]]}}]}
