{"type":"Feature","properties":{"id":"17-mile","name":"17-Mile Drive","difficulty":1,"character":"Low speed"},"geometry":{"type":"MultiLineString","coordinates":[[[-121.94578,36.60356],[-121.94652,36.60389],[-121.9474,36.60469],[-121.94794,36.60492],[-121.94832,36.60495],[-121.95005,36.60474],[-121.9512,36.60556],[-121.95287,36.60711],[-121.95326,36.60767],[-121.95354,36.60782],[-121.95426,36.60858],[-121.95561,36.6095],[-121.95605,36.60968],[-121.95641,36.60972],[-121.95689,36.60965],[-121.95715,36.60947],[-121.95812,36.60778],[-121.95868,36.60648],[-121.9589,36.60557],[-121.95906,36.60419],[-121.96022,36.60224],[-121.96143,36.59976],[-121.9614,36.59915],[-121.96086,36.59701],[-121.9607,36.59583],[-121.96104,36.59497],[-121.96307,36.59154],[-121.96311,36.59125],[-121.9628,36.58994],[-121.9628,36.58955],[-121.96309,36.58879],[-121.96385,36.58766],[-121.96396,36.58612],[-121.96411,36.58562],[-121.96446,36.5853],[-121.96683,36.58371],[-121.96708,36.58342],[-121.96741,36.58245],[-121.9676,36.58217],[-121.96783,36.58204],[-121.9685,36.58192],[-121.97069,36.58211],[-121.97143,36.58242],[-121.9717,36.58293],[-121.97202,36.58307],[-121.97255,36.58299],[-121.97329,36.58301],[-121.97355,36.58281],[-121.97382,36.58233],[-121.97378,36.5822],[-121.97332,36.58188],[-121.97239,36.57981],[-121.97307,36.57857],[-121.97348,36.57829],[-121.97355,36.57814],[-121.973,36.57771],[-121.97283,36.57734],[-121.97236,36.57682],[-121.97069,36.57571],[-121.97063,36.57553],[-121.97089,36.57477],[-121.96946,36.57234],[-121.9691,36.57109],[-121.96785,36.57052],[-121.96672,36.56987],[-121.96589,36.56965],[-121.96493,36.56951],[-121.96403,36.56916],[-121.9629,36.56842],[-121.9618,36.56804],[-121.96149,36.56747],[-121.95993,36.567],[-121.95857,36.56598],[-121.95715,36.56512],[-121.9559,36.56455],[-121.95584,36.56346],[-121.95556,36.56293],[-121.9548,36.56232],[-121.95414,36.56197],[-121.95362,36.56201],[-121.95283,36.56228],[-121.95238,36.56265],[-121.95212,36.5632],[-121.95215,36.56359],[-121.95249,36.56463],[-121.9534,36.56656],[-121.95281,36.56686],[-121.95243,36.568],[-121.95193,36.56823],[-121.95102,36.56841],[-121.95099,36.56896],[-121.95014,36.56953],[-121.9495,36.57057],[-121.94885,36.57131],[-121.94873,36.57162],[-121.94874,36.57211],[-121.94864,36.5722],[-121.94797,36.57229],[-121.94706,36.57146],[-121.94652,36.57127],[-121.94602,36.57129],[-121.94402,36.57179],[-121.94343,36.57158],[-121.94215,36.57135],[-121.94156,36.57107],[-121.93754,36.56807],[-121.93646,36.5668],[-121.93575,36.56536],[-121.93547,36.56499],[-121.93477,36.56465],[-121.93405,36.56452],[-121.93354,36.56396],[-121.93307,36.56373],[-121.93257,36.56358],[-121.93169,36.56358],[-121.93135,36.56349],[-121.92808,36.5611],[-121.92709,36.56068],[-121.92651,36.5606],[-121.92603,36.56076],[-121.92534,36.56145],[-121.92531,36.56171],[-121.92554,36.5622],[-121.92554,36.56246],[-121.92535,36.56299],[-121.92531,36.56361],[-121.92483,36.56462],[-121.92379,36.56605],[-121.92272,36.56706],[-121.92234,36.56789],[-121.91929,36.57213],[-121.91884,36.57246],[-121.91737,36.57284],[-121.91697,36.57304],[-121.91674,36.57329],[-121.9165,36.57384],[-121.91594,36.57437],[-121.91532,36.57548],[-121.91505,36.57568],[-121.91465,36.57578],[-121.91429,36.57574],[-121.91397,36.57559],[-121.91366,36.57526],[-121.91354,36.57466],[-121.91296,36.5744],[-121.91284,36.57451],[-121.91298,36.57497],[-121.91283,36.57514]],[[-121.913,36.57531],[-121.91313,36.57506],[-121.9131,36.57466],[-121.91325,36.57456],[-121.9135,36.57471],[-121.91366,36.57526]],[[-121.93208,36.61335],[-121.93277,36.61296],[-121.93208,36.61335],[-121.93161,36.61369],[-121.93144,36.61404],[-121.93184,36.61588],[-121.93165,36.61711],[-121.93116,36.61811],[-121.93013,36.61913],[-121.93009,36.61936],[-121.93035,36.62031],[-121.93025,36.62115],[-121.93,36.62169],[-121.92944,36.62241],[-121.92894,36.62327],[-121.92697,36.62778],[-121.92664,36.62986]],[[-121.93277,36.61296],[-121.93357,36.61258],[-121.93442,36.61253],[-121.93675,36.612],[-121.93723,36.61168],[-121.93792,36.61088],[-121.93924,36.61072],[-121.94158,36.60946],[-121.94217,36.60838],[-121.94302,36.60771],[-121.94339,36.60705],[-121.94448,36.60627],[-121.94557,36.60516],[-121.94563,36.60482],[-121.94516,36.6037]]]}}
