{"type":"Feature","properties":{"id":"alhambra-valley","name":"Alhambra Valley Road","difficulty":2,"character":"Low speed"},"geometry":{"type":"MultiLineString","coordinates":[[[-122.12478,37.98087],[-122.1249,37.97999],[-122.12576,37.97909],[-122.12625,37.97825],[-122.12624,37.97766],[-122.12643,37.97699],[-122.12649,37.97618],[-122.12657,37.97594],[-122.12715,37.97523],[-122.12745,37.9738],[-122.12741,37.97359],[-122.12631,37.9729],[-122.12616,37.97269],[-122.12622,37.96677],[-122.13269,37.96492],[-122.13426,37.96464],[-122.13594,37.96482],[-122.13843,37.96483],[-122.14024,37.96526],[-122.14132,37.96531],[-122.14627,37.96495],[-122.14747,37.96554],[-122.14884,37.96604],[-122.15104,37.9671],[-122.15229,37.96731],[-122.15328,37.96761],[-122.15579,37.96875],[-122.1571,37.96946],[-122.15756,37.96952],[-122.15843,37.96946],[-122.15965,37.96969],[-122.16118,37.97015],[-122.16228,37.97023],[-122.16378,37.97057],[-122.16612,37.97035],[-122.16686,37.97011],[-122.16791,37.97027],[-122.16939,37.97002],[-122.16992,37.96984],[-122.17115,37.96916],[-122.17187,37.96855],[-122.17223,37.96842],[-122.17284,37.96844],[-122.17397,37.9688],[-122.17452,37.96888],[-122.17639,37.96885],[-122.17701,37.96875],[-122.17778,37.96769],[-122.17792,37.96713],[-122.17776,37.96583],[-122.17746,37.96477],[-122.17668,37.96307],[-122.17662,37.96275],[-122.17684,37.96251],[-122.1771,37.96241],[-122.17978,37.96201],[-122.18406,37.96245],[-122.18458,37.96243],[-122.18552,37.96221],[-122.18582,37.96223],[-122.18642,37.96252],[-122.18811,37.96377],[-122.1891,37.96413],[-122.18964,37.96444],[-122.19101,37.96494],[-122.19353,37.96547],[-122.19411,37.96547],[-122.19522,37.96528],[-122.19621,37.96489],[-122.19668,37.96455],[-122.19741,37.96367],[-122.19874,37.96303],[-122.20074,37.96317],[-122.20188,37.96339],[-122.20354,37.96438],[-122.20562,37.96497],[-122.20661,37.96585],[-122.20827,37.96671],[-122.20932,37.9678],[-122.20979,37.96845],[-122.21018,37.96872],[-122.21128,37.96893],[-122.21287,37.96975],[-122.21512,37.97046],[-122.21567,37.97036],[-122.21615,37.96999],[-122.21649,37.96989],[-122.21849,37.96967],[-122.21888,37.96974],[-122.22047,37.97057],[-122.221,37.97051],[-122.22151,37.97058],[-122.22297,37.97169],[-122.22319,37.97197],[-122.22332,37.97239],[-122.22362,37.97269],[-122.22455,37.97297],[-122.22554,37.97344],[-122.22713,37.97339],[-122.22801,37.97325],[-122.22838,37.9733],[-122.22902,37.97363],[-122.2303,37.97469],[-122.23081,37.9749],[-122.23174,37.97487],[-122.23407,37.97412],[-122.23716,37.97215],[-122.23756,37.97203],[-122.23871,37.97188],[-122.24171,37.97181],[-122.24218,37.97166],[-122.24301,37.97116],[-122.24366,37.97109],[-122.2445,37.97138],[-122.24548,37.97209],[-122.24606,37.97218],[-122.24737,37.97216],[-122.24783,37.97227],[-122.24874,37.97293],[-122.24991,37.9733],[-122.25014,37.97345],[-122.25034,37.97367],[-122.25094,37.97486],[-122.25137,37.97523],[-122.25613,37.97722]]]}}
