{"type":"Feature","properties":{"id":"almaden-alamitos","name":"Almaden Road & Alamitos Road","difficulty":2,"character":"Low speed"},"geometry":{"type":"MultiLineString","coordinates":[[[-121.84018,37.20443],[-121.84047,37.2037],[-121.84032,37.20336],[-121.83904,37.20207],[-121.83605,37.19985],[-121.83454,37.19882],[-121.82844,37.19534],[-121.82674,37.19411],[-121.82457,37.19275],[-121.81897,37.18886],[-121.81826,37.18819],[-121.81769,37.18681],[-121.81745,37.18574],[-121.81652,37.18419],[-121.81602,37.18303],[-121.81614,37.18197],[-121.81608,37.18094],[-121.8162,37.18039],[-121.81641,37.18004],[-121.81689,37.17972],[-121.81868,37.17928],[-121.82087,37.17815],[-121.82124,37.17779],[-121.82197,37.1766],[-121.82454,37.17436]]]}}
