{"type":"Feature","properties":{"id":"altamont-pass","name":"Altamont Pass Road","difficulty":2,"character":"Medium speed"},"geometry":{"type":"MultiLineString","coordinates":[[[-121.71057,37.71515],[-121.70936,37.7156],[-121.70831,37.71611],[-121.70618,37.71758],[-121.70557,37.71788],[-121.70062,37.7193],[-121.69821,37.72064],[-121.69729,37.72133],[-121.69634,37.72242],[-121.69581,37.72377],[-121.69552,37.72417],[-121.69491,37.72464],[-121.69424,37.72489],[-121.69354,37.72498],[-121.69208,37.72482],[-121.6911,37.72434],[-121.68974,37.72328],[-121.68906,37.72292],[-121.68839,37.72273],[-121.6875,37.7227],[-121.68603,37.72308],[-121.68397,37.72339],[-121.68284,37.72331],[-121.68055,37.7228],[-121.6796,37.72271],[-121.67785,37.7229],[-121.67704,37.72316],[-121.67593,37.72402],[-121.67563,37.72455],[-121.6755,37.72592],[-121.67516,37.72775],[-121.67476,37.72884],[-121.67406,37.7298],[-121.67235,37.73135],[-121.67101,37.73333],[-121.67058,37.73412],[-121.67036,37.73502],[-121.67035,37.738],[-121.6702,37.73856],[-121.66986,37.73912],[-121.66865,37.74035],[-121.66758,37.74118],[-121.6672,37.74138],[-121.66559,37.74192],[-121.6607,37.74455],[-121.65946,37.74593],[-121.65857,37.74637],[-121.65792,37.74656],[-121.65552,37.74668],[-121.65441,37.74649],[-121.65314,37.74559],[-121.65198,37.74505],[-121.65135,37.74484],[-121.64995,37.74463],[-121.64886,37.7442],[-121.64794,37.74397],[-121.64353,37.74469],[-121.63929,37.74468],[-121.63659,37.74512],[-121.63461,37.74505],[-121.63007,37.74519],[-121.62951,37.74513],[-121.62622,37.74371],[-121.62443,37.74211],[-121.62403,37.74189],[-121.62369,37.74172],[-121.62211,37.74129],[-121.62125,37.74114],[-121.61732,37.74093],[-121.61471,37.7411],[-121.61134,37.74084],[-121.60997,37.74095],[-121.6076,37.74163],[-121.60102,37.74458],[-121.60019,37.74485],[-121.59883,37.74491],[-121.59634,37.74478],[-121.59482,37.74465],[-121.59252,37.74423],[-121.59061,37.74444],[-121.58848,37.74446],[-121.58673,37.74473],[-121.58559,37.74518],[-121.58428,37.74604],[-121.58401,37.74603]]]}}
