{"type":"Feature","properties":{"id":"angeles-forest","name":"Angeles Forest Highway \u00b7 N3","difficulty":2,"character":"Medium speed"},"geometry":{"type":"MultiLineString","coordinates":[[[-118.15346,34.27023],[-118.15374,34.2711],[-118.15402,34.2714],[-118.1544,34.2716],[-118.15478,34.27169],[-118.15525,34.27167],[-118.15637,34.27138],[-118.15689,34.27141],[-118.15735,34.27154],[-118.15786,34.27181],[-118.15975,34.27334],[-118.16214,34.27413],[-118.16344,34.2753],[-118.1641,34.27564],[-118.16491,34.27577],[-118.16562,34.27576],[-118.16609,34.27594],[-118.16659,34.27638],[-118.16687,34.27698],[-118.16693,34.27807],[-118.16719,34.27864],[-118.16784,34.27898],[-118.16878,34.27895],[-118.16938,34.27912],[-118.16961,34.27928],[-118.1702,34.28022],[-118.17048,34.28047],[-118.17113,34.28065],[-118.17199,34.28056],[-118.17448,34.28094],[-118.17631,34.28148],[-118.17668,34.28176],[-118.17707,34.28253],[-118.17742,34.28278],[-118.17789,34.28279],[-118.17891,34.2826],[-118.17946,34.28281],[-118.18006,34.28352],[-118.18053,34.28445],[-118.18009,34.28552],[-118.18018,34.28597],[-118.18075,34.28675],[-118.18076,34.28744],[-118.18066,34.2877],[-118.18029,34.28804],[-118.17949,34.28846],[-118.17838,34.28852],[-118.17732,34.28931],[-118.17614,34.28975],[-118.17587,34.28998],[-118.17541,34.29084],[-118.17505,34.29103],[-118.17405,34.29113],[-118.1728,34.29151],[-118.17074,34.29097],[-118.17001,34.291],[-118.1697,34.29124],[-118.16953,34.29175],[-118.17002,34.29279],[-118.17003,34.29322],[-118.16982,34.29377],[-118.16937,34.2942],[-118.1678,34.29516],[-118.16742,34.29522],[-118.16657,34.29519],[-118.16607,34.29535],[-118.16573,34.29576],[-118.16559,34.29649],[-118.16515,34.29689],[-118.16451,34.29696],[-118.16361,34.29657],[-118.1629,34.29647],[-118.16249,34.29651],[-118.16126,34.29691]]]}}
