{"type":"Feature","properties":{"id":"angeles-crest-newcombs","name":"Angeles Crest Highway \u00b7 to Newcomb's Ranch","difficulty":2,"character":"Medium speed"},"geometry":{"type":"MultiLineString","coordinates":[[[-118.04339,34.27295],[-118.04171,34.27351],[-118.04111,34.27364],[-118.03758,34.27352],[-118.03482,34.27383],[-118.03265,34.27332],[-118.03184,34.27278],[-118.03147,34.27269],[-118.02947,34.27296],[-118.02845,34.27293],[-118.02709,34.27302],[-118.02666,34.2729],[-118.02595,34.27243],[-118.02542,34.27233],[-118.02501,34.27246],[-118.02391,34.27308],[-118.02278,34.27318],[-118.02155,34.27349],[-118.02059,34.27339],[-118.02009,34.27343],[-118.01964,34.27362],[-118.01911,34.27403],[-118.01869,34.27417],[-118.01828,34.27415],[-118.01722,34.27378],[-118.01615,34.27394],[-118.01525,34.2739],[-118.01405,34.27467],[-118.01288,34.275],[-118.01185,34.27555],[-118.01064,34.27677],[-118.00998,34.27713],[-118.00826,34.27746],[-118.0073,34.27784],[-118.00621,34.27774],[-118.00572,34.27787],[-118.00539,34.27825],[-118.00488,34.27938],[-118.00365,34.28037],[-118.00186,34.28251],[-117.99952,34.28448],[-117.99858,34.28478],[-117.99606,34.28515],[-117.99534,34.28514],[-117.99423,34.28494],[-117.99385,34.28497],[-117.99323,34.28521],[-117.9929,34.28554],[-117.99273,34.28597],[-117.99271,34.28631],[-117.99298,34.28688],[-117.99446,34.28868],[-117.99502,34.28904],[-117.99573,34.28933],[-117.9962,34.28985],[-117.99618,34.29045],[-117.99556,34.29235],[-117.99555,34.29262],[-117.99571,34.29293],[-117.9963,34.29319],[-117.99765,34.29307],[-117.9984,34.29321],[-117.99912,34.29368],[-117.99963,34.29454],[-118.00009,34.29493],[-118.00059,34.29504],[-118.0019,34.29501],[-118.00231,34.29512],[-118.00278,34.29542],[-118.00312,34.29588],[-118.00323,34.29651],[-118.00309,34.29694],[-118.00257,34.29773],[-118.0026,34.29815],[-118.00283,34.29841],[-118.00312,34.29858],[-118.00361,34.29864],[-118.00528,34.29818],[-118.00595,34.2981],[-118.00881,34.29838],[-118.00954,34.29861],[-118.01022,34.29899],[-118.01249,34.30056],[-118.01294,34.30096],[-118.01348,34.30171],[-118.01376,34.30269],[-118.01371,34.30345],[-118.01323,34.3049],[-118.01333,34.30573],[-118.01374,34.30628],[-118.0149,34.30713],[-118.01577,34.30826],[-118.01604,34.30882],[-118.01594,34.30941],[-118.01554,34.30983],[-118.015,34.31003],[-118.01378,34.31004],[-118.01344,34.31013],[-118.01309,34.31034],[-118.0124,34.31113],[-118.01177,34.3115],[-118.01097,34.31161],[-118.00974,34.31142],[-118.00937,34.31143],[-118.0089,34.31161],[-118.00853,34.31195],[-118.00756,34.31386],[-118.00753,34.31441],[-118.00775,34.3148],[-118.00803,34.31504],[-118.00943,34.31556],[-118.00985,34.31585],[-118.01016,34.31623],[-118.01043,34.31686],[-118.01067,34.31783],[-118.01057,34.31827],[-118.01024,34.31872],[-118.00971,34.31902],[-118.00912,34.31912],[-118.00732,34.31873],[-118.00508,34.31903],[-118.00324,34.31901],[-118.00288,34.3191],[-118.00242,34.31944],[-118.00176,34.32049],[-118.00172,34.32098],[-118.003,34.32278],[-118.00318,34.32349],[-118.00257,34.32688],[-118.00177,34.32947]]]}}
