{"type":"Feature","properties":{"id":"angeles-crest-west","name":"Angeles Crest Highway \u00b7 western SR 2","difficulty":2,"character":"Medium speed"},"geometry":{"type":"MultiLineString","coordinates":[[[-118.20007,34.21299],[-118.2001,34.21733],[-118.19988,34.21804],[-118.19953,34.21848],[-118.19905,34.21881],[-118.19846,34.21904],[-118.19796,34.21911],[-118.19644,34.21911],[-118.1954,34.21899],[-118.19385,34.21842],[-118.19292,34.21743],[-118.19211,34.21713],[-118.1902,34.21742],[-118.18978,34.21772],[-118.18957,34.21795],[-118.18944,34.21831],[-118.18944,34.21869],[-118.18958,34.21899],[-118.19002,34.21939],[-118.19273,34.22104],[-118.19297,34.22133],[-118.19309,34.22169],[-118.19295,34.2223],[-118.19276,34.22252],[-118.19229,34.22279],[-118.19058,34.223],[-118.18983,34.22336],[-118.18791,34.22512],[-118.1879,34.22552],[-118.18836,34.22627],[-118.18833,34.22663],[-118.18815,34.22687],[-118.18787,34.22707],[-118.18751,34.22717],[-118.18666,34.22714],[-118.18627,34.22723],[-118.18561,34.2282],[-118.1845,34.22875],[-118.18298,34.22884],[-118.18275,34.22905],[-118.18258,34.22978],[-118.18162,34.23023],[-118.18143,34.2306],[-118.18158,34.23166],[-118.18172,34.23189],[-118.18249,34.23222],[-118.1835,34.23289],[-118.18363,34.23317],[-118.18363,34.23427],[-118.18413,34.23549],[-118.18508,34.23617],[-118.18536,34.23688],[-118.1856,34.2372],[-118.18597,34.23745],[-118.18628,34.23753],[-118.18904,34.23741],[-118.18934,34.23751],[-118.18964,34.23781],[-118.18985,34.2382],[-118.18985,34.23863],[-118.18961,34.23891],[-118.18889,34.23924],[-118.1885,34.23959],[-118.18832,34.24007],[-118.18827,34.2411],[-118.18854,34.24163],[-118.18939,34.24205],[-118.18963,34.24234],[-118.18967,34.24335],[-118.18986,34.24365],[-118.19038,34.24411],[-118.19055,34.24443],[-118.19044,34.24547],[-118.19054,34.24582],[-118.19237,34.24787],[-118.1928,34.24802],[-118.1938,34.24808],[-118.19415,34.24821],[-118.19441,34.24845],[-118.19452,34.24867],[-118.19452,34.24906],[-118.19414,34.24969],[-118.194,34.25013],[-118.19402,34.2504],[-118.19422,34.25074],[-118.19536,34.25185],[-118.19586,34.25196],[-118.19679,34.25183],[-118.19731,34.25199],[-118.19756,34.25242],[-118.19744,34.25317],[-118.19752,34.25356],[-118.19793,34.25393],[-118.19862,34.25409],[-118.19892,34.25427],[-118.19909,34.25458],[-118.19909,34.25493],[-118.19811,34.25605],[-118.19784,34.25618],[-118.19707,34.25625],[-118.1966,34.25657],[-118.19652,34.25696],[-118.19702,34.25816],[-118.19712,34.25872],[-118.19697,34.25912],[-118.19663,34.25945],[-118.19612,34.25962],[-118.19542,34.25956],[-118.19487,34.25924],[-118.19429,34.25842],[-118.19397,34.25813],[-118.19357,34.258],[-118.19311,34.25805],[-118.19268,34.25832],[-118.19244,34.25866],[-118.19247,34.26001],[-118.19216,34.26038],[-118.19158,34.26054],[-118.18903,34.26024],[-118.18865,34.26034],[-118.18841,34.2605],[-118.18819,34.26076],[-118.18814,34.261],[-118.18839,34.2618],[-118.18835,34.26209],[-118.18782,34.26269],[-118.18728,34.26302],[-118.18671,34.26307],[-118.18631,34.2629],[-118.18537,34.26199],[-118.18474,34.26087],[-118.18454,34.26069],[-118.18384,34.26054],[-118.18332,34.26071],[-118.18309,34.26089],[-118.18292,34.26128],[-118.18268,34.26267],[-118.18291,34.26444],[-118.18274,34.26472],[-118.18244,34.26492],[-118.18173,34.26498],[-118.18062,34.26453],[-118.17916,34.26428],[-118.17839,34.26397],[-118.17762,34.26334],[-118.17716,34.26309],[-118.17658,34.26296],[-118.17599,34.26299],[-118.17564,34.26307],[-118.17471,34.26353],[-118.17424,34.26395],[-118.17399,34.2654],[-118.17404,34.26632],[-118.17364,34.26697],[-118.17322,34.26725],[-118.17272,34.2674],[-118.17133,34.26736],[-118.17101,34.26743],[-118.17063,34.26769],[-118.16989,34.2685],[-118.16873,34.26937],[-118.16826,34.26959],[-118.16744,34.26967],[-118.16633,34.26951],[-118.16518,34.26888],[-118.16358,34.26851],[-118.16246,34.26764],[-118.16195,34.26748],[-118.16144,34.26763],[-118.16023,34.26848],[-118.1594,34.26952],[-118.15899,34.26974],[-118.15851,34.26977],[-118.15749,34.26959],[-118.15509,34.26965],[-118.15427,34.26983],[-118.15285,34.27035],[-118.15227,34.27034],[-118.14992,34.26981],[-118.14692,34.26929],[-118.1452,34.26851],[-118.14461,34.26835],[-118.14387,34.26842],[-118.14136,34.26951],[-118.14075,34.26955],[-118.14019,34.26922],[-118.13987,34.26841],[-118.13957,34.26813],[-118.13917,34.268],[-118.13841,34.26798],[-118.13781,34.26778],[-118.13658,34.267],[-118.13433,34.26597],[-118.13321,34.26576],[-118.13122,34.26605],[-118.13079,34.26596],[-118.12894,34.26522],[-118.12858,34.26518],[-118.12765,34.26538],[-118.12726,34.26536],[-118.12653,34.26507],[-118.12537,34.26415],[-118.12472,34.26392],[-118.12282,34.26347],[-118.12156,34.26366],[-118.12095,34.26359],[-118.12032,34.26325],[-118.11947,34.26248],[-118.1172,34.26175],[-118.11679,34.26146],[-118.11639,34.26089],[-118.11613,34.26075],[-118.11583,34.26074],[-118.11553,34.26081],[-118.11532,34.261],[-118.11527,34.26146],[-118.11554,34.26176],[-118.11616,34.26199],[-118.11648,34.26221],[-118.11699,34.26317],[-118.11713,34.2637],[-118.1169,34.2651],[-118.1163,34.266],[-118.1163,34.26646],[-118.11643,34.26664],[-118.11677,34.26681],[-118.118,34.26692],[-118.11823,34.26706],[-118.11845,34.26742],[-118.11848,34.26769],[-118.11832,34.26802],[-118.11802,34.26821],[-118.11761,34.26823],[-118.11719,34.26803],[-118.11617,34.26706],[-118.11487,34.26645],[-118.11464,34.26626],[-118.1145,34.26602],[-118.11449,34.26569],[-118.11523,34.26461],[-118.11525,34.26381],[-118.11494,34.26329],[-118.11329,34.2622],[-118.11281,34.26206],[-118.11229,34.26227],[-118.11209,34.2626],[-118.11204,34.26349],[-118.11177,34.26376],[-118.11115,34.26404],[-118.11067,34.26405],[-118.10972,34.26369],[-118.10833,34.26398],[-118.108,34.26396],[-118.10781,34.26385],[-118.10762,34.26359],[-118.10761,34.26336],[-118.10824,34.26267],[-118.10834,34.26239],[-118.10829,34.26215],[-118.10781,34.26149],[-118.10745,34.26067],[-118.10619,34.25904],[-118.10576,34.25865],[-118.10523,34.25847],[-118.10459,34.25857],[-118.10423,34.25876],[-118.1034,34.26013],[-118.10287,34.26063],[-118.10227,34.26083],[-118.10104,34.261],[-118.1005,34.26132],[-118.09974,34.26268],[-118.09985,34.26342],[-118.09977,34.26375],[-118.09825,34.26533],[-118.09749,34.26568],[-118.09698,34.2657],[-118.09563,34.26532],[-118.09506,34.26527],[-118.09426,34.26538],[-118.09343,34.26571],[-118.09279,34.26575],[-118.09221,34.26549],[-118.09061,34.26438],[-118.08999,34.2643],[-118.08945,34.2645],[-118.08856,34.26539],[-118.08799,34.26571],[-118.08746,34.2658],[-118.08657,34.2657],[-118.08609,34.26578],[-118.08576,34.26594],[-118.08534,34.26641],[-118.08494,34.26657],[-118.0845,34.26655],[-118.08377,34.26633],[-118.0833,34.26633],[-118.08297,34.26649],[-118.08209,34.26719],[-118.08075,34.26725],[-118.08033,34.26752],[-118.07987,34.26838],[-118.07942,34.26864],[-118.07876,34.26866],[-118.07748,34.26836],[-118.07688,34.26846],[-118.07662,34.26865],[-118.07593,34.26955],[-118.07532,34.26982],[-118.07484,34.26986],[-118.07438,34.26971],[-118.07318,34.26894],[-118.07078,34.26777],[-118.07003,34.26768],[-118.06851,34.2679],[-118.06646,34.26795],[-118.06601,34.26807],[-118.06461,34.26876],[-118.06334,34.26897],[-118.06263,34.26953],[-118.06167,34.26987],[-118.06126,34.2703],[-118.06111,34.27125],[-118.06093,34.27147],[-118.0606,34.27162],[-118.06006,34.27157],[-118.05918,34.27102],[-118.0586,34.2709],[-118.05818,34.27097],[-118.05645,34.27162],[-118.05587,34.27169],[-118.05487,34.27137],[-118.0537,34.27139],[-118.05267,34.27082],[-118.05233,34.27071],[-118.05088,34.27059],[-118.05028,34.27074],[-118.04575,34.27273],[-118.04518,34.27286],[-118.04339,34.27295]]]}}
