{"type":"Feature","properties":{"id":"aufderheide-drive","name":"Aufderheide Drive \u00b7 FR 19","difficulty":1,"character":"Medium speed"},"geometry":{"type":"MultiLineString","coordinates":[[[-122.49533,43.75826],[-122.49428,43.759],[-122.49381,43.75968],[-122.49344,43.76001],[-122.4915,43.76101],[-122.49115,43.76131],[-122.4904,43.76281],[-122.48931,43.76452],[-122.48873,43.76699],[-122.48778,43.76864],[-122.4864,43.76996],[-122.48338,43.77253],[-122.48239,43.77325],[-122.47744,43.77615],[-122.47651,43.77657],[-122.47531,43.77686],[-122.46868,43.7775],[-122.46734,43.77785],[-122.4662,43.77847],[-122.46574,43.77897],[-122.46532,43.77972],[-122.46369,43.78608],[-122.46328,43.78693],[-122.46218,43.78855],[-122.46124,43.78942],[-122.45711,43.79255],[-122.45635,43.79288],[-122.45303,43.79397],[-122.45236,43.79433],[-122.45121,43.79571],[-122.45048,43.79682],[-122.45016,43.79748],[-122.45021,43.79803],[-122.4501,43.79848],[-122.44977,43.79898],[-122.44955,43.79912],[-122.4488,43.79933],[-122.44757,43.79901],[-122.44699,43.79899],[-122.44514,43.79944],[-122.4436,43.80066],[-122.44296,43.80105],[-122.43957,43.80222],[-122.43853,43.80235],[-122.43732,43.80235],[-122.43649,43.80223],[-122.43567,43.80234],[-122.43491,43.80291],[-122.43457,43.8036],[-122.43306,43.80525],[-122.43236,43.80545],[-122.43089,43.80541],[-122.42993,43.806],[-122.42896,43.80727],[-122.42885,43.80769],[-122.42893,43.80853],[-122.4288,43.80886],[-122.42837,43.80926],[-122.42803,43.80938],[-122.42704,43.80947],[-122.42587,43.80987],[-122.42267,43.81154],[-122.42204,43.81175],[-122.42108,43.81189],[-122.41925,43.8119],[-122.41805,43.81205],[-122.41763,43.81202],[-122.41652,43.81174],[-122.41581,43.81169],[-122.41436,43.81225],[-122.41161,43.81283],[-122.41107,43.81317],[-122.41023,43.81421],[-122.40921,43.81508],[-122.40849,43.81595],[-122.408,43.81622],[-122.40559,43.817],[-122.40439,43.81796],[-122.40368,43.81884],[-122.40361,43.82086],[-122.40395,43.82256],[-122.40361,43.82427],[-122.40296,43.82556],[-122.40296,43.82626],[-122.40275,43.82662],[-122.40181,43.82755],[-122.40032,43.82989],[-122.39947,43.83222],[-122.3995,43.83278],[-122.40056,43.83609],[-122.40138,43.83703],[-122.40182,43.83806],[-122.40418,43.84002],[-122.4044,43.84069],[-122.4049,43.84246],[-122.40438,43.84334],[-122.40473,43.84436],[-122.40465,43.84596],[-122.40397,43.84688],[-122.40466,43.84926],[-122.40593,43.85077],[-122.40692,43.85151],[-122.40728,43.85233],[-122.40909,43.85356],[-122.41064,43.85445],[-122.41117,43.85505],[-122.41137,43.85575],[-122.4108,43.85746],[-122.4117,43.85921],[-122.41183,43.86043],[-122.41172,43.86066],[-122.41127,43.86122],[-122.41071,43.8617],[-122.40987,43.86339],[-122.40704,43.86569],[-122.40529,43.8665],[-122.40452,43.86706],[-122.40393,43.86733],[-122.40344,43.86743],[-122.40202,43.86733],[-122.40163,43.86748],[-122.4011,43.86786],[-122.40054,43.86934],[-122.39962,43.87037],[-122.39898,43.87167],[-122.39691,43.87389],[-122.39443,43.87695],[-122.39377,43.87749],[-122.39152,43.87801],[-122.38707,43.87825],[-122.38578,43.87862],[-122.38377,43.87937],[-122.3806,43.88013],[-122.3797,43.88009],[-122.3772,43.88046],[-122.37603,43.88077],[-122.3756,43.88106],[-122.37515,43.88176],[-122.37395,43.88311],[-122.37344,43.88459],[-122.37337,43.88535],[-122.37297,43.88558],[-122.37123,43.88552],[-122.37029,43.88529],[-122.3696,43.88497],[-122.36839,43.88394],[-122.36761,43.88397],[-122.36652,43.88437],[-122.36609,43.88444],[-122.36317,43.88403],[-122.36161,43.88401],[-122.36059,43.88376],[-122.35911,43.88377],[-122.35818,43.88361],[-122.35613,43.8839],[-122.35404,43.88355],[-122.3528,43.88299],[-122.35204,43.88288],[-122.35147,43.88269],[-122.35016,43.88204],[-122.34933,43.88199],[-122.34837,43.88205],[-122.34764,43.88238],[-122.34269,43.88409],[-122.34225,43.88437],[-122.34193,43.88497],[-122.34161,43.88632],[-122.34092,43.8875],[-122.34055,43.88787],[-122.33959,43.88835],[-122.33828,43.88976],[-122.33769,43.89022],[-122.33677,43.89059],[-122.33535,43.89091],[-122.33446,43.89082],[-122.33316,43.89029],[-122.3325,43.89017],[-122.33195,43.89016],[-122.33126,43.89033],[-122.32987,43.89126],[-122.32817,43.89356],[-122.32649,43.89495],[-122.32579,43.89521],[-122.32414,43.89532],[-122.32295,43.8951],[-122.32126,43.89418],[-122.31994,43.89418],[-122.31758,43.89323],[-122.31296,43.89183],[-122.31096,43.89112],[-122.30845,43.89066],[-122.30771,43.89029],[-122.30587,43.88964],[-122.30491,43.88887],[-122.30459,43.88873],[-122.30335,43.88868],[-122.30237,43.88884],[-122.302,43.88909],[-122.30136,43.88991],[-122.30067,43.89022],[-122.30025,43.89028],[-122.29986,43.89027],[-122.29936,43.89009],[-122.29839,43.88925],[-122.29739,43.88904],[-122.29654,43.88905],[-122.29517,43.88925],[-122.29379,43.88958],[-122.29246,43.88959],[-122.2918,43.88927],[-122.28938,43.88771],[-122.28779,43.88709],[-122.28642,43.88691],[-122.28172,43.8872],[-122.28001,43.88712],[-122.27924,43.8868],[-122.27763,43.88574],[-122.27545,43.88497],[-122.27338,43.88438],[-122.26808,43.88409],[-122.2661,43.8836],[-122.26433,43.88352],[-122.26245,43.88373],[-122.25915,43.88452],[-122.25809,43.88464],[-122.25722,43.88463],[-122.256,43.88438],[-122.25461,43.88381],[-122.25388,43.88332],[-122.25298,43.88237],[-122.25235,43.88205],[-122.25014,43.88185],[-122.24876,43.88216],[-122.24649,43.88357],[-122.24556,43.88403],[-122.24467,43.88478],[-122.2442,43.8849],[-122.2425,43.8843],[-122.23887,43.88396],[-122.23316,43.88294],[-122.23135,43.88276],[-122.22195,43.88042],[-122.21522,43.87817],[-122.21095,43.8774],[-122.21027,43.87714],[-122.20726,43.87563],[-122.2036,43.87366],[-122.20279,43.87347],[-122.19958,43.87362],[-122.18563,43.87481],[-122.18414,43.87459],[-122.18196,43.87349],[-122.18079,43.87333],[-122.1769,43.87414],[-122.17299,43.87507],[-122.16677,43.87566],[-122.14601,43.87717],[-122.13819,43.87732],[-122.13411,43.87786],[-122.13041,43.87822],[-122.12471,43.87784],[-122.12349,43.87794],[-122.12247,43.87817],[-122.1214,43.87873],[-122.12102,43.87906],[-122.11683,43.8839],[-122.1159,43.88478],[-122.11484,43.88557],[-122.11358,43.88623],[-122.1123,43.88666],[-122.10666,43.88759],[-122.10241,43.88875],[-122.10116,43.88895],[-122.08971,43.8889],[-122.08806,43.88885],[-122.08678,43.88863],[-122.08593,43.88832],[-122.08492,43.88772],[-122.07877,43.88274],[-122.07741,43.8818],[-122.0727,43.8796],[-122.07125,43.87902],[-122.07067,43.87903],[-122.06994,43.87951],[-122.06986,43.87996],[-122.07045,43.88131],[-122.07081,43.88282],[-122.07336,43.88678],[-122.07452,43.88818],[-122.07803,43.89178],[-122.07951,43.89387],[-122.0803,43.89603],[-122.08099,43.89746],[-122.08128,43.89841],[-122.08132,43.89903],[-122.08171,43.9007],[-122.08265,43.90167],[-122.08346,43.90299],[-122.08362,43.9035],[-122.083,43.9046],[-122.08219,43.90782],[-122.08047,43.91086],[-122.07997,43.91153],[-122.07829,43.91296],[-122.0767,43.91568],[-122.07643,43.91591],[-122.0753,43.91639],[-122.07465,43.91693],[-122.0741,43.91786],[-122.0732,43.91989],[-122.07314,43.92048],[-122.07342,43.92174],[-122.07368,43.92435],[-122.0736,43.9252],[-122.07326,43.926],[-122.07326,43.92635],[-122.07353,43.92762],[-122.07388,43.92837],[-122.07401,43.92922],[-122.07441,43.92999],[-122.07385,43.93147],[-122.07316,43.93259],[-122.07253,43.93304],[-122.07021,43.93427],[-122.06905,43.93519],[-122.06793,43.93558],[-122.06676,43.93569],[-122.06662,43.9359],[-122.06677,43.93619],[-122.06708,43.9363],[-122.06833,43.93613],[-122.06866,43.93616],[-122.06897,43.93624],[-122.06933,43.93653],[-122.06955,43.93714],[-122.07043,43.93792],[-122.07054,43.93913],[-122.0713,43.94032],[-122.07194,43.94106],[-122.07292,43.94109],[-122.07339,43.9412],[-122.07382,43.94153],[-122.07499,43.94287],[-122.07559,43.94333],[-122.07695,43.94389],[-122.07754,43.94428],[-122.08032,43.94516],[-122.08111,43.94558],[-122.08148,43.9459],[-122.08206,43.94668],[-122.08266,43.949],[-122.08415,43.95117],[-122.08448,43.95186],[-122.08532,43.95541],[-122.0851,43.95676],[-122.08564,43.9573],[-122.08914,43.95834],[-122.09003,43.95851],[-122.09312,43.95824],[-122.10003,43.95741],[-122.10078,43.95743],[-122.10212,43.95764],[-122.10333,43.95794],[-122.11038,43.95997],[-122.11675,43.95998],[-122.11934,43.96023],[-122.12305,43.9612],[-122.12587,43.96182],[-122.1277,43.96198],[-122.12954,43.96178],[-122.13089,43.96196],[-122.13159,43.96217],[-122.13217,43.96249],[-122.13325,43.96358],[-122.13349,43.9637],[-122.13572,43.96417],[-122.13702,43.96439],[-122.1379,43.96441],[-122.14193,43.96383],[-122.14299,43.96391],[-122.14592,43.96514],[-122.14655,43.9653],[-122.14748,43.96524],[-122.14893,43.9659],[-122.15038,43.96576],[-122.15192,43.96621],[-122.15345,43.96621],[-122.15807,43.96815],[-122.15879,43.96861],[-122.16015,43.96973],[-122.16111,43.97098],[-122.16154,43.97137],[-122.16386,43.97256],[-122.16644,43.97419],[-122.16728,43.97483],[-122.16805,43.97561],[-122.16838,43.97605],[-122.16993,43.9791],[-122.17024,43.97946],[-122.17118,43.98013],[-122.17248,43.98186],[-122.17361,43.9826],[-122.17465,43.98346],[-122.17546,43.9848],[-122.17555,43.98533],[-122.1751,43.98855],[-122.17619,43.99206],[-122.17623,43.99308],[-122.17605,43.9941],[-122.17639,43.99489],[-122.17618,43.99568],[-122.17556,43.99689],[-122.17435,43.99838],[-122.17396,43.99976],[-122.17309,44.00042],[-122.17279,44.00122],[-122.17205,44.00204],[-122.17136,44.00336],[-122.1715,44.00395],[-122.1719,44.00451],[-122.17247,44.00505],[-122.17396,44.00615],[-122.17418,44.00658],[-122.17387,44.00713],[-122.17341,44.00756],[-122.17211,44.00815],[-122.17164,44.0085],[-122.17166,44.00879],[-122.17207,44.00978],[-122.17221,44.01162],[-122.17321,44.01288],[-122.17363,44.01369],[-122.17351,44.01393],[-122.17205,44.01527],[-122.17176,44.01604],[-122.17183,44.01667],[-122.17245,44.01748],[-122.17395,44.01849],[-122.17491,44.01978],[-122.176,44.02053],[-122.17696,44.02153],[-122.17968,44.02327],[-122.18052,44.02368],[-122.18247,44.02395],[-122.18292,44.02411],[-122.18478,44.02518],[-122.18632,44.02556],[-122.18731,44.02597],[-122.18788,44.02649],[-122.18852,44.0274],[-122.18958,44.02975],[-122.1905,44.03055],[-122.19173,44.03104],[-122.19322,44.0314],[-122.19589,44.03288],[-122.19924,44.03364],[-122.19998,44.03396],[-122.2005,44.03457],[-122.20148,44.03695],[-122.20163,44.03763],[-122.20189,44.03795],[-122.2055,44.04043],[-122.20636,44.04152],[-122.20685,44.04191],[-122.21013,44.04372],[-122.21138,44.04507],[-122.21218,44.04527],[-122.21368,44.04534],[-122.21477,44.0457],[-122.21652,44.04612],[-122.21697,44.04635],[-122.21737,44.04694],[-122.21743,44.04742],[-122.21665,44.05099],[-122.21662,44.05201],[-122.21708,44.05357],[-122.21899,44.05611],[-122.21908,44.05778],[-122.21932,44.0581],[-122.21999,44.05837],[-122.22169,44.05803],[-122.22229,44.05812],[-122.22422,44.05976],[-122.22449,44.0613],[-122.22447,44.0623],[-122.22478,44.06266],[-122.22637,44.06389],[-122.22669,44.06443],[-122.22667,44.06529],[-122.22617,44.06623],[-122.22639,44.06724],[-122.22647,44.06951],[-122.22694,44.06977],[-122.22843,44.06968],[-122.22908,44.06976],[-122.22947,44.06992],[-122.2299,44.07029],[-122.23003,44.07058],[-122.23018,44.07235],[-122.23118,44.07603],[-122.23219,44.07714],[-122.2324,44.07753],[-122.23243,44.07815],[-122.23196,44.07987],[-122.23211,44.08039],[-122.2324,44.08072],[-122.23243,44.08093],[-122.23206,44.08159],[-122.23201,44.082],[-122.23272,44.08309],[-122.23282,44.08341],[-122.23211,44.08549],[-122.2322,44.08589],[-122.23312,44.08727],[-122.23322,44.08764],[-122.23309,44.08819],[-122.23234,44.08886],[-122.23218,44.08933],[-122.23243,44.08978],[-122.23331,44.09039],[-122.23345,44.09076],[-122.23334,44.09114],[-122.23258,44.09176],[-122.23242,44.09214],[-122.23261,44.09525],[-122.23276,44.0955],[-122.23305,44.09568],[-122.23355,44.09574],[-122.23445,44.09558],[-122.23484,44.09583],[-122.23486,44.09608],[-122.23449,44.09694],[-122.23443,44.0974],[-122.23454,44.09868],[-122.2342,44.09971],[-122.2344,44.10021],[-122.23479,44.10048],[-122.23549,44.10062],[-122.23583,44.10081],[-122.23634,44.10185],[-122.23764,44.10303],[-122.23783,44.10371],[-122.23804,44.10398],[-122.23864,44.10429],[-122.24023,44.10458],[-122.24056,44.1048],[-122.24071,44.10511],[-122.2406,44.10553],[-122.24016,44.10583],[-122.23815,44.10616],[-122.23758,44.10644],[-122.23716,44.10735],[-122.23568,44.10846],[-122.23568,44.10892],[-122.23618,44.10968],[-122.23634,44.11049],[-122.23712,44.11172],[-122.23764,44.11218],[-122.23801,44.11237],[-122.23851,44.11246],[-122.2396,44.112],[-122.24024,44.11206],[-122.24056,44.11237],[-122.24069,44.11308],[-122.2416,44.11363],[-122.24185,44.11417],[-122.2426,44.11514],[-122.24308,44.11535],[-122.24406,44.11549],[-122.24444,44.11586],[-122.24427,44.11631],[-122.24329,44.11707],[-122.24251,44.11751],[-122.24233,44.11794],[-122.24245,44.11815],[-122.2428,44.11833],[-122.24393,44.11832],[-122.24435,44.11854],[-122.24435,44.11891],[-122.24356,44.11944],[-122.24344,44.11984],[-122.24373,44.12012],[-122.24457,44.12029],[-122.24487,44.12054],[-122.24488,44.12081],[-122.24444,44.12139],[-122.24465,44.1223],[-122.24496,44.12298],[-122.2466,44.12497],[-122.2467,44.1255],[-122.24661,44.12577],[-122.24611,44.12638],[-122.24613,44.12732],[-122.24591,44.12759],[-122.24507,44.12796],[-122.24398,44.12798],[-122.24381,44.12823],[-122.24446,44.12874],[-122.24588,44.13055],[-122.24678,44.13111],[-122.24692,44.13146],[-122.24703,44.13255],[-122.24737,44.13279],[-122.24802,44.13301],[-122.24872,44.13403],[-122.25139,44.1353],[-122.25172,44.13533],[-122.25241,44.13522],[-122.25278,44.13529],[-122.25308,44.13546],[-122.25364,44.13615],[-122.25372,44.13646],[-122.25346,44.13683],[-122.25258,44.13726],[-122.25234,44.13777],[-122.25245,44.13808],[-122.25285,44.13855],[-122.25307,44.13913],[-122.25383,44.13976],[-122.2539,44.14097],[-122.25475,44.14154],[-122.25714,44.14426],[-122.25936,44.14601],[-122.25964,44.14637],[-122.25969,44.14672],[-122.25936,44.14851],[-122.25918,44.14879],[-122.25825,44.14963],[-122.2583,44.1503],[-122.25805,44.15126],[-122.25807,44.1517],[-122.25841,44.15228],[-122.25948,44.15311],[-122.26014,44.15397],[-122.26284,44.15618],[-122.26295,44.15653],[-122.26272,44.15678],[-122.25747,44.1589],[-122.25722,44.15917],[-122.25707,44.1597],[-122.2571,44.15994],[-122.26052,44.16476],[-122.26062,44.16568]]]}}
