{"type":"Feature","properties":{"id":"back-of-the-dragon","name":"Back of the Dragon \u00b7 VA 16","difficulty":3,"character":"Technical"},"geometry":{"type":"MultiLineString","coordinates":[[[-81.51585,36.83584],[-81.5158,36.83649],[-81.51564,36.8369],[-81.51489,36.83801],[-81.51454,36.83833],[-81.51344,36.8386],[-81.51198,36.83917],[-81.50952,36.83928],[-81.5087,36.83945],[-81.50809,36.83981],[-81.50656,36.8413],[-81.50191,36.84394],[-81.50269,36.84506],[-81.50325,36.84554],[-81.50369,36.84573],[-81.50523,36.84602],[-81.5058,36.84624],[-81.50641,36.84662],[-81.50701,36.84763],[-81.50758,36.84887],[-81.50808,36.8496],[-81.50915,36.85043],[-81.51156,36.85168],[-81.51232,36.85234],[-81.51293,36.8532],[-81.51343,36.85462],[-81.51378,36.85596],[-81.51372,36.85724],[-81.51386,36.85772],[-81.51408,36.85801],[-81.51437,36.8582],[-81.51511,36.85842],[-81.51692,36.85839],[-81.51882,36.85954],[-81.52137,36.86024],[-81.52183,36.86064],[-81.52214,36.86154],[-81.52234,36.86172],[-81.52314,36.86167],[-81.52428,36.86201],[-81.52576,36.86208],[-81.5261,36.86218],[-81.52636,36.86243],[-81.5268,36.86331],[-81.52774,36.86449],[-81.52804,36.86549],[-81.52791,36.86627],[-81.52618,36.86953],[-81.52584,36.86992],[-81.52529,36.87034],[-81.52259,36.87158],[-81.52229,36.87209],[-81.52237,36.87259],[-81.52289,36.87352],[-81.523,36.87432],[-81.52345,36.87572],[-81.52361,36.87688],[-81.52528,36.87962],[-81.52559,36.88032],[-81.52572,36.88125],[-81.52559,36.88281],[-81.52584,36.88338],[-81.52822,36.88469],[-81.52952,36.88526],[-81.532,36.88599],[-81.53352,36.88656],[-81.53375,36.88685],[-81.53414,36.88781],[-81.53396,36.88837],[-81.53344,36.88879],[-81.5333,36.889],[-81.53334,36.88925],[-81.53364,36.88942],[-81.53598,36.88945],[-81.53679,36.8896],[-81.53715,36.88951],[-81.53754,36.88922],[-81.53786,36.88912],[-81.53874,36.88925],[-81.53986,36.88899],[-81.54087,36.88908],[-81.54198,36.88862],[-81.54357,36.88868],[-81.54639,36.88816],[-81.54657,36.8883],[-81.54571,36.88893],[-81.54463,36.88915],[-81.54388,36.88972],[-81.54286,36.89011],[-81.54232,36.89045],[-81.542,36.89089],[-81.54207,36.89155],[-81.54231,36.8921],[-81.54227,36.89235],[-81.5419,36.89245],[-81.54055,36.89214],[-81.54,36.8923],[-81.53847,36.89365],[-81.53837,36.89404],[-81.53847,36.89497],[-81.53836,36.89525],[-81.53813,36.89534],[-81.5373,36.89539],[-81.53679,36.89556],[-81.5365,36.89577],[-81.53603,36.89645],[-81.53545,36.89677],[-81.53517,36.89706],[-81.53514,36.89749],[-81.53582,36.89899],[-81.53679,36.90028],[-81.53691,36.90064],[-81.53678,36.90073],[-81.5366,36.90071],[-81.53475,36.89979],[-81.53419,36.89967],[-81.53371,36.8999],[-81.53316,36.90055],[-81.53311,36.90076],[-81.53331,36.90083],[-81.534,36.90038],[-81.53444,36.90035],[-81.5349,36.90057],[-81.53569,36.90129],[-81.5364,36.90313],[-81.53684,36.90362],[-81.53747,36.90463],[-81.53789,36.90491],[-81.5377,36.90532],[-81.53768,36.90577],[-81.53753,36.90585],[-81.53713,36.90575],[-81.53656,36.9058],[-81.53588,36.90624],[-81.5358,36.9064],[-81.53587,36.90693],[-81.53541,36.9074],[-81.53544,36.90821],[-81.53474,36.90826],[-81.53436,36.90879],[-81.53361,36.90869],[-81.53299,36.90896],[-81.53299,36.90934],[-81.53361,36.91032],[-81.53346,36.91043],[-81.53306,36.91039],[-81.5329,36.91051],[-81.53327,36.91164],[-81.53322,36.91192],[-81.53279,36.91189],[-81.53194,36.9115],[-81.53174,36.91157],[-81.53177,36.91184],[-81.53235,36.91298],[-81.53241,36.91337],[-81.53231,36.91369],[-81.53195,36.91423],[-81.53173,36.91566],[-81.53149,36.91592],[-81.53091,36.9162],[-81.53062,36.9162],[-81.53004,36.91598],[-81.52986,36.91602],[-81.5298,36.91615],[-81.5299,36.91655],[-81.5298,36.91686],[-81.52872,36.91719],[-81.52854,36.91749],[-81.5287,36.91782],[-81.52979,36.91829],[-81.53064,36.91886],[-81.53122,36.9194],[-81.53172,36.92041],[-81.53225,36.92221],[-81.53212,36.92235],[-81.53185,36.92229],[-81.53145,36.92204],[-81.53082,36.92139],[-81.53051,36.92142],[-81.5305,36.92179],[-81.53139,36.92368],[-81.53139,36.92399],[-81.53115,36.92421],[-81.53034,36.92452],[-81.52997,36.92455],[-81.52952,36.92441],[-81.52928,36.92444],[-81.52893,36.92495],[-81.52802,36.92519],[-81.52762,36.92561],[-81.52765,36.92632],[-81.52834,36.92876],[-81.52784,36.93151],[-81.52849,36.93254],[-81.52896,36.93414],[-81.52902,36.93497],[-81.5289,36.93549],[-81.52872,36.93574],[-81.52823,36.93608],[-81.52665,36.93687],[-81.52646,36.93709],[-81.52639,36.9375],[-81.52765,36.93926],[-81.52934,36.94105],[-81.53074,36.94438],[-81.53408,36.94846],[-81.53432,36.9488],[-81.53441,36.94922],[-81.5343,36.94968],[-81.53403,36.9501],[-81.53275,36.95161],[-81.53192,36.9523],[-81.53129,36.95262],[-81.53028,36.9529],[-81.5282,36.95304],[-81.52765,36.95318],[-81.52698,36.9536],[-81.52657,36.95431],[-81.52597,36.95662],[-81.52644,36.95783],[-81.5264,36.95927],[-81.52741,36.96093],[-81.52761,36.96196],[-81.52796,36.96223],[-81.52881,36.96226],[-81.52932,36.96271],[-81.53027,36.96323],[-81.5308,36.964],[-81.53158,36.96474],[-81.53231,36.96575],[-81.53234,36.96689],[-81.53224,36.96711],[-81.53146,36.9676],[-81.53015,36.96773],[-81.52974,36.96795],[-81.5296,36.96818],[-81.52954,36.96866],[-81.52907,36.96931],[-81.52866,36.9701],[-81.529,36.97045],[-81.52963,36.97147],[-81.53009,36.97294],[-81.53037,36.97351],[-81.53151,36.97504],[-81.53213,36.97683],[-81.53197,36.97723],[-81.5316,36.97753],[-81.52913,36.9785],[-81.52863,36.9788],[-81.52698,36.98019],[-81.52518,36.98152],[-81.52492,36.98183],[-81.52484,36.98216],[-81.52492,36.98248],[-81.52539,36.98318],[-81.52629,36.9841],[-81.52655,36.98423],[-81.52688,36.98421],[-81.52749,36.98378],[-81.528,36.98364],[-81.52833,36.98376],[-81.52832,36.98423],[-81.52857,36.98441],[-81.52974,36.9845],[-81.53008,36.98413],[-81.53059,36.98399],[-81.53103,36.98428],[-81.53162,36.98403],[-81.53196,36.98415],[-81.532,36.98443],[-81.53167,36.9849],[-81.52946,36.98629],[-81.52931,36.98665],[-81.52984,36.98877],[-81.53005,36.98913],[-81.53123,36.99001],[-81.53188,36.99033],[-81.53218,36.99039],[-81.53351,36.99032],[-81.53378,36.99053],[-81.53376,36.99121],[-81.53221,36.99288],[-81.53184,36.99306],[-81.53056,36.99322],[-81.53034,36.99336],[-81.53027,36.99356],[-81.5304,36.99379],[-81.53061,36.99389],[-81.53332,36.99424],[-81.53355,36.99436],[-81.53382,36.99564],[-81.53364,36.99696],[-81.53332,36.99755],[-81.53278,36.99804],[-81.53282,36.99864],[-81.53247,36.99913],[-81.53244,36.99994],[-81.53226,36.99999],[-81.53145,36.99984],[-81.53119,36.99996],[-81.53079,37.00038],[-81.52988,37.00045],[-81.5293,37.00167],[-81.52911,37.00175],[-81.52845,37.0017],[-81.52826,37.00178],[-81.52782,37.00272],[-81.52722,37.00262],[-81.52665,37.0023],[-81.52633,37.00231],[-81.52602,37.00264],[-81.52562,37.00345],[-81.52513,37.00356],[-81.52446,37.00343],[-81.52427,37.00357],[-81.524,37.00403],[-81.52378,37.00415],[-81.52314,37.00382],[-81.52255,37.00398],[-81.52221,37.0037],[-81.522,37.00369],[-81.52169,37.00388],[-81.52141,37.0044],[-81.52123,37.00449],[-81.52021,37.00393],[-81.51982,37.00388],[-81.5194,37.00396],[-81.51898,37.00433],[-81.51882,37.00495],[-81.51917,37.00565],[-81.51977,37.0063],[-81.51972,37.00657],[-81.5188,37.00658],[-81.51856,37.00649],[-81.51761,37.00539],[-81.51734,37.00521],[-81.51716,37.00529],[-81.51708,37.0057],[-81.51667,37.00595],[-81.51662,37.00635],[-81.51593,37.00648],[-81.51573,37.00669],[-81.51666,37.00785],[-81.51789,37.0091],[-81.5187,37.00976],[-81.51914,37.01],[-81.51987,37.01094],[-81.52023,37.01172],[-81.52083,37.01206],[-81.52138,37.01278],[-81.52168,37.01268],[-81.522,37.01228],[-81.5214,37.01158],[-81.52144,37.01141],[-81.52169,37.01123],[-81.52176,37.01107],[-81.52116,37.01065],[-81.52135,37.01021],[-81.5209,37.00953],[-81.52098,37.00938],[-81.52115,37.00932],[-81.52226,37.00952],[-81.52284,37.00981],[-81.523,37.01009],[-81.52269,37.01074],[-81.52285,37.01113],[-81.52344,37.01189],[-81.52416,37.0124],[-81.52474,37.0132],[-81.52548,37.01388],[-81.52602,37.01418],[-81.52727,37.01424],[-81.52936,37.01409],[-81.53274,37.01247],[-81.53306,37.01238],[-81.53338,37.01247],[-81.53351,37.01265],[-81.53347,37.01288],[-81.53211,37.01384],[-81.53184,37.01439],[-81.53191,37.01463],[-81.53232,37.01516],[-81.5328,37.01735],[-81.53266,37.01747],[-81.53247,37.01743],[-81.53211,37.0169],[-81.53186,37.01683],[-81.53157,37.01714],[-81.53165,37.0176],[-81.53157,37.01781],[-81.53128,37.01791],[-81.53083,37.01777],[-81.53059,37.01779],[-81.52996,37.01831],[-81.53028,37.01931],[-81.52955,37.02],[-81.52924,37.02142],[-81.52866,37.02222],[-81.5286,37.02246],[-81.52889,37.02305],[-81.52886,37.02376],[-81.52916,37.0245],[-81.52937,37.02477],[-81.53013,37.02535],[-81.53044,37.0261],[-81.53047,37.02658],[-81.53025,37.02682],[-81.52968,37.02697],[-81.52925,37.02696],[-81.52852,37.02673],[-81.52821,37.02682],[-81.52776,37.02797],[-81.52686,37.02856],[-81.5266,37.02895],[-81.52671,37.02922],[-81.52746,37.02993],[-81.52797,37.0308],[-81.52802,37.03141],[-81.52779,37.03153],[-81.52731,37.03148],[-81.52695,37.03159],[-81.52575,37.03267],[-81.52489,37.03315],[-81.52408,37.03397],[-81.52399,37.03417],[-81.52402,37.03556],[-81.52387,37.03578],[-81.52303,37.03592],[-81.52234,37.03635],[-81.52114,37.03645],[-81.5208,37.03668],[-81.52072,37.03689],[-81.52083,37.03737],[-81.52076,37.03827],[-81.51924,37.03934],[-81.5189,37.04025],[-81.51829,37.04092],[-81.51829,37.04108],[-81.5186,37.04139],[-81.51871,37.04169],[-81.51874,37.04213],[-81.51863,37.04256],[-81.51778,37.04416],[-81.51673,37.04502],[-81.51663,37.04579],[-81.51649,37.04605],[-81.5162,37.04619],[-81.51513,37.04624],[-81.51451,37.04703],[-81.51274,37.0475],[-81.51144,37.04833],[-81.51121,37.0487],[-81.5114,37.04903],[-81.51185,37.04913],[-81.51216,37.04905],[-81.51338,37.04839],[-81.51404,37.04834],[-81.5168,37.0493],[-81.51782,37.04999],[-81.51949,37.05158],[-81.51992,37.05226],[-81.52049,37.05369],[-81.52099,37.05422],[-81.5215,37.05445],[-81.52366,37.05504],[-81.5247,37.05554],[-81.52832,37.0586],[-81.52887,37.05867],[-81.52976,37.05829],[-81.53014,37.05821],[-81.53059,37.05831],[-81.53083,37.05852],[-81.53181,37.06068],[-81.53178,37.06154],[-81.53098,37.063],[-81.52934,37.06473],[-81.52839,37.06662],[-81.52743,37.06769],[-81.5271,37.06849],[-81.52693,37.07336],[-81.52712,37.07405],[-81.52828,37.07665],[-81.52829,37.07732],[-81.52784,37.07894],[-81.528,37.07963],[-81.52841,37.0802],[-81.5292,37.08069],[-81.53145,37.08134],[-81.53275,37.08154],[-81.53379,37.08154],[-81.53569,37.08135],[-81.53851,37.0806],[-81.54087,37.08024],[-81.54354,37.07963],[-81.54609,37.07931],[-81.54788,37.07878],[-81.54842,37.07878],[-81.54913,37.07903],[-81.54958,37.07946],[-81.54976,37.07994],[-81.54981,37.08254],[-81.54998,37.08308],[-81.55095,37.08463],[-81.55139,37.08505],[-81.55224,37.0855],[-81.55295,37.08657],[-81.553,37.08696],[-81.55281,37.0894],[-81.55389,37.09146],[-81.55435,37.09455],[-81.55468,37.09487],[-81.55505,37.09501],[-81.55788,37.09546],[-81.55851,37.09591],[-81.55878,37.0966],[-81.5585,37.09865],[-81.55833,37.09889],[-81.5562,37.09951],[-81.55181,37.10161],[-81.54923,37.10351],[-81.53957,37.10833],[-81.5322,37.11288],[-81.53098,37.11331],[-81.52644,37.11429],[-81.52385,37.11524],[-81.52204,37.11557]]]}}
