{"type":"Feature","properties":{"id":"bailey-avenue","name":"Bailey Avenue","difficulty":1,"character":"Medium speed"},"geometry":{"type":"MultiLineString","coordinates":[[[-121.72007,37.21063],[-121.72061,37.21028],[-121.72568,37.20911],[-121.72656,37.20875],[-121.72778,37.20807],[-121.73136,37.20482],[-121.73658,37.20109],[-121.74411,37.19594],[-121.7472,37.19371],[-121.74789,37.19303],[-121.75297,37.18941],[-121.75583,37.18747],[-121.75772,37.18717],[-121.758,37.18705],[-121.75813,37.18691],[-121.75813,37.1867],[-121.75758,37.18599],[-121.75683,37.18546],[-121.75638,37.18485],[-121.75528,37.18465],[-121.75514,37.18444],[-121.75523,37.18418],[-121.75545,37.18406],[-121.75569,37.18406],[-121.75813,37.18488],[-121.75931,37.18484],[-121.75978,37.18453],[-121.75982,37.18368],[-121.76023,37.18291],[-121.76078,37.18254],[-121.76169,37.18225]]]}}
