{"type":"Feature","properties":{"id":"banner-grade","name":"Banner Grade \u00b7 SR 78","difficulty":3,"character":"Technical"},"geometry":{"type":"MultiLineString","coordinates":[[[-116.59865,33.07643],[-116.59138,33.07654],[-116.59078,33.07667],[-116.5903,33.07695],[-116.59001,33.07732],[-116.58988,33.07779],[-116.58984,33.07902],[-116.58923,33.08011],[-116.58922,33.08043],[-116.58949,33.0815],[-116.58924,33.08211],[-116.58925,33.08231],[-116.58981,33.0832],[-116.59009,33.08426],[-116.59065,33.08563],[-116.59171,33.08666],[-116.59174,33.08754],[-116.5919,33.08784],[-116.59219,33.08798],[-116.59397,33.08816],[-116.59439,33.08828],[-116.59462,33.08854],[-116.5948,33.08944],[-116.59499,33.08974],[-116.59657,33.09096],[-116.59679,33.09134],[-116.59667,33.09181],[-116.59604,33.09232],[-116.59573,33.09272],[-116.59546,33.09379],[-116.59493,33.09432],[-116.59475,33.0951],[-116.59404,33.09612],[-116.59378,33.09749],[-116.59348,33.09764],[-116.59267,33.09761],[-116.59225,33.09747],[-116.59057,33.09659],[-116.58942,33.09581],[-116.58907,33.09575],[-116.58844,33.09591],[-116.58812,33.09585],[-116.58772,33.09504],[-116.58744,33.09469],[-116.58698,33.09449],[-116.58605,33.09437],[-116.58525,33.09396],[-116.58447,33.09384],[-116.58414,33.09371],[-116.58345,33.09318],[-116.58297,33.09267],[-116.5828,33.09206],[-116.58178,33.09175],[-116.58132,33.0913],[-116.58026,33.09077],[-116.57964,33.08991],[-116.57915,33.08953],[-116.5791,33.08883],[-116.57898,33.08864],[-116.57689,33.08683],[-116.57566,33.08648],[-116.57474,33.08578],[-116.57465,33.08535],[-116.5752,33.08477],[-116.5752,33.08461],[-116.57504,33.08441],[-116.57413,33.084],[-116.57352,33.08396],[-116.57257,33.08372],[-116.57212,33.08339],[-116.5718,33.0829],[-116.57171,33.08257],[-116.57204,33.08158],[-116.57253,33.08084],[-116.57241,33.08042],[-116.57191,33.08029],[-116.5712,33.08044],[-116.57024,33.08048],[-116.56948,33.07999],[-116.56926,33.08006],[-116.56872,33.08049],[-116.56841,33.08058],[-116.56809,33.08054],[-116.56762,33.08021],[-116.56681,33.07936],[-116.56637,33.07869],[-116.56535,33.0782],[-116.56499,33.07791],[-116.56471,33.07739],[-116.56474,33.07692],[-116.56453,33.07668],[-116.56303,33.07667],[-116.56225,33.0765],[-116.56195,33.07623],[-116.56127,33.07507],[-116.56023,33.07509],[-116.56005,33.0749],[-116.55989,33.07444],[-116.55962,33.07428],[-116.55901,33.07457],[-116.55859,33.07456],[-116.55832,33.07431],[-116.55818,33.07369],[-116.55762,33.07315],[-116.55707,33.07293],[-116.55611,33.07308],[-116.55581,33.073],[-116.55544,33.07221],[-116.55522,33.0721],[-116.55459,33.07205],[-116.55433,33.07165],[-116.55386,33.07141],[-116.55367,33.07091],[-116.55292,33.07082],[-116.55216,33.07035],[-116.55192,33.06999],[-116.55204,33.06963],[-116.55273,33.06943],[-116.55299,33.06877],[-116.55364,33.0682],[-116.55362,33.06654],[-116.55349,33.06635],[-116.55322,33.06631],[-116.55301,33.06647],[-116.55276,33.06712],[-116.55229,33.06771],[-116.55139,33.06819],[-116.54971,33.06816],[-116.5485,33.06727],[-116.54816,33.06718],[-116.54788,33.06728],[-116.54735,33.06814],[-116.54674,33.06879],[-116.54431,33.07076],[-116.54395,33.0709],[-116.54334,33.07085],[-116.54301,33.07091],[-116.54224,33.0714],[-116.5411,33.072],[-116.54011,33.07238],[-116.53888,33.0731],[-116.53798,33.07401],[-116.53455,33.07608],[-116.53302,33.07775],[-116.53207,33.07833],[-116.48125,33.09449],[-116.47534,33.09677]]]}}
