{"type":"Feature","properties":{"id":"bear-creek-orinda","name":"Bear Creek Road \u00b7 Orinda","difficulty":2,"character":"Medium speed"},"geometry":{"type":"MultiLineString","coordinates":[[[-122.21131,37.90713],[-122.21114,37.90784],[-122.21084,37.90826],[-122.21043,37.90858],[-122.20973,37.90887],[-122.20874,37.90895],[-122.20586,37.90843],[-122.20503,37.90858],[-122.20435,37.90895],[-122.20367,37.90979],[-122.2006,37.91427],[-122.20041,37.91487],[-122.20042,37.91674],[-122.20027,37.91739],[-122.19992,37.9178],[-122.1994,37.91818],[-122.19801,37.91897],[-122.19746,37.91943],[-122.19721,37.91987],[-122.19691,37.92132],[-122.19653,37.9218],[-122.19617,37.92201],[-122.19523,37.92221],[-122.1946,37.9221],[-122.19429,37.92197],[-122.1927,37.92088],[-122.19239,37.92076],[-122.1892,37.92034],[-122.18511,37.91923],[-122.17493,37.91799],[-122.17394,37.91791],[-122.17229,37.91802],[-122.1663,37.91974],[-122.16535,37.92026],[-122.16482,37.92083],[-122.16416,37.9222],[-122.16299,37.92399],[-122.16274,37.92475],[-122.16269,37.92531]]]}}
