{"type":"Feature","properties":{"id":"bear-creek","name":"Bear Creek Road","difficulty":3,"character":"Technical"},"geometry":{"type":"MultiLineString","coordinates":[[[-122.12302,37.12848],[-122.12108,37.12853],[-122.12032,37.12877],[-122.11943,37.12881],[-122.11865,37.12862],[-122.11656,37.12839],[-122.11579,37.12867],[-122.11338,37.12925],[-122.1129,37.12946],[-122.109,37.13218],[-122.10777,37.13268],[-122.10688,37.13274],[-122.10541,37.13242],[-122.10455,37.13248],[-122.10367,37.1328],[-122.10248,37.13343],[-122.10207,37.13376],[-122.10164,37.13481],[-122.10084,37.13571],[-122.10049,37.13674],[-122.09997,37.13733],[-122.09921,37.13758],[-122.09654,37.13777],[-122.09592,37.13793],[-122.09555,37.13813],[-122.09492,37.13871],[-122.09439,37.1399],[-122.09369,37.14086],[-122.09299,37.14123],[-122.09132,37.14149],[-122.09104,37.14169],[-122.09069,37.14214],[-122.09071,37.14293],[-122.0905,37.14347],[-122.08955,37.14421],[-122.08814,37.1448],[-122.08782,37.14517],[-122.08771,37.14584],[-122.08816,37.14677],[-122.08816,37.14712],[-122.08767,37.14828],[-122.08695,37.14917],[-122.08661,37.14949],[-122.08513,37.15044],[-122.08445,37.15117],[-122.08295,37.1518],[-122.08257,37.15205],[-122.08233,37.15236],[-122.08223,37.15289],[-122.08268,37.15451],[-122.0823,37.15553],[-122.08157,37.15679],[-122.08152,37.15711],[-122.08178,37.15788],[-122.08162,37.15851],[-122.08169,37.15889],[-122.08269,37.1606],[-122.08269,37.16082],[-122.08245,37.16127],[-122.08201,37.16166],[-122.08146,37.16188],[-122.08079,37.16188],[-122.08026,37.16171],[-122.07976,37.16166],[-122.07916,37.1618],[-122.07867,37.16209],[-122.07835,37.16256],[-122.07747,37.16305],[-122.07707,37.16374],[-122.07666,37.16411],[-122.07542,37.1649],[-122.07452,37.16507],[-122.074,37.16541],[-122.07387,37.16606],[-122.07394,37.16682],[-122.07452,37.16844],[-122.07465,37.16913],[-122.07435,37.16954],[-122.07367,37.16981],[-122.0727,37.17],[-122.07072,37.16994],[-122.07036,37.16989],[-122.06951,37.16959],[-122.06926,37.1696],[-122.06904,37.16972],[-122.06897,37.17],[-122.06906,37.17021],[-122.07001,37.17088],[-122.07254,37.1715],[-122.07269,37.17189],[-122.07249,37.17224],[-122.07237,37.17275],[-122.07221,37.1729],[-122.07175,37.17297],[-122.07111,37.17333],[-122.07056,37.1734],[-122.07022,37.17356],[-122.06991,37.17396],[-122.06988,37.17454],[-122.06976,37.1747],[-122.06954,37.17478],[-122.06859,37.17463],[-122.06749,37.17425],[-122.06691,37.17439],[-122.06562,37.17434],[-122.06526,37.17444],[-122.06513,37.17454],[-122.06511,37.17477],[-122.06562,37.17531],[-122.06583,37.17584],[-122.06614,37.17617],[-122.06606,37.17648],[-122.06543,37.17692],[-122.06487,37.17698],[-122.06409,37.17659],[-122.0635,37.17642],[-122.06322,37.17651],[-122.06295,37.17709],[-122.0626,37.17743],[-122.06232,37.17754],[-122.062,37.17749],[-122.06178,37.17717],[-122.06177,37.17652],[-122.06194,37.17603],[-122.06188,37.17584],[-122.06047,37.175],[-122.05993,37.17433],[-122.05973,37.17385],[-122.05914,37.17343],[-122.05894,37.17312],[-122.05856,37.17307],[-122.05776,37.17335],[-122.05749,37.17368],[-122.05734,37.17373],[-122.05708,37.17368],[-122.05679,37.17347],[-122.0564,37.17245],[-122.05642,37.17204],[-122.05663,37.17136],[-122.05659,37.17121],[-122.05636,37.17104],[-122.05552,37.17089],[-122.05391,37.17092],[-122.05294,37.17067],[-122.0525,37.17065],[-122.05199,37.17082],[-122.05154,37.17133],[-122.05116,37.17134],[-122.05102,37.17121],[-122.05104,37.17096],[-122.05212,37.17037],[-122.05269,37.17022],[-122.05288,37.17001],[-122.05288,37.16979],[-122.05276,37.1696],[-122.05219,37.16935],[-122.05208,37.16923],[-122.05202,37.16886],[-122.05173,37.16862],[-122.05134,37.16862],[-122.05077,37.16886],[-122.0504,37.16872],[-122.05028,37.16847],[-122.05044,37.16763],[-122.05012,37.16732],[-122.04923,37.16731],[-122.04869,37.16777],[-122.04789,37.1679],[-122.04731,37.16823],[-122.04702,37.16828],[-122.04681,37.16816],[-122.04657,37.16771],[-122.04625,37.16743],[-122.04548,37.16706],[-122.04517,37.16703],[-122.04434,37.16741],[-122.0438,37.16754],[-122.04255,37.16734],[-122.04211,37.16756],[-122.04161,37.16811],[-122.0411,37.16829],[-122.04035,37.16797],[-122.03954,37.16792],[-122.03821,37.16757],[-122.0374,37.16761],[-122.03626,37.16732],[-122.0352,37.16731],[-122.03458,37.16749],[-122.03396,37.16739],[-122.0332,37.16748],[-122.03198,37.16715],[-122.0308,37.16623],[-122.03026,37.16603],[-122.02984,37.16607],[-122.02884,37.16639],[-122.02706,37.16646],[-122.02628,37.1668],[-122.02536,37.16684],[-122.02498,37.16678],[-122.02411,37.16636],[-122.02361,37.16641],[-122.02329,37.16618],[-122.02295,37.16617],[-122.02275,37.16625],[-122.02203,37.16694],[-122.02139,37.1668],[-122.02118,37.16642],[-122.02046,37.16642],[-122.01976,37.16589],[-122.01809,37.16587],[-122.01738,37.16556],[-122.01711,37.1651],[-122.01691,37.16506],[-122.01659,37.16522],[-122.01586,37.16583],[-122.01638,37.16665],[-122.01689,37.16693],[-122.01703,37.16714],[-122.01699,37.16759],[-122.01667,37.16788],[-122.01664,37.16829],[-122.01644,37.1686],[-122.0164,37.16903],[-122.01606,37.16985],[-122.01624,37.17019],[-122.0162,37.17038],[-122.01549,37.17097],[-122.01465,37.17126],[-122.01455,37.17175],[-122.01393,37.17198],[-122.01359,37.17245],[-122.0131,37.17257],[-122.01236,37.17248],[-122.01192,37.17286],[-122.01179,37.17355],[-122.01134,37.17418],[-122.0112,37.1749],[-122.01054,37.17544],[-122.01055,37.1761],[-122.01035,37.17669],[-122.0099,37.17724],[-122.01022,37.17803],[-122.01014,37.17827],[-122.00981,37.17839],[-122.00952,37.17867],[-122.00953,37.17881],[-122.00983,37.17918],[-122.00962,37.17983],[-122.0094,37.17999],[-122.0085,37.18011],[-122.00789,37.17991],[-122.00766,37.17993],[-122.00705,37.18048],[-122.00653,37.18056],[-122.00602,37.18099],[-122.00538,37.18122],[-122.005,37.18115],[-122.0043,37.18042],[-122.00401,37.18027],[-122.00373,37.18026],[-122.00297,37.18052],[-122.00271,37.18089],[-122.00274,37.1812],[-122.00349,37.18211],[-122.00455,37.18282],[-122.00518,37.18379],[-122.00516,37.18405],[-122.00496,37.18413],[-122.00425,37.18411],[-122.00335,37.18441],[-122.00254,37.18422],[-122.00249,37.18433],[-122.00285,37.18499],[-122.00321,37.18521],[-122.00295,37.18561],[-122.00269,37.18573],[-122.00202,37.18576],[-121.9989,37.187],[-121.99786,37.18724],[-121.99714,37.18711],[-121.99618,37.18706],[-121.99546,37.18727],[-121.99522,37.18758],[-121.99544,37.1882],[-121.99523,37.18904],[-121.99471,37.18964],[-121.99342,37.19048]]]}}
