{"type":"Feature","properties":{"id":"big-tujunga","name":"Big Tujunga Canyon Road","difficulty":2,"character":"Medium speed"},"geometry":{"type":"MultiLineString","coordinates":[[[-118.31575,34.27215],[-118.31558,34.27249],[-118.31359,34.27328],[-118.31016,34.27578],[-118.30895,34.27635],[-118.30809,34.27655],[-118.30495,34.27688],[-118.30423,34.27683],[-118.30222,34.27632],[-118.30121,34.27633],[-118.30014,34.27654],[-118.29828,34.27748],[-118.29726,34.27834],[-118.29616,34.28043],[-118.2958,34.28087],[-118.295,34.28144],[-118.29389,34.28198],[-118.29343,34.28247],[-118.29238,34.28329],[-118.29172,34.28469],[-118.29151,34.28602],[-118.29029,34.28901],[-118.28997,34.28948],[-118.28801,34.2911],[-118.28612,34.29218],[-118.28501,34.29303],[-118.28211,34.29621],[-118.27873,34.29822],[-118.27657,34.2994],[-118.276,34.29945],[-118.27566,34.29936],[-118.27473,34.29868],[-118.2742,34.29857],[-118.27382,34.29865],[-118.27136,34.29984],[-118.27091,34.29991],[-118.26999,34.29982],[-118.26948,34.29992],[-118.26779,34.30105],[-118.2645,34.30274],[-118.26418,34.30313],[-118.2638,34.30446],[-118.26341,34.30481],[-118.26296,34.30496],[-118.26144,34.30501],[-118.26014,34.30468],[-118.25927,34.30432],[-118.25785,34.30346],[-118.25634,34.30298],[-118.25489,34.30237],[-118.25268,34.30168],[-118.24753,34.29809],[-118.24687,34.29773],[-118.24641,34.29765],[-118.24515,34.29769],[-118.24248,34.2974],[-118.24197,34.29725],[-118.24044,34.29649],[-118.23886,34.29604],[-118.23593,34.29413],[-118.23389,34.29334],[-118.23357,34.29299],[-118.23328,34.2923],[-118.23296,34.29185],[-118.23134,34.291],[-118.2304,34.29014],[-118.22979,34.28994],[-118.22664,34.28948],[-118.22636,34.28931],[-118.22523,34.2879],[-118.22483,34.28758],[-118.22432,34.28735],[-118.22306,34.28719],[-118.22254,34.28699],[-118.22223,34.28667],[-118.22178,34.28573],[-118.22106,34.28515],[-118.22048,34.28493],[-118.21804,34.28466],[-118.21753,34.28448],[-118.21729,34.28427],[-118.2167,34.28315],[-118.21665,34.2828],[-118.21679,34.28226],[-118.21667,34.28183],[-118.21636,34.28154],[-118.2153,34.28102],[-118.21462,34.28006],[-118.21404,34.2798],[-118.21289,34.28006],[-118.21193,34.28058],[-118.21057,34.28174],[-118.20919,34.28364],[-118.20869,34.28394],[-118.20799,34.28394],[-118.20759,34.28366],[-118.20741,34.28335],[-118.20722,34.28239],[-118.20683,34.28183],[-118.2063,34.28155],[-118.20554,34.28143],[-118.20491,34.28156],[-118.20407,34.28203],[-118.20331,34.28312],[-118.20258,34.28349],[-118.20212,34.28353],[-118.20028,34.28317],[-118.19979,34.28327],[-118.19897,34.28376],[-118.19827,34.28387],[-118.19618,34.28306],[-118.19529,34.28292],[-118.19448,34.28312],[-118.19283,34.28408],[-118.19121,34.28454],[-118.19095,34.28478],[-118.19083,34.2852],[-118.19131,34.28602],[-118.19138,34.2866],[-118.19096,34.28763],[-118.19034,34.28852],[-118.19002,34.28874],[-118.18961,34.28886],[-118.18828,34.28879],[-118.18782,34.2889],[-118.18743,34.28928],[-118.18722,34.29025],[-118.18666,34.29069],[-118.18407,34.29143],[-118.18202,34.29167],[-118.18154,34.29184],[-118.18115,34.29219],[-118.17983,34.29492],[-118.17925,34.29576],[-118.1787,34.29624],[-118.17659,34.29765],[-118.17608,34.29788],[-118.17563,34.29795],[-118.17512,34.2979],[-118.17463,34.29769],[-118.17428,34.29737],[-118.17404,34.2968],[-118.17418,34.29541],[-118.17387,34.29496],[-118.17332,34.29473],[-118.17271,34.29484],[-118.17188,34.29551],[-118.171,34.29572],[-118.1707,34.2959],[-118.16989,34.29714],[-118.16943,34.29739],[-118.1687,34.29736],[-118.16786,34.29665],[-118.16744,34.29642],[-118.16704,34.29637],[-118.1666,34.29646],[-118.16613,34.29696],[-118.16597,34.29789],[-118.16578,34.29812],[-118.16523,34.29838],[-118.16474,34.29836],[-118.16442,34.29823],[-118.16372,34.29748],[-118.16331,34.29729],[-118.16126,34.29691]]]}}
