{"type":"Feature","properties":{"id":"big-basin","name":"Big Basin Highway \u00b7 Hwy 236","difficulty":3,"character":"Technical"},"geometry":{"type":"MultiLineString","coordinates":[[[-122.1223,37.12537],[-122.12461,37.12489],[-122.12658,37.12492],[-122.12934,37.12588],[-122.1311,37.12678],[-122.13167,37.12728],[-122.13209,37.12791],[-122.13352,37.12895],[-122.13389,37.1299],[-122.13425,37.13029],[-122.13681,37.13174],[-122.13715,37.13195],[-122.13746,37.13232],[-122.13825,37.1327],[-122.13853,37.13296],[-122.13911,37.13381],[-122.14034,37.13457],[-122.14179,37.13653],[-122.14231,37.13774],[-122.14289,37.13832],[-122.14318,37.13845],[-122.14445,37.13817],[-122.1455,37.13835],[-122.14708,37.13835],[-122.1479,37.13892],[-122.15054,37.13994],[-122.15138,37.13981],[-122.15184,37.13982],[-122.15228,37.13995],[-122.15249,37.14012],[-122.15267,37.14136],[-122.15298,37.14182],[-122.15509,37.14335],[-122.15604,37.14378],[-122.15785,37.1462],[-122.15794,37.14696],[-122.15755,37.14827],[-122.15722,37.14867],[-122.15721,37.14894],[-122.15746,37.14916],[-122.15819,37.14954],[-122.15919,37.1504],[-122.16005,37.15177],[-122.1608,37.15245],[-122.16187,37.1548],[-122.16184,37.15757],[-122.16268,37.15945],[-122.16285,37.1604],[-122.16284,37.16109],[-122.16245,37.16215],[-122.16212,37.16386],[-122.16219,37.16437],[-122.16285,37.16491],[-122.16508,37.16645],[-122.16668,37.16812],[-122.1709,37.17026],[-122.171,37.17042],[-122.17093,37.17065],[-122.17063,37.17071],[-122.16907,37.17012],[-122.16763,37.1697],[-122.16741,37.16974],[-122.16727,37.16991],[-122.16734,37.17026],[-122.16757,37.17036],[-122.16811,37.17027],[-122.16868,37.1704],[-122.17067,37.1717],[-122.17228,37.17221],[-122.17333,37.17272],[-122.17439,37.17291],[-122.1755,37.17327],[-122.1759,37.1733],[-122.17703,37.17273],[-122.17792,37.17245],[-122.17841,37.17162],[-122.17891,37.17107],[-122.17921,37.17092],[-122.17959,37.17084],[-122.18006,37.17089],[-122.18204,37.17124],[-122.18251,37.17123],[-122.18306,37.17109],[-122.18409,37.17048],[-122.18469,37.17023],[-122.18556,37.1696],[-122.18583,37.16898],[-122.18585,37.16813],[-122.18625,37.16752],[-122.18763,37.16641],[-122.18905,37.16549],[-122.18941,37.16534],[-122.1909,37.16525],[-122.19316,37.16534],[-122.19364,37.16508],[-122.19448,37.1649],[-122.19492,37.16444],[-122.19521,37.16432],[-122.19629,37.16423],[-122.19695,37.16363],[-122.19743,37.16347],[-122.198,37.16361],[-122.19895,37.16457],[-122.1991,37.165],[-122.19889,37.16578],[-122.19869,37.16615],[-122.19782,37.16658],[-122.19663,37.16694],[-122.19651,37.16709],[-122.19661,37.16756],[-122.19704,37.16781],[-122.19889,37.16778],[-122.19987,37.16765],[-122.20064,37.1672],[-122.20166,37.16592],[-122.20193,37.16571],[-122.20281,37.16556],[-122.20356,37.16558],[-122.20559,37.1665],[-122.20615,37.16669],[-122.20736,37.16689],[-122.20834,37.16733],[-122.20963,37.16752],[-122.21183,37.16842],[-122.21441,37.16839],[-122.21559,37.16878],[-122.2177,37.16855],[-122.22108,37.16845],[-122.22161,37.16866],[-122.22241,37.17041],[-122.22201,37.17221],[-122.22162,37.17293],[-122.22128,37.1731],[-122.22101,37.17283],[-122.22084,37.17284],[-122.22063,37.17338],[-122.22043,37.17344],[-122.22019,37.17336],[-122.22007,37.1732],[-122.21993,37.17277],[-122.21971,37.17276],[-122.21937,37.17304],[-122.21974,37.17397],[-122.22061,37.17398],[-122.22093,37.17446],[-122.2209,37.17477],[-122.22046,37.17498],[-122.22038,37.1752],[-122.21979,37.17543],[-122.21907,37.1759],[-122.21891,37.17588],[-122.21874,37.17545],[-122.21822,37.17518],[-122.21717,37.175],[-122.21696,37.17503],[-122.21702,37.17552],[-122.21577,37.17663],[-122.21572,37.17729],[-122.21591,37.17789],[-122.21552,37.17821],[-122.21502,37.1783],[-122.21508,37.17872],[-122.21463,37.17921],[-122.2145,37.17952],[-122.21453,37.17992],[-122.21486,37.18047],[-122.21428,37.18092],[-122.21394,37.18142],[-122.21385,37.18176],[-122.21319,37.18252],[-122.2132,37.1838],[-122.21283,37.18446],[-122.21241,37.18492],[-122.21241,37.1852],[-122.21209,37.18561],[-122.21241,37.18634],[-122.2126,37.18637],[-122.21318,37.18616],[-122.21341,37.18632],[-122.21396,37.18711],[-122.21425,37.18825],[-122.21407,37.18864],[-122.21351,37.18903],[-122.21301,37.18916],[-122.21288,37.18977],[-122.2132,37.19051],[-122.21281,37.19172],[-122.21231,37.19231],[-122.21235,37.19264],[-122.21259,37.19288],[-122.21257,37.1931],[-122.21212,37.19366],[-122.21209,37.19427],[-122.21187,37.19438],[-122.21176,37.19458],[-122.21139,37.19457],[-122.21112,37.19471],[-122.21007,37.19646],[-122.20964,37.19671],[-122.20955,37.19696],[-122.20883,37.19679],[-122.20858,37.19686],[-122.20829,37.19709],[-122.20704,37.19725],[-122.20616,37.19701],[-122.20536,37.19714],[-122.20354,37.19721],[-122.20328,37.19705],[-122.20316,37.19642],[-122.20231,37.19616],[-122.20192,37.19638],[-122.20157,37.19677],[-122.201,37.19705],[-122.20054,37.19714],[-122.19864,37.19678],[-122.19558,37.19642],[-122.19465,37.196],[-122.19435,37.19598],[-122.19371,37.19649],[-122.19364,37.19674],[-122.19399,37.19692],[-122.19435,37.19691],[-122.19511,37.19748],[-122.1955,37.1975],[-122.19579,37.19788],[-122.19601,37.19871],[-122.19689,37.19941],[-122.19754,37.19955],[-122.19754,37.19966],[-122.19728,37.19989],[-122.19736,37.2006],[-122.19717,37.20069],[-122.19665,37.20028],[-122.19578,37.20009],[-122.19546,37.19989],[-122.19517,37.19991],[-122.19498,37.20006],[-122.19497,37.20111],[-122.19489,37.2015],[-122.19472,37.20168],[-122.19436,37.2018],[-122.19229,37.20189],[-122.19158,37.2017],[-122.19052,37.2011],[-122.18971,37.2005],[-122.18936,37.2004],[-122.18891,37.20051],[-122.18862,37.20034],[-122.18829,37.19994],[-122.18746,37.19982],[-122.18688,37.19964],[-122.18625,37.19904],[-122.18594,37.19832],[-122.18503,37.19795],[-122.18449,37.19806],[-122.18424,37.19803],[-122.18349,37.19713],[-122.1829,37.19698],[-122.18234,37.19735],[-122.182,37.1973],[-122.18187,37.19717],[-122.18174,37.19661],[-122.18072,37.19585],[-122.18023,37.19566],[-122.17969,37.19561],[-122.1795,37.19537],[-122.17937,37.1949],[-122.1792,37.19479],[-122.17898,37.19478],[-122.17868,37.19495],[-122.17825,37.19468],[-122.17802,37.19479],[-122.17786,37.19503],[-122.17736,37.19495],[-122.17693,37.19504],[-122.17685,37.19462],[-122.17551,37.19409],[-122.17495,37.19353],[-122.17486,37.19311],[-122.175,37.19286],[-122.17488,37.19272],[-122.17458,37.19275],[-122.174,37.19317],[-122.17353,37.19337],[-122.17283,37.19342],[-122.17181,37.19368],[-122.17112,37.1936],[-122.17057,37.19326],[-122.17014,37.19324],[-122.16957,37.19305],[-122.16923,37.19307],[-122.16885,37.19342],[-122.16911,37.19378],[-122.16909,37.1941],[-122.1683,37.19468],[-122.16676,37.19511],[-122.16628,37.1951],[-122.16593,37.19532],[-122.16503,37.19527],[-122.16438,37.19541],[-122.1637,37.19534],[-122.16285,37.19563],[-122.16285,37.19665],[-122.16313,37.1972],[-122.16373,37.19756],[-122.16416,37.19753],[-122.16438,37.19768],[-122.16436,37.19789],[-122.16402,37.19836],[-122.164,37.19863],[-122.16416,37.19882],[-122.1645,37.19896],[-122.16457,37.19914],[-122.16428,37.1994],[-122.16399,37.19996],[-122.16362,37.20019],[-122.16316,37.20103],[-122.16273,37.20145],[-122.16246,37.20152],[-122.16182,37.20124],[-122.16141,37.20127],[-122.16128,37.20141],[-122.16122,37.20176],[-122.16077,37.20212],[-122.16032,37.20238],[-122.15986,37.20245],[-122.1585,37.20217],[-122.15724,37.20157],[-122.15705,37.2016],[-122.1571,37.20182],[-122.15753,37.20207],[-122.15769,37.20236],[-122.15812,37.20269],[-122.15822,37.20299],[-122.15802,37.20346],[-122.15797,37.20472],[-122.15724,37.2054],[-122.15725,37.20584],[-122.15761,37.20625],[-122.15764,37.20661],[-122.15693,37.2073],[-122.15603,37.20771],[-122.15611,37.20791],[-122.15652,37.20821],[-122.15676,37.20857],[-122.15678,37.20891],[-122.15652,37.2094],[-122.15696,37.20978],[-122.15717,37.21011],[-122.15708,37.21086],[-122.15668,37.21157]]]}}
