{"type":"Feature","properties":{"id":"bishop-creek-sabrina","name":"Bishop Creek Canyon Road \u00b7 Hwy 168","difficulty":2,"character":"Medium speed"},"geometry":{"type":"MultiLineString","coordinates":[[[-118.60657,37.21826],[-118.60595,37.21919],[-118.60478,37.22145],[-118.60275,37.22355],[-118.60095,37.22577],[-118.59936,37.22889],[-118.59743,37.23189],[-118.59717,37.23298],[-118.5972,37.24111],[-118.59701,37.24195],[-118.59662,37.24262],[-118.59609,37.24319],[-118.59423,37.24454],[-118.5886,37.24836],[-118.58746,37.2487],[-118.58311,37.24915],[-118.58227,37.24953],[-118.58166,37.25019],[-118.58143,37.25092],[-118.58159,37.25236],[-118.58153,37.25329],[-118.5801,37.25605],[-118.5798,37.25701],[-118.57969,37.2578],[-118.57979,37.25932],[-118.58059,37.26289],[-118.58041,37.26435],[-118.58002,37.26522],[-118.57507,37.27428],[-118.57415,37.27549],[-118.55341,37.2924],[-118.55275,37.29283],[-118.5451,37.29696],[-118.53769,37.30009],[-118.53193,37.3029],[-118.5296,37.30495],[-118.52797,37.30729],[-118.52749,37.3078],[-118.51964,37.3135],[-118.51891,37.31425],[-118.51415,37.3235],[-118.51395,37.32432],[-118.51405,37.3253],[-118.5144,37.32606],[-118.51496,37.32671],[-118.51596,37.32737],[-118.51702,37.32773],[-118.51792,37.32784],[-118.51859,37.32781],[-118.52094,37.3273],[-118.52165,37.32723],[-118.52259,37.32734],[-118.52357,37.32775],[-118.52408,37.32815],[-118.52444,37.32858],[-118.52478,37.3296],[-118.52457,37.3306],[-118.52428,37.33105],[-118.52376,37.33153],[-118.50853,37.3389],[-118.50673,37.33952],[-118.50559,37.33972],[-118.48118,37.34203],[-118.47994,37.34223],[-118.47903,37.34253],[-118.47806,37.34301],[-118.47721,37.34362],[-118.46459,37.35342],[-118.4636,37.3543],[-118.46186,37.35628],[-118.4594,37.3584],[-118.45827,37.35919],[-118.45704,37.35985],[-118.45592,37.36032],[-118.45431,37.36082],[-118.45218,37.36116],[-118.4503,37.36122],[-118.44062,37.36131],[-118.43561,37.36125],[-118.43131,37.36138],[-118.42317,37.3613],[-118.40226,37.36135],[-118.39526,37.36144]],[[-118.56589,37.16938],[-118.56609,37.1695],[-118.5661,37.16985],[-118.56576,37.17047],[-118.56584,37.17119],[-118.56565,37.17193],[-118.56503,37.17226],[-118.56472,37.17254],[-118.56383,37.17409],[-118.56336,37.17509],[-118.56329,37.17615],[-118.56306,37.17678],[-118.56279,37.17701],[-118.56145,37.17746],[-118.56044,37.17842],[-118.55954,37.17902],[-118.55934,37.17932],[-118.55934,37.18002],[-118.55916,37.18073],[-118.55895,37.18104],[-118.5585,37.18138],[-118.55824,37.18223],[-118.55844,37.18266],[-118.55854,37.18365],[-118.55836,37.18496],[-118.55912,37.18622],[-118.5589,37.18799],[-118.55994,37.19065],[-118.56038,37.19137],[-118.56207,37.19312],[-118.56291,37.19482],[-118.56511,37.19628],[-118.56724,37.19838],[-118.56875,37.20091],[-118.56936,37.20211],[-118.56961,37.20344],[-118.56986,37.2065],[-118.5704,37.20786],[-118.5702,37.20853],[-118.56824,37.21088],[-118.56766,37.21198],[-118.56708,37.21352],[-118.56727,37.21452],[-118.56724,37.215],[-118.56667,37.2162],[-118.56668,37.21907],[-118.56752,37.2228],[-118.5668,37.22444],[-118.56691,37.22742],[-118.56624,37.23344],[-118.56616,37.23632],[-118.56591,37.23761],[-118.56592,37.23836],[-118.56622,37.23941],[-118.56744,37.24134],[-118.56849,37.24349],[-118.5719,37.24753],[-118.57242,37.2485],[-118.57268,37.2498],[-118.57266,37.25105],[-118.57229,37.25226],[-118.57149,37.2541],[-118.5715,37.25465],[-118.57176,37.25512],[-118.57205,37.25539],[-118.57307,37.25592],[-118.57388,37.25698],[-118.57422,37.25719],[-118.5747,37.25734],[-118.57543,37.25735],[-118.57605,37.25714],[-118.57645,37.25684],[-118.57713,37.25589],[-118.57784,37.25553],[-118.57824,37.25549],[-118.57876,37.25559],[-118.57999,37.25634]]]}}
