{"type":"Feature","properties":{"id":"bonny-doon","name":"Bonny Doon Road","difficulty":2,"character":"Medium speed"},"geometry":{"type":"MultiLineString","coordinates":[[[-122.1453,37.06417],[-122.14604,37.0652],[-122.14693,37.06546],[-122.14741,37.06576],[-122.15752,37.06584],[-122.15788,37.06579],[-122.15829,37.06549],[-122.15851,37.06515],[-122.1587,37.06438],[-122.15857,37.06243],[-122.15862,37.06177],[-122.1608,37.05485],[-122.16081,37.04779],[-122.16056,37.04746],[-122.1604,37.0474],[-122.15522,37.04753],[-122.15514,37.04742],[-122.15515,37.04389],[-122.1522,37.04395],[-122.15163,37.04376],[-122.15134,37.04357],[-122.15115,37.04245],[-122.15074,37.0421],[-122.15053,37.04206],[-122.15054,37.04173],[-122.15065,37.04155],[-122.15151,37.04072],[-122.15188,37.0402],[-122.15194,37.03645],[-122.15257,37.03493],[-122.15324,37.03415],[-122.15417,37.03349],[-122.15833,37.0312],[-122.15956,37.03064],[-122.15989,37.02996],[-122.16009,37.0298],[-122.16111,37.02948],[-122.16167,37.02952],[-122.16214,37.02943],[-122.16269,37.029],[-122.16319,37.02685],[-122.16354,37.02642],[-122.16512,37.02546],[-122.16576,37.02437],[-122.16624,37.0224],[-122.16697,37.02063],[-122.16726,37.01822],[-122.16759,37.01774],[-122.16807,37.01729],[-122.16932,37.01664],[-122.16998,37.01645],[-122.17148,37.01621],[-122.17275,37.01551],[-122.17385,37.0155],[-122.17454,37.0151],[-122.17494,37.01424],[-122.1754,37.0138],[-122.17642,37.01246],[-122.17645,37.01227],[-122.17592,37.01107],[-122.1751,37.00973],[-122.17536,37.00836],[-122.17557,37.00791],[-122.1757,37.00683],[-122.17558,37.00635],[-122.17583,37.00563],[-122.17582,37.00512],[-122.17627,37.00452],[-122.17731,37.00386],[-122.17772,37.00333],[-122.17786,37.00296],[-122.17826,37.00264],[-122.17868,37.00202],[-122.18045,37.00101]],[[-122.15065,37.04155],[-122.15154,37.04083],[-122.15182,37.04046],[-122.15188,37.0402]]]}}
