{"type":"Feature","properties":{"id":"bouquet-canyon","name":"Bouquet Canyon Road","difficulty":2,"character":"Medium speed"},"geometry":{"type":"MultiLineString","coordinates":[[[-118.45515,34.50019],[-118.45471,34.50076],[-118.45389,34.5014],[-118.45343,34.5019],[-118.45319,34.50241],[-118.45312,34.50429],[-118.45298,34.50477],[-118.45261,34.5051],[-118.45189,34.5055],[-118.4516,34.50585],[-118.45161,34.5063],[-118.45254,34.5074],[-118.45269,34.50772],[-118.45282,34.50915],[-118.45259,34.50932],[-118.45138,34.50969],[-118.45104,34.51066],[-118.4506,34.51155],[-118.45036,34.51186],[-118.44955,34.51235],[-118.4492,34.51278],[-118.44915,34.51316],[-118.44968,34.51376],[-118.44971,34.51393],[-118.44959,34.51409],[-118.44896,34.51435],[-118.44847,34.51487],[-118.44844,34.51515],[-118.44865,34.51578],[-118.44862,34.51607],[-118.44782,34.51664],[-118.44704,34.51753],[-118.44702,34.51873],[-118.44693,34.51902],[-118.44646,34.51936],[-118.44597,34.52002],[-118.44539,34.5204],[-118.44494,34.52155],[-118.44408,34.52218],[-118.44332,34.52301],[-118.44183,34.52372],[-118.44142,34.52418],[-118.44137,34.52458],[-118.44154,34.52484],[-118.44177,34.525],[-118.44248,34.52518],[-118.44267,34.52546],[-118.44244,34.5263],[-118.44284,34.52738],[-118.44247,34.52805],[-118.44272,34.52883],[-118.44263,34.52945],[-118.44295,34.53027],[-118.44294,34.53058],[-118.44192,34.53268],[-118.4411,34.53306],[-118.44044,34.53361],[-118.43993,34.53415],[-118.43971,34.53463],[-118.43974,34.53687],[-118.43989,34.53792],[-118.43951,34.5385],[-118.43927,34.5396],[-118.43888,34.5403],[-118.43843,34.54178],[-118.43826,34.54196],[-118.43742,34.54235],[-118.43679,34.54348],[-118.43647,34.54427],[-118.43607,34.54455],[-118.43534,34.54469],[-118.4351,34.54488],[-118.43413,34.54618],[-118.43402,34.54684],[-118.43382,34.54721],[-118.4326,34.54799],[-118.43214,34.54898],[-118.43186,34.54924],[-118.43146,34.54933],[-118.43008,34.54928],[-118.42901,34.54962],[-118.42831,34.54947],[-118.4279,34.5495],[-118.42751,34.54981],[-118.42744,34.55058],[-118.42727,34.55092],[-118.42646,34.55152],[-118.42578,34.5524],[-118.42539,34.55273],[-118.42487,34.55292],[-118.42319,34.55325],[-118.42158,34.55337],[-118.42047,34.55397],[-118.41966,34.55425],[-118.41906,34.55424],[-118.4179,34.55391],[-118.41393,34.55375],[-118.41246,34.55347],[-118.41147,34.5535],[-118.41098,34.5543],[-118.41064,34.55457],[-118.41006,34.55477],[-118.4086,34.55504],[-118.40811,34.5553],[-118.40784,34.55558],[-118.40716,34.55671],[-118.40657,34.55735],[-118.40599,34.55891],[-118.40536,34.55962],[-118.40492,34.55991],[-118.40402,34.56004],[-118.40364,34.5602],[-118.40169,34.56149],[-118.40123,34.56161],[-118.40056,34.5616],[-118.40024,34.56169],[-118.3998,34.56221],[-118.39956,34.56274],[-118.3987,34.56344],[-118.39839,34.56422],[-118.3975,34.56469],[-118.39618,34.56639],[-118.39579,34.56663],[-118.39452,34.56709],[-118.39371,34.56803],[-118.39226,34.56922],[-118.39189,34.56965],[-118.3916,34.56987],[-118.39054,34.57033],[-118.39021,34.57057],[-118.38947,34.57156],[-118.38902,34.57173],[-118.38816,34.5717],[-118.38765,34.57194],[-118.38691,34.57324],[-118.38541,34.5743],[-118.38523,34.57465],[-118.38532,34.57547],[-118.38494,34.5759],[-118.38462,34.57602],[-118.38373,34.57607],[-118.3834,34.57632],[-118.38311,34.57679],[-118.3828,34.57695],[-118.38239,34.57701],[-118.37971,34.57666],[-118.37661,34.57596],[-118.37568,34.57596],[-118.3736,34.57642],[-118.37103,34.5777],[-118.36933,34.57826],[-118.36908,34.5785],[-118.36892,34.57887],[-118.3688,34.58029],[-118.36838,34.58083],[-118.36681,34.5818],[-118.36468,34.58285],[-118.36357,34.58359],[-118.36257,34.58397],[-118.36112,34.5843],[-118.36003,34.58434],[-118.3588,34.58417],[-118.35761,34.58386],[-118.35446,34.58337],[-118.35147,34.58376],[-118.34579,34.583],[-118.34077,34.58334],[-118.33982,34.58321],[-118.33833,34.58282],[-118.33738,34.58268],[-118.33612,34.58276],[-118.33268,34.58324],[-118.3268,34.58339],[-118.32424,34.58385],[-118.32146,34.58365],[-118.31904,34.58383],[-118.31833,34.58396],[-118.31608,34.58467],[-118.31498,34.58481],[-118.31344,34.58478],[-118.31081,34.58422],[-118.30966,34.5842],[-118.3076,34.58447],[-118.3068,34.58471],[-118.30629,34.58519],[-118.30524,34.58693],[-118.30487,34.58724],[-118.30439,34.58744],[-118.30371,34.58753],[-118.29931,34.58748],[-118.29683,34.58763],[-118.29481,34.58722],[-118.29404,34.58719],[-118.29144,34.58763],[-118.28896,34.589],[-118.28848,34.58916],[-118.27853,34.59181],[-118.27792,34.59215],[-118.27619,34.59425],[-118.2757,34.59471],[-118.27525,34.59491],[-118.27472,34.59498],[-118.27219,34.59505],[-118.27155,34.59535],[-118.27106,34.59596],[-118.27096,34.59675],[-118.2711,34.61172]]]}}
