{"type":"Feature","properties":{"id":"calaveras","name":"Calaveras Road","difficulty":3,"character":"Technical"},"geometry":{"type":"MultiLineString","coordinates":[[[-121.86666,37.44043],[-121.86603,37.44081],[-121.8657,37.44118],[-121.86533,37.44221],[-121.865,37.44267],[-121.86405,37.44353],[-121.86256,37.4443],[-121.86067,37.44476],[-121.85867,37.44498],[-121.8585,37.44509],[-121.85802,37.44578],[-121.85771,37.44595],[-121.85674,37.44581],[-121.85546,37.44598],[-121.85308,37.44676],[-121.85164,37.44694],[-121.84718,37.44868],[-121.84663,37.44859],[-121.84577,37.44802],[-121.84489,37.44766],[-121.84413,37.44707],[-121.8438,37.44664],[-121.84356,37.44563],[-121.8428,37.44498],[-121.84208,37.44466],[-121.84101,37.44454],[-121.8379,37.44335],[-121.8369,37.44278],[-121.83519,37.44334],[-121.83505,37.44348],[-121.835,37.44403],[-121.83482,37.44432],[-121.83404,37.44462],[-121.83374,37.44483],[-121.83247,37.44616],[-121.83208,37.44629],[-121.83107,37.4464],[-121.83048,37.44634],[-121.82944,37.44608],[-121.82895,37.44629],[-121.82884,37.44651],[-121.829,37.44718],[-121.82995,37.44757],[-121.83041,37.44792],[-121.83222,37.44809],[-121.83211,37.44837],[-121.8315,37.44879],[-121.83138,37.44909],[-121.83203,37.44949],[-121.83211,37.45004],[-121.83254,37.45067],[-121.83245,37.45122],[-121.83277,37.45164],[-121.83209,37.45222],[-121.83209,37.45276],[-121.83194,37.45297],[-121.83114,37.45335],[-121.83028,37.45356],[-121.83005,37.45375],[-121.83011,37.45389],[-121.83049,37.4541],[-121.83204,37.45416],[-121.83305,37.45403],[-121.83325,37.45418],[-121.83333,37.45443],[-121.83254,37.45507],[-121.83118,37.4558],[-121.83083,37.4561],[-121.83082,37.45622],[-121.83094,37.45632],[-121.83193,37.45658],[-121.83211,37.45671],[-121.83199,37.45687],[-121.83109,37.45735],[-121.83096,37.45813],[-121.83139,37.45884],[-121.83155,37.45886],[-121.8321,37.45862],[-121.8325,37.45894],[-121.83282,37.45904],[-121.83356,37.4588],[-121.83482,37.45932],[-121.83472,37.45951],[-121.83377,37.45967],[-121.83334,37.46003],[-121.83254,37.46017],[-121.83227,37.46046],[-121.83178,37.46059],[-121.83169,37.46079],[-121.83179,37.46155],[-121.8321,37.462],[-121.83221,37.46268],[-121.833,37.46348],[-121.8332,37.46381],[-121.83294,37.46474],[-121.83326,37.46545],[-121.83322,37.4667],[-121.83332,37.46696],[-121.83379,37.46745],[-121.83433,37.46825],[-121.83502,37.46822],[-121.83571,37.46846],[-121.83602,37.46867],[-121.83655,37.46861],[-121.83665,37.46868],[-121.83645,37.46904],[-121.83612,37.46922],[-121.8349,37.4693],[-121.8347,37.47012],[-121.83362,37.47004],[-121.83342,37.47012],[-121.83319,37.47053],[-121.83314,37.47099],[-121.83267,37.47132],[-121.83259,37.47161],[-121.83273,37.47192],[-121.83306,37.4723],[-121.83313,37.47283],[-121.83362,37.47316],[-121.83391,37.47358],[-121.83378,37.4737],[-121.833,37.47391],[-121.83234,37.47427],[-121.83254,37.47506],[-121.83287,37.47547],[-121.83214,37.47598],[-121.8317,37.47675],[-121.83205,37.47722],[-121.8322,37.47778],[-121.83239,37.47798],[-121.83299,37.47808],[-121.83348,37.47792],[-121.83358,37.47806],[-121.83343,37.47831],[-121.83286,37.47879],[-121.83194,37.47895],[-121.83095,37.47897],[-121.83057,37.47913],[-121.83047,37.4793],[-121.83064,37.48086],[-121.83109,37.48159],[-121.83125,37.48165],[-121.83171,37.48156],[-121.83278,37.48159],[-121.83294,37.48168],[-121.83291,37.48186],[-121.83226,37.48277],[-121.83218,37.48322],[-121.83244,37.4837],[-121.83312,37.48373],[-121.8333,37.48383],[-121.83289,37.48491],[-121.83297,37.48522],[-121.83321,37.48542],[-121.83396,37.48566],[-121.8345,37.48598],[-121.83509,37.48592],[-121.8353,37.48624],[-121.83615,37.48637],[-121.83635,37.48651],[-121.8363,37.48664],[-121.83529,37.48733],[-121.83512,37.48793],[-121.83457,37.48766],[-121.83413,37.48769],[-121.83356,37.4883],[-121.83338,37.48827],[-121.83324,37.48799],[-121.83304,37.48792],[-121.8327,37.48834],[-121.83245,37.48846],[-121.83196,37.48815],[-121.83167,37.48769],[-121.8312,37.48758],[-121.83056,37.48781],[-121.82992,37.4884],[-121.82998,37.48861],[-121.83051,37.48909],[-121.83038,37.48939],[-121.8304,37.48993],[-121.83092,37.49016],[-121.831,37.4903],[-121.83101,37.49064],[-121.83056,37.49067],[-121.83041,37.49077],[-121.8303,37.49165],[-121.83041,37.49195],[-121.83108,37.49257],[-121.83093,37.49265],[-121.83009,37.49254],[-121.82989,37.49265],[-121.82982,37.4929],[-121.82993,37.49304],[-121.83078,37.49335],[-121.83105,37.49367],[-121.83116,37.49407],[-121.83106,37.4945],[-121.83133,37.49524],[-121.83164,37.49576],[-121.83211,37.49599],[-121.83209,37.49634],[-121.83229,37.4966],[-121.83322,37.49699],[-121.8339,37.49704],[-121.83433,37.49696],[-121.83456,37.49708],[-121.83412,37.49749],[-121.83328,37.49768],[-121.83271,37.49794],[-121.83235,37.49823],[-121.83218,37.49864],[-121.83218,37.49955],[-121.83199,37.50059],[-121.83287,37.50375],[-121.83278,37.50481],[-121.83304,37.506],[-121.83395,37.50765],[-121.83429,37.50797],[-121.83485,37.50819],[-121.83521,37.50897],[-121.83577,37.50917],[-121.83647,37.50924],[-121.83654,37.50985],[-121.83747,37.51066],[-121.83889,37.5112],[-121.83908,37.51138],[-121.83906,37.51154],[-121.83887,37.51169],[-121.83786,37.51177],[-121.83688,37.51166],[-121.83621,37.51187],[-121.83525,37.51239],[-121.83511,37.51258],[-121.83513,37.51273],[-121.8358,37.51312],[-121.83755,37.51364],[-121.83871,37.51427],[-121.84009,37.51423],[-121.84043,37.51431],[-121.84088,37.51474],[-121.84112,37.51533],[-121.84248,37.51599],[-121.84299,37.51644],[-121.84344,37.51709],[-121.84457,37.51745],[-121.84486,37.5179],[-121.84535,37.51833],[-121.84644,37.52002],[-121.84677,37.5202],[-121.84762,37.52031],[-121.84798,37.52052],[-121.8481,37.52084],[-121.84764,37.52142],[-121.84789,37.52211],[-121.84787,37.52352],[-121.8484,37.52485],[-121.84889,37.52555],[-121.84948,37.52603],[-121.8504,37.5273],[-121.85219,37.52911],[-121.85292,37.5301],[-121.85377,37.53362],[-121.85382,37.53418],[-121.85379,37.53443],[-121.85243,37.53686],[-121.85238,37.53728],[-121.85264,37.53785],[-121.85452,37.54057],[-121.85523,37.54121],[-121.85676,37.54295],[-121.85734,37.54383],[-121.85774,37.54914],[-121.85728,37.55076],[-121.85745,37.55122],[-121.85887,37.55359],[-121.85905,37.55411],[-121.85927,37.55583],[-121.85948,37.55654],[-121.86069,37.56049],[-121.86148,37.56234],[-121.86163,37.56392],[-121.86289,37.56821],[-121.86307,37.56953],[-121.86415,37.57218],[-121.8648,37.57579],[-121.86538,37.57807],[-121.86889,37.58696],[-121.86936,37.58781]]]}}
