{"type":"Feature","properties":{"id":"canada-road","name":"Ca\u00f1ada Road","difficulty":1,"character":"Medium speed"},"geometry":{"type":"MultiLineString","coordinates":[[[-122.25397,37.4296],[-122.25589,37.43185],[-122.25715,37.43316],[-122.26771,37.44293],[-122.26889,37.44371],[-122.26918,37.44406],[-122.26972,37.44513],[-122.27011,37.44552],[-122.27199,37.44642],[-122.28667,37.45607],[-122.28739,37.45682],[-122.28863,37.45901],[-122.28927,37.45962],[-122.29026,37.46004],[-122.29242,37.46029],[-122.2935,37.46061],[-122.29574,37.46203],[-122.29738,37.46329],[-122.30038,37.4665],[-122.32017,37.48906],[-122.32133,37.49012],[-122.32573,37.49343],[-122.32639,37.49405],[-122.32679,37.49461],[-122.32709,37.49528],[-122.32756,37.49772],[-122.3278,37.49821],[-122.32824,37.49876],[-122.32906,37.4994],[-122.33021,37.49988],[-122.33133,37.50004],[-122.33312,37.50003],[-122.33375,37.50018],[-122.33445,37.5005],[-122.33502,37.50096],[-122.33536,37.5014],[-122.33557,37.50189],[-122.33581,37.50305],[-122.33644,37.50395],[-122.33716,37.50447],[-122.34034,37.50593],[-122.34103,37.50651],[-122.34137,37.50711]]]}}
