{"type":"Feature","properties":{"id":"carbon-canyon","name":"Carbon Canyon Road \u00b7 SR 142","difficulty":2,"character":"Medium speed"},"geometry":{"type":"MultiLineString","coordinates":[[[-117.84766,33.92414],[-117.84542,33.92408],[-117.84261,33.92377],[-117.84167,33.92358],[-117.83859,33.92268],[-117.83739,33.92245],[-117.83569,33.92239],[-117.83359,33.92247],[-117.83265,33.92239],[-117.82464,33.91994],[-117.82404,33.91982],[-117.82341,33.91983],[-117.8201,33.92047],[-117.8191,33.9208],[-117.81694,33.92184],[-117.81431,33.92241],[-117.81289,33.92311],[-117.81146,33.92345],[-117.80935,33.92417],[-117.80804,33.92446],[-117.80599,33.92539],[-117.80358,33.92688],[-117.79846,33.92859],[-117.79784,33.92903],[-117.79684,33.93018],[-117.7964,33.9311],[-117.79611,33.93203],[-117.7957,33.93255],[-117.79439,33.93325],[-117.79371,33.93392],[-117.79273,33.93435],[-117.79236,33.93474],[-117.79215,33.93529],[-117.79222,33.93624],[-117.79212,33.93663],[-117.79162,33.93786],[-117.79123,33.93839],[-117.79003,33.93932],[-117.78949,33.93953],[-117.7885,33.93972],[-117.78788,33.94004],[-117.78759,33.94038],[-117.78711,33.94131],[-117.78606,33.94263],[-117.78531,33.94305],[-117.78306,33.94396],[-117.78262,33.94443],[-117.78228,33.94505],[-117.78083,33.94611],[-117.78037,33.94682],[-117.77927,33.94722],[-117.77844,33.94799],[-117.77791,33.94824],[-117.77729,33.94923],[-117.77657,33.94973],[-117.77606,33.95066],[-117.7744,33.95276],[-117.77277,33.95556],[-117.77192,33.95623],[-117.76918,33.95765],[-117.76789,33.95873],[-117.76567,33.96032],[-117.76385,33.96138],[-117.76219,33.96317],[-117.7605,33.96417],[-117.76023,33.96457],[-117.75982,33.96563],[-117.75974,33.96662],[-117.75959,33.96688],[-117.75927,33.96702],[-117.75817,33.96709],[-117.75639,33.96658],[-117.75627,33.96671],[-117.75633,33.96683],[-117.75718,33.96725],[-117.75719,33.9674],[-117.75703,33.96746],[-117.7552,33.9669],[-117.75433,33.967],[-117.75391,33.96733],[-117.75369,33.96738],[-117.75303,33.96699],[-117.75251,33.96692],[-117.75221,33.96704],[-117.75162,33.96776],[-117.74994,33.96903],[-117.74943,33.96969],[-117.74874,33.97111],[-117.74816,33.97188],[-117.74675,33.97319],[-117.7464,33.97367],[-117.74583,33.9754],[-117.74488,33.97696],[-117.74203,33.97967],[-117.74107,33.98112]]]}}
