{"type":"Feature","properties":{"id":"carmel-valley","name":"Carmel Valley Road","difficulty":2,"character":"Medium speed"},"geometry":{"type":"MultiLineString","coordinates":[[[-121.7936,36.52394],[-121.79499,36.52473],[-121.79568,36.52488],[-121.79628,36.52487],[-121.79704,36.52467],[-121.79824,36.52387],[-121.79878,36.52368],[-121.80038,36.52347],[-121.80541,36.52232],[-121.80611,36.52229],[-121.80688,36.52239],[-121.80797,36.52279],[-121.81107,36.52418],[-121.8153,36.52569],[-121.81598,36.52613],[-121.81734,36.52754],[-121.81802,36.52807],[-121.81894,36.52856],[-121.82011,36.52894],[-121.82137,36.52911],[-121.82404,36.52909],[-121.82743,36.52982],[-121.83143,36.53009],[-121.83494,36.53107],[-121.8388,36.53161],[-121.85004,36.53411],[-121.85083,36.53415],[-121.85406,36.53389],[-121.85532,36.53407],[-121.85626,36.53444],[-121.85688,36.53485],[-121.8603,36.53784],[-121.86373,36.53961],[-121.86459,36.53994],[-121.8654,36.54011],[-121.86711,36.54016],[-121.86968,36.53963],[-121.8709,36.53962],[-121.87497,36.5405],[-121.87684,36.54105],[-121.8825,36.54244],[-121.88413,36.54258],[-121.88737,36.5423],[-121.88884,36.54235],[-121.89279,36.54306],[-121.89571,36.54389],[-121.89708,36.54411],[-121.90082,36.54408],[-121.9071,36.54374],[-121.9084,36.54338]],[[-121.9063,36.54375],[-121.90482,36.54369],[-121.90082,36.54395],[-121.89689,36.54395],[-121.89563,36.54373],[-121.89286,36.54293],[-121.88912,36.54225],[-121.88765,36.54216],[-121.88444,36.54243],[-121.88315,36.54239],[-121.88219,36.54223],[-121.87829,36.54124],[-121.87634,36.54085]],[[-121.80519,36.52237],[-121.80682,36.52246],[-121.80819,36.52291]]]}}
