{"type":"Feature","properties":{"id":"cherohala-skyway","name":"Cherohala Skyway","difficulty":2,"character":"Medium speed"},"geometry":{"type":"MultiLineString","coordinates":[[[-84.30163,35.36687],[-84.30026,35.36706],[-84.29829,35.36696],[-84.29777,35.3668],[-84.29631,35.36584],[-84.29587,35.36564],[-84.29434,35.36546],[-84.29377,35.3653],[-84.29209,35.36436],[-84.28847,35.36315],[-84.28702,35.36295],[-84.28474,35.36301],[-84.28374,35.36293],[-84.28287,35.36268],[-84.28146,35.36207],[-84.28003,35.36164],[-84.27945,35.36135],[-84.27815,35.36036],[-84.27797,35.36007],[-84.2779,35.35951],[-84.27757,35.35901],[-84.27494,35.35739],[-84.27252,35.35743],[-84.27022,35.3569],[-84.26988,35.35671],[-84.26903,35.35583],[-84.26849,35.35557],[-84.25939,35.35302],[-84.25642,35.35163],[-84.2544,35.35037],[-84.25347,35.34859],[-84.25303,35.34807],[-84.25257,35.34781],[-84.25196,35.34779],[-84.25141,35.34806],[-84.25121,35.34841],[-84.25097,35.34936],[-84.25045,35.34991],[-84.24993,35.3501],[-84.24921,35.35003],[-84.24866,35.34965],[-84.24835,35.34911],[-84.24821,35.34762],[-84.24784,35.3471],[-84.2474,35.34689],[-84.24493,35.34622],[-84.24334,35.34558],[-84.24294,35.34558],[-84.24264,35.34574],[-84.2425,35.34607],[-84.24261,35.34633],[-84.24397,35.34734],[-84.24542,35.3482],[-84.24587,35.34869],[-84.24612,35.34917],[-84.2463,35.34986],[-84.24626,35.35053],[-84.24602,35.35098],[-84.24554,35.35127],[-84.24479,35.3513],[-84.24317,35.35066],[-84.24196,35.35053],[-84.24132,35.3503],[-84.24086,35.34989],[-84.24008,35.34835],[-84.23858,35.34666],[-84.23798,35.34617],[-84.2376,35.34601],[-84.23698,35.34595],[-84.2363,35.3461],[-84.23602,35.34629],[-84.23574,35.34669],[-84.23537,35.34757],[-84.23431,35.34853],[-84.23314,35.35019],[-84.23274,35.35059],[-84.23207,35.35088],[-84.23158,35.351],[-84.23102,35.35099],[-84.23037,35.35083],[-84.22984,35.35053],[-84.2296,35.35013],[-84.22956,35.34973],[-84.22983,35.34851],[-84.22981,35.34811],[-84.22948,35.34774],[-84.22891,35.34761],[-84.22847,35.34774],[-84.2251,35.35054],[-84.22436,35.35104],[-84.22187,35.35183],[-84.22008,35.35206],[-84.21952,35.35199],[-84.21915,35.35171],[-84.21901,35.35137],[-84.21887,35.35029],[-84.21787,35.34874],[-84.21745,35.3485],[-84.21694,35.3485],[-84.21625,35.34896],[-84.2158,35.34911],[-84.2154,35.34908],[-84.2145,35.34883],[-84.21404,35.34885],[-84.21367,35.34912],[-84.21295,35.35027],[-84.21242,35.35051],[-84.21168,35.35054],[-84.21097,35.35036],[-84.2106,35.35017],[-84.20852,35.34851],[-84.20813,35.34834],[-84.20763,35.34836],[-84.20623,35.34899],[-84.20564,35.34916],[-84.20482,35.3492],[-84.20411,35.34904],[-84.20345,35.3487],[-84.20105,35.34676],[-84.2003,35.34649],[-84.19968,35.34645],[-84.19894,35.34662],[-84.19852,35.34685],[-84.19672,35.34861],[-84.19468,35.35022],[-84.19307,35.35121],[-84.19222,35.3515],[-84.191,35.35141],[-84.18896,35.35066],[-84.18846,35.35068],[-84.18693,35.35101],[-84.1864,35.35091],[-84.18544,35.35053],[-84.18416,35.35041],[-84.18293,35.35075],[-84.18046,35.35196],[-84.17954,35.35214],[-84.17813,35.35219],[-84.17762,35.35203],[-84.17724,35.35175],[-84.17665,35.35047],[-84.17602,35.34999],[-84.1744,35.3493],[-84.17336,35.34918],[-84.17245,35.34935],[-84.17193,35.34959],[-84.17137,35.35001],[-84.17063,35.35094],[-84.17005,35.35125],[-84.16963,35.35134],[-84.169,35.35129],[-84.16712,35.35037],[-84.16635,35.35032],[-84.16589,35.35046],[-84.16309,35.35199],[-84.16234,35.3522],[-84.16014,35.35257],[-84.15828,35.35364],[-84.15665,35.35418],[-84.1549,35.35533],[-84.15345,35.35599],[-84.151,35.35735],[-84.14953,35.35847],[-84.14802,35.35938],[-84.14773,35.35963],[-84.14744,35.36006],[-84.14724,35.3613],[-84.14696,35.36175],[-84.14436,35.36305],[-84.14287,35.36441],[-84.14215,35.36466],[-84.13977,35.36462],[-84.13906,35.36494],[-84.13865,35.36565],[-84.13896,35.3672],[-84.13894,35.36748],[-84.13872,35.3679],[-84.13839,35.36813],[-84.13799,35.36827],[-84.13639,35.36821],[-84.13575,35.36846],[-84.13252,35.37212],[-84.13223,35.37264],[-84.13206,35.37325],[-84.13229,35.37508],[-84.13222,35.37555],[-84.13192,35.37605],[-84.13141,35.37644],[-84.12977,35.37707],[-84.129,35.37756],[-84.12405,35.38261],[-84.12349,35.38287],[-84.1224,35.38307],[-84.12186,35.38326],[-84.12146,35.38367],[-84.12078,35.38493],[-84.12016,35.38521],[-84.1196,35.38516],[-84.11917,35.38489],[-84.11891,35.38435],[-84.1189,35.38322],[-84.11917,35.38212],[-84.11985,35.38084],[-84.12097,35.37948],[-84.12119,35.37796],[-84.12143,35.37769],[-84.12252,35.3769],[-84.12305,35.37609],[-84.12311,35.37543],[-84.12266,35.37412],[-84.12265,35.37373],[-84.12277,35.37333],[-84.12318,35.37296],[-84.12446,35.37215],[-84.12481,35.37155],[-84.12479,35.37093],[-84.12456,35.37061],[-84.12394,35.37009],[-84.12378,35.36972],[-84.12397,35.36889],[-84.1242,35.36848],[-84.12455,35.36807],[-84.12497,35.36787],[-84.12624,35.3679],[-84.12681,35.3677],[-84.12709,35.36738],[-84.12744,35.36648],[-84.12782,35.36621],[-84.12833,35.3661],[-84.12961,35.36637],[-84.13003,35.36629],[-84.13055,35.366],[-84.1309,35.36556],[-84.13111,35.3648],[-84.13108,35.36427],[-84.13074,35.36284],[-84.13082,35.36231],[-84.13121,35.36196],[-84.13255,35.3615],[-84.13346,35.36103],[-84.13451,35.36004],[-84.13494,35.35923],[-84.1349,35.35874],[-84.13472,35.35841],[-84.13435,35.35813],[-84.13366,35.35793],[-84.13204,35.35792],[-84.13161,35.3577],[-84.1314,35.35747],[-84.13099,35.35544],[-84.13106,35.35408],[-84.13098,35.35381],[-84.13072,35.3535],[-84.13034,35.35332],[-84.12985,35.35326],[-84.1293,35.35335],[-84.12883,35.3536],[-84.12848,35.35402],[-84.12731,35.35603],[-84.12482,35.358],[-84.12415,35.35901],[-84.12299,35.35991],[-84.12254,35.36068],[-84.12226,35.36095],[-84.12024,35.36152],[-84.11807,35.36287],[-84.11367,35.36476],[-84.11258,35.36501],[-84.1116,35.36512],[-84.10978,35.3646],[-84.109,35.36445],[-84.10768,35.36441],[-84.10721,35.36418],[-84.10689,35.36392],[-84.10658,35.36299],[-84.10636,35.36269],[-84.10535,35.36207],[-84.10516,35.36182],[-84.10512,35.36145],[-84.10537,35.36056],[-84.10533,35.36027],[-84.10505,35.36],[-84.10433,35.35957],[-84.10362,35.35866],[-84.10326,35.35854],[-84.10186,35.35866],[-84.1009,35.35854],[-84.10032,35.35828],[-84.09937,35.35733],[-84.099,35.35715],[-84.09851,35.3571],[-84.0966,35.35758],[-84.09569,35.35764],[-84.0949,35.3574],[-84.09386,35.35683],[-84.09345,35.35679],[-84.09307,35.35687],[-84.09105,35.35783],[-84.09051,35.35794],[-84.08987,35.35795],[-84.08917,35.35783],[-84.08719,35.3567],[-84.08647,35.35655],[-84.08579,35.35664],[-84.0847,35.35705],[-84.08372,35.35719],[-84.08285,35.35714],[-84.08246,35.35702],[-84.08106,35.35623],[-84.07942,35.35556],[-84.0788,35.35515],[-84.07822,35.35454],[-84.07795,35.35402],[-84.07775,35.35329],[-84.07742,35.35291],[-84.07715,35.35279],[-84.07563,35.35266],[-84.07415,35.3518],[-84.07215,35.35169],[-84.07008,35.35179],[-84.06924,35.35153],[-84.0674,35.34961],[-84.06737,35.34891],[-84.06771,35.34815],[-84.06761,35.34779],[-84.0673,35.34752],[-84.06702,35.34741],[-84.06557,35.34726],[-84.0654,35.34718],[-84.06504,35.34671],[-84.06473,35.34583],[-84.06439,35.34565],[-84.06394,35.34561],[-84.06208,35.34638],[-84.06096,35.34666],[-84.05983,35.34667],[-84.05767,35.34632],[-84.05726,35.34642],[-84.05659,35.34685],[-84.05612,35.34692],[-84.05382,35.34611],[-84.05345,35.34611],[-84.05216,35.34651],[-84.05112,35.34634],[-84.05072,35.34642],[-84.05004,35.34711],[-84.04972,35.34731],[-84.04943,35.34735],[-84.04909,35.34731],[-84.04787,35.3466],[-84.04742,35.34659],[-84.04571,35.3472],[-84.04275,35.34667],[-84.0423,35.34675],[-84.03985,35.3479],[-84.03865,35.34821],[-84.03827,35.34821],[-84.0379,35.3481],[-84.03755,35.3478],[-84.03708,35.34682],[-84.03618,35.346],[-84.0356,35.34495],[-84.03535,35.34468],[-84.03488,35.34448],[-84.03357,35.34428],[-84.03223,35.34351],[-84.02937,35.34266],[-84.02894,35.34226],[-84.02891,35.34189],[-84.02913,35.34156],[-84.03081,35.34086],[-84.03143,35.34097],[-84.03243,35.34178],[-84.03292,35.34198],[-84.03356,35.34189],[-84.03407,35.34155],[-84.03542,35.34035],[-84.03573,35.33988],[-84.03556,35.33936],[-84.03494,35.33883],[-84.03437,35.33811],[-84.03392,35.33786],[-84.03267,35.33761],[-84.03123,35.33653],[-84.03069,35.3363],[-84.03006,35.33618],[-84.02921,35.33618],[-84.02836,35.33634],[-84.02775,35.33657],[-84.02599,35.33752],[-84.02546,35.33759],[-84.02502,35.33748],[-84.02471,35.33717],[-84.02466,35.33679],[-84.02569,35.33516],[-84.02576,35.33483],[-84.02568,35.33452],[-84.02548,35.33424],[-84.02515,35.33401],[-84.02338,35.3332],[-84.02295,35.33255],[-84.02295,35.33213],[-84.02309,35.3319],[-84.02429,35.33128],[-84.02453,35.33089],[-84.02439,35.32975],[-84.02471,35.32884],[-84.02473,35.32852],[-84.0246,35.32823],[-84.02386,35.32744],[-84.0237,35.32689],[-84.02377,35.32644],[-84.02417,35.32592],[-84.02465,35.32565],[-84.0252,35.3255],[-84.02598,35.32544],[-84.02655,35.3255],[-84.0272,35.32576],[-84.02793,35.32643],[-84.02854,35.3268],[-84.0293,35.32702],[-84.03029,35.32705],[-84.03126,35.32675],[-84.0319,35.32632],[-84.03237,35.3257],[-84.03254,35.32496],[-84.03242,35.32451],[-84.03214,35.32408],[-84.03002,35.32227],[-84.02978,35.32189],[-84.02987,35.32134],[-84.03155,35.31921],[-84.03174,35.31883],[-84.03172,35.31853],[-84.03155,35.31826],[-84.03047,35.31756],[-84.03039,35.31717],[-84.03063,35.31617],[-84.03045,35.31577],[-84.03021,35.31556],[-84.02973,35.31538],[-84.02916,35.31535],[-84.0286,35.31545],[-84.02806,35.31566],[-84.02684,35.31654],[-84.0254,35.31795],[-84.02513,35.31809],[-84.02462,35.31818],[-84.02186,35.31745],[-84.02155,35.31715],[-84.02121,35.31634],[-84.021,35.31611],[-84.01993,35.31571],[-84.01963,35.31542],[-84.01959,35.31488],[-84.02008,35.31427],[-84.02073,35.31396],[-84.02256,35.31345],[-84.023,35.31313],[-84.02319,35.31286],[-84.02339,35.31165],[-84.02393,35.31052],[-84.0239,35.30947],[-84.02429,35.30855],[-84.0238,35.30762],[-84.02378,35.30735],[-84.024,35.30699],[-84.02476,35.30638],[-84.02489,35.30609],[-84.02487,35.30577],[-84.02465,35.30531],[-84.02392,35.30446],[-84.02374,35.30358],[-84.02351,35.30315],[-84.02273,35.3026],[-84.02216,35.30241],[-84.02156,35.30233],[-84.02025,35.30239],[-84.01874,35.30266],[-84.01709,35.3033],[-84.01599,35.30415],[-84.01546,35.30478],[-84.01438,35.30645],[-84.01386,35.30672],[-84.01332,35.30666],[-84.01301,35.30643],[-84.0129,35.30617],[-84.0128,35.3051],[-84.01235,35.30464],[-84.01165,35.3045],[-84.00983,35.30464],[-84.00924,35.30458],[-84.0087,35.30434],[-84.00755,35.30357],[-84.00647,35.30331],[-84.00511,35.30342],[-84.0035,35.3038],[-83.99717,35.30614],[-83.99556,35.30719],[-83.99398,35.30878],[-83.99259,35.30996],[-83.99242,35.31039],[-83.99256,35.31129],[-83.99243,35.31175],[-83.99169,35.31258],[-83.9911,35.31355],[-83.99003,35.31435],[-83.98871,35.31599],[-83.98867,35.31639],[-83.98894,35.3172],[-83.98882,35.31761],[-83.98861,35.31785],[-83.9876,35.31843],[-83.9861,35.31887],[-83.98511,35.31901],[-83.98354,35.3189],[-83.983,35.31898],[-83.98273,35.31919],[-83.98262,35.31945],[-83.98273,35.32036],[-83.98251,35.32081],[-83.98077,35.32169],[-83.97954,35.32248],[-83.97888,35.32277],[-83.97793,35.32293],[-83.97704,35.32265],[-83.97649,35.32205],[-83.97638,35.32165],[-83.97642,35.3214],[-83.9767,35.32109],[-83.97701,35.32096],[-83.97867,35.32076],[-83.9793,35.32059],[-83.9799,35.32031],[-83.98041,35.31994],[-83.9806,35.31958],[-83.9805,35.31914],[-83.97966,35.31837],[-83.97953,35.31811],[-83.97961,35.3177],[-83.97983,35.31746],[-83.98017,35.3173],[-83.98075,35.3172],[-83.98225,35.3174],[-83.98258,35.3173],[-83.98287,35.31703],[-83.98295,35.31668],[-83.98285,35.31638],[-83.98218,35.31578],[-83.98208,35.31539],[-83.98227,35.315],[-83.9835,35.31364],[-83.98357,35.31338],[-83.98345,35.313],[-83.9831,35.31273],[-83.98278,35.31267],[-83.97971,35.31297],[-83.97901,35.31331],[-83.97826,35.31401],[-83.9778,35.31417],[-83.97719,35.31403],[-83.97662,35.31335],[-83.97613,35.31315],[-83.97562,35.3132],[-83.9744,35.31363],[-83.97302,35.31386],[-83.97263,35.314],[-83.97214,35.31433],[-83.97023,35.31635],[-83.96903,35.31725],[-83.96853,35.31736],[-83.96749,35.31719],[-83.96696,35.31724],[-83.96579,35.31781],[-83.96471,35.31864],[-83.96428,35.31887],[-83.96308,35.31911],[-83.9621,35.31959],[-83.96175,35.31968],[-83.96139,35.31968],[-83.96037,35.31945],[-83.96003,35.31952],[-83.95976,35.3197],[-83.95959,35.31994],[-83.95957,35.32023],[-83.95986,35.32077],[-83.96071,35.3215],[-83.96288,35.32299],[-83.9631,35.32322],[-83.96315,35.32368],[-83.96299,35.32394],[-83.96272,35.32411],[-83.96096,35.32427],[-83.95945,35.32495],[-83.95837,35.32502],[-83.95691,35.3254],[-83.95565,35.32544],[-83.95534,35.32561],[-83.95477,35.3263],[-83.95413,35.32686],[-83.95308,35.32743],[-83.94872,35.32852],[-83.94819,35.32883],[-83.94747,35.32949],[-83.94714,35.32967],[-83.94668,35.3297],[-83.94567,35.32947],[-83.94463,35.32965],[-83.94397,35.32994],[-83.94231,35.33097],[-83.94187,35.33112],[-83.94146,35.33109],[-83.94081,35.3308],[-83.94017,35.3303],[-83.93936,35.32939],[-83.93905,35.32922],[-83.93862,35.32913],[-83.93802,35.32924],[-83.93683,35.32995],[-83.93605,35.33027],[-83.93527,35.33047],[-83.93453,35.33049],[-83.93416,35.33029],[-83.93397,35.32995],[-83.93411,35.32919],[-83.93403,35.32878],[-83.9338,35.32847],[-83.9333,35.32813],[-83.93259,35.32788],[-83.93165,35.32778],[-83.93059,35.32784],[-83.92981,35.32802],[-83.92869,35.32851],[-83.92566,35.33059],[-83.92474,35.33196],[-83.92326,35.33303],[-83.92254,35.33383],[-83.92197,35.33473],[-83.92194,35.33582],[-83.9216,35.33622],[-83.92096,35.33633],[-83.91991,35.33605],[-83.91959,35.33566],[-83.9196,35.33475],[-83.91942,35.33441],[-83.91897,35.3342],[-83.91807,35.33417],[-83.9158,35.3343],[-83.91454,35.3345],[-83.91305,35.33505],[-83.91143,35.33601],[-83.91037,35.33631],[-83.90953,35.3364],[-83.90713,35.33633],[-83.90566,35.33661],[-83.90468,35.33713],[-83.90368,35.33833],[-83.90207,35.34057],[-83.90194,35.34157],[-83.90176,35.34192],[-83.90141,35.34211],[-83.89997,35.34249],[-83.8987,35.34341],[-83.89786,35.34387],[-83.89559,35.34461],[-83.89468,35.34535],[-83.8942,35.34558]]]}}
