{"type":"Feature","properties":{"id":"chileno-valley","name":"Chileno Valley Road","difficulty":2,"character":"Medium speed"},"geometry":{"type":"MultiLineString","coordinates":[[[-122.66506,38.21323],[-122.66521,38.21266],[-122.66712,38.21074],[-122.66912,38.21018],[-122.67038,38.20967],[-122.67322,38.20873],[-122.67602,38.2071],[-122.67933,38.20583],[-122.67986,38.20571],[-122.68351,38.2054],[-122.68665,38.20541],[-122.68758,38.20584],[-122.68927,38.20728],[-122.69239,38.20871],[-122.69294,38.20892],[-122.69353,38.20898],[-122.69436,38.20882],[-122.6962,38.20728],[-122.69772,38.20531],[-122.70151,38.20169],[-122.70428,38.19866],[-122.7069,38.19648],[-122.70788,38.19542],[-122.71772,38.201],[-122.72541,38.20114],[-122.73292,38.20279],[-122.73599,38.20399],[-122.73697,38.20428],[-122.73766,38.20425],[-122.74082,38.20377],[-122.74207,38.20341],[-122.74567,38.20361],[-122.74616,38.20378],[-122.75017,38.20585],[-122.75098,38.20604],[-122.7555,38.2057],[-122.76005,38.20577],[-122.76197,38.20587],[-122.76365,38.20628],[-122.76449,38.2067],[-122.76483,38.20675],[-122.7709,38.20643],[-122.77232,38.20589],[-122.77346,38.20523],[-122.77695,38.20238],[-122.77802,38.20209],[-122.77948,38.20213],[-122.78138,38.20294],[-122.78265,38.20396],[-122.784,38.20479],[-122.78436,38.20519],[-122.78498,38.20623],[-122.78622,38.20734],[-122.78893,38.2082],[-122.79192,38.20928],[-122.7986,38.21107],[-122.80688,38.21359],[-122.80792,38.21368],[-122.8136,38.21334],[-122.8138,38.21357],[-122.81561,38.21704],[-122.81724,38.2185],[-122.81938,38.22139],[-122.8195,38.22182]]]}}
