{"type":"Feature","properties":{"id":"chinook-pass","name":"Chinook Pass \u00b7 SR 410","difficulty":2,"character":"Medium speed"},"geometry":{"type":"MultiLineString","coordinates":[[[-121.98841,47.19943],[-121.98427,47.19945],[-121.96558,47.19919],[-121.95328,47.19886],[-121.95223,47.19869],[-121.95119,47.19837],[-121.94717,47.19631],[-121.94583,47.19573],[-121.94379,47.19528],[-121.9408,47.19512],[-121.93998,47.195],[-121.93848,47.19462],[-121.93735,47.19414],[-121.93602,47.19328],[-121.92734,47.18615],[-121.91966,47.17876],[-121.91929,47.1783],[-121.91839,47.17675],[-121.91755,47.17602],[-121.91643,47.17529],[-121.9157,47.17455],[-121.91198,47.16677],[-121.911,47.16579],[-121.90988,47.16517],[-121.90875,47.16479],[-121.90732,47.16458],[-121.87433,47.16172],[-121.87216,47.16143],[-121.87084,47.16108],[-121.86953,47.16047],[-121.86508,47.15723],[-121.86358,47.15647],[-121.8625,47.15611],[-121.85634,47.15454],[-121.85204,47.15295],[-121.8513,47.15276],[-121.85025,47.15265],[-121.8491,47.15271],[-121.84278,47.1543],[-121.84161,47.15503],[-121.8376,47.15828],[-121.8363,47.15885],[-121.832,47.15943],[-121.8307,47.15939],[-121.827,47.15898],[-121.82605,47.15904],[-121.82504,47.15932],[-121.82406,47.15986],[-121.81832,47.16456],[-121.81724,47.16528],[-121.81591,47.16597],[-121.80988,47.16875],[-121.80719,47.16952],[-121.80583,47.17001],[-121.80518,47.17036],[-121.80313,47.17184],[-121.80252,47.17219],[-121.79311,47.17695],[-121.79137,47.17754],[-121.79036,47.17766],[-121.78922,47.17764],[-121.78677,47.17743],[-121.7859,47.17726],[-121.77813,47.17444],[-121.76654,47.16985],[-121.76242,47.16798],[-121.76146,47.16768],[-121.75976,47.1674],[-121.75877,47.16713],[-121.7576,47.16657],[-121.75543,47.16519],[-121.75462,47.16481],[-121.75304,47.16452],[-121.74818,47.16446],[-121.74686,47.16459],[-121.74454,47.16513],[-121.74325,47.16503],[-121.74221,47.16464],[-121.73691,47.16151],[-121.73549,47.16103],[-121.73267,47.16033],[-121.72617,47.15761],[-121.72399,47.15695],[-121.71374,47.15457],[-121.71126,47.15418],[-121.70984,47.15411],[-121.70307,47.15427],[-121.69471,47.15355],[-121.68919,47.15328],[-121.68164,47.15319],[-121.68078,47.1533],[-121.67991,47.15354],[-121.66915,47.15781],[-121.66815,47.15824],[-121.66596,47.15956],[-121.66506,47.15999],[-121.66364,47.16027],[-121.66267,47.16025],[-121.66195,47.16013],[-121.65996,47.15943],[-121.65909,47.15901],[-121.65517,47.15614],[-121.62455,47.13688],[-121.61958,47.13294],[-121.61896,47.13221],[-121.6134,47.12254],[-121.61219,47.12082],[-121.61056,47.1194],[-121.59802,47.10915],[-121.59624,47.10722],[-121.59527,47.10634],[-121.59217,47.10389],[-121.59048,47.10187],[-121.5894,47.10039],[-121.58668,47.09422],[-121.586,47.09326],[-121.58418,47.09134],[-121.58352,47.0903],[-121.58324,47.08892],[-121.58245,47.07988],[-121.58218,47.07869],[-121.58128,47.077],[-121.57804,47.07318],[-121.57727,47.07197],[-121.57679,47.0702],[-121.57657,47.06665],[-121.57518,47.06112],[-121.57412,47.05922],[-121.57367,47.05811],[-121.57347,47.05694],[-121.57334,47.05476],[-121.57294,47.05397],[-121.57143,47.05224],[-121.57086,47.05121],[-121.57016,47.04903],[-121.57012,47.04622],[-121.56994,47.04548],[-121.56846,47.04212],[-121.56723,47.04012],[-121.5663,47.03912],[-121.56497,47.03799],[-121.55674,47.03142],[-121.55519,47.03038],[-121.55406,47.02991],[-121.55256,47.02955],[-121.55124,47.02942],[-121.54833,47.02936],[-121.54686,47.02901],[-121.54558,47.02845],[-121.5387,47.02501],[-121.53414,47.02263],[-121.53311,47.02179],[-121.53245,47.02101],[-121.53199,47.02014],[-121.53136,47.01842],[-121.52831,47.01402],[-121.52733,47.01215],[-121.52666,47.00896],[-121.52662,47.00812],[-121.52688,47.00721],[-121.52806,47.00511],[-121.52847,47.00405],[-121.52863,47.00309],[-121.5289,46.99896],[-121.52908,46.99804],[-121.52964,46.99667],[-121.53385,46.98856],[-121.53481,46.98635],[-121.53515,46.98518],[-121.5365,46.97693],[-121.53633,46.97574],[-121.53589,46.97462],[-121.53285,46.96939],[-121.53017,46.96537],[-121.52769,46.96261],[-121.52642,46.96098],[-121.52589,46.96015],[-121.52549,46.95909],[-121.52547,46.95869],[-121.52592,46.95711],[-121.52644,46.9562],[-121.52735,46.95537],[-121.52954,46.95384],[-121.5304,46.95266],[-121.53119,46.95109],[-121.53207,46.94796],[-121.53241,46.94645],[-121.53244,46.94473],[-121.53188,46.93926],[-121.53096,46.93607],[-121.53099,46.93142],[-121.53202,46.92658],[-121.5333,46.92442],[-121.53385,46.92219],[-121.53482,46.91969],[-121.53534,46.91768],[-121.5367,46.91117],[-121.53771,46.90828],[-121.54097,46.90398],[-121.54331,46.90135],[-121.54378,46.89988],[-121.54453,46.89833],[-121.54469,46.89698],[-121.54473,46.89492],[-121.5445,46.89417],[-121.54318,46.89021],[-121.54231,46.88864],[-121.54162,46.88785],[-121.5413,46.88548],[-121.54079,46.88433],[-121.54049,46.88226],[-121.53967,46.88092],[-121.53919,46.87982],[-121.53916,46.87892],[-121.54066,46.87569],[-121.54079,46.87516],[-121.54058,46.87446],[-121.53954,46.87355],[-121.53932,46.87312],[-121.54004,46.86976],[-121.54059,46.86838],[-121.54061,46.86781],[-121.54042,46.86736],[-121.54008,46.86698],[-121.539,46.86641],[-121.53774,46.86619],[-121.5371,46.86621],[-121.53651,46.86633],[-121.53213,46.8687],[-121.53145,46.86893],[-121.5304,46.86898],[-121.52707,46.86799],[-121.52518,46.86726],[-121.52478,46.86693],[-121.52444,46.86611],[-121.52361,46.86511],[-121.52319,46.86493],[-121.52264,46.86499],[-121.52238,46.86519],[-121.52232,46.86554],[-121.52298,46.86688],[-121.5233,46.86724],[-121.52389,46.86755],[-121.52626,46.86818],[-121.52781,46.86939],[-121.52896,46.86986],[-121.52987,46.86998],[-121.5304,46.86992],[-121.53398,46.86909],[-121.53612,46.86823],[-121.53658,46.86817],[-121.53702,46.86834],[-121.53711,46.86859],[-121.53694,46.86887],[-121.53484,46.86999],[-121.53351,46.87039],[-121.52957,46.87118],[-121.52878,46.87108],[-121.52751,46.87065],[-121.52578,46.86965],[-121.52366,46.86896],[-121.52286,46.86898],[-121.5213,46.86941],[-121.5204,46.86932],[-121.51972,46.86889],[-121.5184,46.86721],[-121.5181,46.86706],[-121.51761,46.86698],[-121.51681,46.8672],[-121.51566,46.86792],[-121.51505,46.86848],[-121.5148,46.86901],[-121.51474,46.87007],[-121.51494,46.87061],[-121.51559,46.87151],[-121.51574,46.87299],[-121.51646,46.87409],[-121.51744,46.875],[-121.51773,46.87545],[-121.51773,46.87606],[-121.51745,46.8765],[-121.51551,46.87824],[-121.51494,46.87936],[-121.51379,46.88076],[-121.51168,46.88246],[-121.50759,46.88499],[-121.50528,46.886],[-121.50215,46.88712],[-121.49954,46.88842],[-121.49796,46.88859],[-121.49659,46.88902],[-121.49553,46.88922],[-121.49385,46.88995],[-121.49257,46.89028],[-121.48619,46.89247],[-121.48174,46.89368],[-121.47968,46.89412],[-121.47562,46.89465],[-121.47401,46.89496],[-121.46954,46.89532],[-121.46266,46.89656],[-121.45876,46.89686],[-121.4534,46.89693],[-121.45219,46.89702],[-121.44767,46.89759],[-121.44318,46.89846],[-121.44128,46.89904],[-121.43815,46.90026],[-121.43675,46.90091],[-121.428,46.90559],[-121.42688,46.90604],[-121.42256,46.90727],[-121.42136,46.90771],[-121.41926,46.90867],[-121.41692,46.90995],[-121.41597,46.91024],[-121.4155,46.9103],[-121.41303,46.91025],[-121.41208,46.91043],[-121.41115,46.91102],[-121.40985,46.9121],[-121.40869,46.91341],[-121.40746,46.91388],[-121.40608,46.91398],[-121.40394,46.91354],[-121.40257,46.91342],[-121.40166,46.91352],[-121.39727,46.91443],[-121.39601,46.91459],[-121.38357,46.91493],[-121.38253,46.91502],[-121.38127,46.91523],[-121.37523,46.91666],[-121.37404,46.91705],[-121.37263,46.91773],[-121.36937,46.91969],[-121.36847,46.92046],[-121.36634,46.92477],[-121.36591,46.9252],[-121.36386,46.92658],[-121.36336,46.92703],[-121.36051,46.93137],[-121.36,46.93186],[-121.35938,46.93226],[-121.33857,46.94097],[-121.32835,46.94448],[-121.32422,46.94613],[-121.32294,46.94643],[-121.32056,46.9465],[-121.31961,46.94671],[-121.31899,46.94698],[-121.31734,46.94828],[-121.31636,46.94882],[-121.31535,46.94922],[-121.30964,46.95079],[-121.27407,46.96283],[-121.27193,46.96339],[-121.25849,46.9659],[-121.25537,46.96666],[-121.2416,46.96639],[-121.24049,46.96658],[-121.23948,46.96695],[-121.23878,46.96709],[-121.23809,46.96705],[-121.23667,46.96677],[-121.23568,46.96674],[-121.23385,46.96702],[-121.23246,46.9676],[-121.23192,46.96772],[-121.22885,46.96785],[-121.2272,46.96779],[-121.22188,46.96845],[-121.22075,46.96835],[-121.21916,46.96771],[-121.21844,46.96757],[-121.21355,46.96788],[-121.21252,46.96817],[-121.20917,46.96961],[-121.20408,46.97055],[-121.203,46.9709],[-121.20073,46.97221],[-121.19766,46.97358],[-121.19671,46.97386],[-121.19595,46.97388],[-121.19422,46.97346],[-121.19357,46.9734],[-121.19293,46.97344],[-121.18985,46.97398],[-121.18876,46.97423],[-121.1803,46.97728],[-121.1795,46.97745],[-121.1788,46.97751],[-121.17627,46.97732],[-121.1754,46.97735],[-121.17147,46.97793],[-121.16789,46.97813],[-121.16459,46.97868],[-121.16374,46.97872],[-121.15871,46.9782],[-121.1572,46.97822],[-121.1542,46.97882],[-121.14179,46.98167],[-121.13965,46.98198],[-121.1372,46.982],[-121.12983,46.98109],[-121.12841,46.98096],[-121.12762,46.98099],[-121.12635,46.98125],[-121.12518,46.98176],[-121.1244,46.9824],[-121.12329,46.98386],[-121.1226,46.98433],[-121.11711,46.98575],[-121.11646,46.986],[-121.11454,46.98705],[-121.11387,46.98716],[-121.1133,46.98712],[-121.11149,46.98645],[-121.11053,46.98639],[-121.1054,46.98756],[-121.10452,46.98764],[-121.10254,46.98756],[-121.10102,46.98787],[-121.09944,46.98796],[-121.09828,46.98835],[-121.09737,46.98905],[-121.09686,46.98931],[-121.09622,46.98949],[-121.09527,46.98948],[-121.09478,46.98935],[-121.0943,46.98909],[-121.09269,46.98756],[-121.09156,46.9864],[-121.09137,46.98557],[-121.09183,46.98476],[-121.09284,46.98391],[-121.09337,46.98332],[-121.09383,46.98243],[-121.09461,46.9773],[-121.09495,46.97153],[-121.09487,46.97093],[-121.09463,46.9704],[-121.09382,46.96964],[-121.09074,46.9682],[-121.08949,46.96736],[-121.08705,46.96494],[-121.08145,46.96077],[-121.07961,46.95895],[-121.07872,46.95836],[-121.07647,46.95715],[-121.07529,46.95627],[-121.07203,46.95295],[-121.0717,46.95247],[-121.07072,46.95027],[-121.07068,46.94767],[-121.07036,46.94693],[-121.06966,46.94605],[-121.06532,46.94316],[-121.06383,46.94194],[-121.05918,46.93659],[-121.05793,46.93484],[-121.05749,46.93441],[-121.05635,46.93373],[-121.05371,46.93264],[-121.05163,46.93113],[-121.04809,46.92898],[-121.04711,46.92816],[-121.04636,46.92719],[-121.0459,46.9257],[-121.04611,46.92476],[-121.04725,46.92331],[-121.04759,46.92242],[-121.04761,46.92184],[-121.04748,46.9213],[-121.04683,46.92029],[-121.04609,46.91972],[-121.04262,46.91778],[-121.04039,46.91591],[-121.03927,46.91518],[-121.03383,46.91258],[-121.03133,46.91165],[-121.03055,46.91126],[-121.02968,46.91051],[-121.02897,46.90945],[-121.02814,46.90866],[-121.02577,46.90749],[-121.02215,46.90548],[-121.02155,46.90506],[-121.02038,46.90385],[-121.01957,46.90332],[-121.01858,46.90293],[-121.01399,46.90152],[-121.01255,46.90082],[-121.00999,46.89923],[-121.00609,46.8975],[-121.00509,46.89697],[-121.00415,46.89632],[-121.00343,46.89565],[-121.00137,46.89302],[-120.99978,46.89201],[-120.9967,46.89038],[-120.99479,46.88946],[-120.99439,46.88934],[-120.99253,46.8891],[-120.98816,46.88889],[-120.9874,46.88861],[-120.98713,46.88834],[-120.98696,46.88792],[-120.9875,46.88643],[-120.98745,46.88605],[-120.9872,46.88557],[-120.98639,46.88496],[-120.98385,46.88403],[-120.98295,46.88352],[-120.98251,46.88297],[-120.97929,46.87723],[-120.97853,46.87657],[-120.97601,46.87484],[-120.9729,46.87205],[-120.97186,46.87139],[-120.96458,46.86938],[-120.96289,46.86862],[-120.95836,46.8663],[-120.9575,46.86571],[-120.95683,46.86499],[-120.95301,46.85949],[-120.95281,46.8583],[-120.95322,46.85567],[-120.95314,46.85453],[-120.95236,46.85303],[-120.95132,46.85148],[-120.95019,46.85012],[-120.9498,46.84943],[-120.94951,46.84854],[-120.94929,46.84626],[-120.94886,46.84528],[-120.94395,46.83993],[-120.93711,46.83047],[-120.93124,46.82376],[-120.9309,46.82319],[-120.93052,46.82181],[-120.92998,46.82103],[-120.92728,46.81904],[-120.92547,46.8171],[-120.92503,46.8163],[-120.92469,46.8145],[-120.92439,46.81393],[-120.92377,46.81324],[-120.92194,46.81169],[-120.92033,46.80936],[-120.91972,46.8088],[-120.91857,46.80812],[-120.91402,46.80604],[-120.90609,46.80154],[-120.90343,46.80018],[-120.88023,46.79454],[-120.87908,46.79413],[-120.8777,46.79347],[-120.87193,46.79045],[-120.8698,46.78895],[-120.8671,46.78664],[-120.86648,46.78568],[-120.86617,46.78404],[-120.86558,46.78265],[-120.86489,46.78165],[-120.86383,46.78058],[-120.86271,46.77975],[-120.85224,46.77308],[-120.85039,46.77222],[-120.83975,46.76868],[-120.83597,46.76778],[-120.83463,46.76738],[-120.82866,46.76497],[-120.82793,46.76459],[-120.8274,46.76392],[-120.82744,46.76319],[-120.82778,46.7627],[-120.82916,46.76154],[-120.82961,46.76072],[-120.82961,46.75984],[-120.82913,46.759],[-120.82809,46.75826],[-120.82223,46.75565],[-120.82007,46.75425],[-120.81832,46.75274],[-120.81761,46.75229],[-120.81435,46.75115],[-120.81202,46.75047],[-120.80056,46.74874],[-120.79844,46.74848],[-120.79652,46.74838],[-120.78846,46.74831]]]}}
