{"type":"Feature","properties":{"id":"chuckanut-drive","name":"Chuckanut Drive \u00b7 SR 11","difficulty":2,"character":"Technical"},"geometry":{"type":"MultiLineString","coordinates":[[[-122.49631,48.69624],[-122.49537,48.69562],[-122.49382,48.69396],[-122.49243,48.69174],[-122.4915,48.68948],[-122.49094,48.68801],[-122.48807,48.67501],[-122.48729,48.67283],[-122.48661,48.67183],[-122.48612,48.6703],[-122.48528,48.66857],[-122.48522,48.66815],[-122.48504,48.66663],[-122.48549,48.6658],[-122.48619,48.66543],[-122.48802,48.66553],[-122.4884,48.66548],[-122.4898,48.66493],[-122.49108,48.66366],[-122.49185,48.66244],[-122.49211,48.6616],[-122.49216,48.66081],[-122.49196,48.6601],[-122.49016,48.65678],[-122.49001,48.65568],[-122.49005,48.65374],[-122.49024,48.65252],[-122.49073,48.65127],[-122.49084,48.65058],[-122.49065,48.65011],[-122.48986,48.64897],[-122.48891,48.64826],[-122.48646,48.64733],[-122.48386,48.64459],[-122.48212,48.64355],[-122.48142,48.64274],[-122.48051,48.64213],[-122.48033,48.64189],[-122.48017,48.64131],[-122.47861,48.63997],[-122.47565,48.63663],[-122.47402,48.63504],[-122.47251,48.63389],[-122.47101,48.63245],[-122.46799,48.63008],[-122.4637,48.62739],[-122.4627,48.62647],[-122.46212,48.62627],[-122.46139,48.62615],[-122.45997,48.62617],[-122.45752,48.6259],[-122.45701,48.62577],[-122.45525,48.62492],[-122.45468,48.6248],[-122.45359,48.62482],[-122.45274,48.62434],[-122.45159,48.62393],[-122.45023,48.62384],[-122.44872,48.62393],[-122.4484,48.62387],[-122.44788,48.62361],[-122.44546,48.62178],[-122.44456,48.62028],[-122.44412,48.61986],[-122.44277,48.61901],[-122.44236,48.61828],[-122.44212,48.61748],[-122.44263,48.61595],[-122.44263,48.61561],[-122.44232,48.61536],[-122.44153,48.61537],[-122.44105,48.61554],[-122.44041,48.61628],[-122.4397,48.61773],[-122.43945,48.61781],[-122.43923,48.61771],[-122.43901,48.61646],[-122.4384,48.61442],[-122.43788,48.61338],[-122.43651,48.61221],[-122.43567,48.61118],[-122.43425,48.60991],[-122.43359,48.60913],[-122.43266,48.60719],[-122.43182,48.60595],[-122.43176,48.60498],[-122.43144,48.60439],[-122.43099,48.6041],[-122.42655,48.60204],[-122.42347,48.60012],[-122.4228,48.59936],[-122.422,48.59748],[-122.42173,48.59506],[-122.42193,48.59406],[-122.42196,48.59275],[-122.42221,48.56585],[-122.42194,48.56354],[-122.42151,48.56244],[-122.4209,48.56147],[-122.37596,48.51414],[-122.33938,48.48785],[-122.33869,48.48709],[-122.33847,48.48591]]]}}
