{"type":"Feature","properties":{"id":"cloverdale-road","name":"Cloverdale Road","difficulty":2,"character":"Medium speed"},"geometry":{"type":"MultiLineString","coordinates":[[[-122.37344,37.25412],[-122.37316,37.25381],[-122.37232,37.25336],[-122.3715,37.25272],[-122.36926,37.24988],[-122.36844,37.24856],[-122.36715,37.24421],[-122.36632,37.2426],[-122.3662,37.24207],[-122.36624,37.24164],[-122.36639,37.24131],[-122.36764,37.23991],[-122.3679,37.23938],[-122.36786,37.23851],[-122.36711,37.23704],[-122.36675,37.23659],[-122.36629,37.23623],[-122.36268,37.2345],[-122.36146,37.23377],[-122.35854,37.23154],[-122.35816,37.23111],[-122.35798,37.23057],[-122.35786,37.22914],[-122.35677,37.22709],[-122.35485,37.22185],[-122.35429,37.22101],[-122.35043,37.21739],[-122.34996,37.21685],[-122.34975,37.21618],[-122.3494,37.21231],[-122.34999,37.20978],[-122.34999,37.2092],[-122.34983,37.20862],[-122.34721,37.20312],[-122.34668,37.20255],[-122.3446,37.20118],[-122.3442,37.20069],[-122.34407,37.20021],[-122.3441,37.19971],[-122.34436,37.19923],[-122.34498,37.19862],[-122.3463,37.19811],[-122.34641,37.19802],[-122.34641,37.19775],[-122.34431,37.19442],[-122.34307,37.19352],[-122.34225,37.19249],[-122.34198,37.19236],[-122.34136,37.19227],[-122.34115,37.19209],[-122.34088,37.19135],[-122.34098,37.1907],[-122.34084,37.19011],[-122.34026,37.18883],[-122.33971,37.1882],[-122.33955,37.18778],[-122.34,37.18688],[-122.3401,37.18639]]]}}
