{"type":"Feature","properties":{"id":"columbia-river-gorge-wa","name":"Columbia River Gorge \u00b7 SR 14","difficulty":1,"character":"Medium speed"},"geometry":{"type":"MultiLineString","coordinates":[[[-122.35616,45.57686],[-122.3557,45.57658],[-122.35421,45.57609],[-122.35237,45.5756],[-122.35084,45.57532],[-122.33869,45.57454],[-122.33786,45.5744],[-122.33739,45.57443],[-122.33699,45.57426],[-122.33533,45.57421],[-122.31272,45.57098],[-122.31097,45.57087],[-122.30884,45.57088],[-122.30048,45.57159],[-122.29952,45.57161],[-122.298,45.57142],[-122.29676,45.57112],[-122.29564,45.57072],[-122.29197,45.56919],[-122.28263,45.56631],[-122.281,45.5659],[-122.2777,45.56526],[-122.27364,45.5637],[-122.26762,45.56179],[-122.26317,45.56066],[-122.25924,45.55988],[-122.25398,45.5597],[-122.24979,45.5598],[-122.24846,45.55947],[-122.24762,45.55944],[-122.24652,45.55972],[-122.24503,45.55982],[-122.24263,45.56018],[-122.24084,45.55991],[-122.23908,45.56032],[-122.23735,45.5604],[-122.23394,45.5612],[-122.23312,45.56125],[-122.23176,45.56105],[-122.22906,45.56161],[-122.22827,45.562],[-122.2271,45.56301],[-122.22604,45.56345],[-122.22139,45.5642],[-122.22035,45.56453],[-122.21965,45.56496],[-122.21887,45.56589],[-122.21838,45.56618],[-122.21772,45.56622],[-122.21663,45.56594],[-122.21586,45.56586],[-122.21352,45.56612],[-122.2128,45.56633],[-122.21171,45.56686],[-122.20993,45.56829],[-122.2095,45.56851],[-122.20854,45.56879],[-122.20466,45.56957],[-122.20202,45.56957],[-122.20131,45.56982],[-122.20084,45.57018],[-122.20055,45.57082],[-122.20067,45.57143],[-122.20111,45.57217],[-122.20109,45.57244],[-122.20088,45.57274],[-122.20008,45.57307],[-122.19756,45.57337],[-122.19643,45.57361],[-122.19573,45.57395],[-122.19519,45.57457],[-122.19483,45.57567],[-122.19493,45.57685],[-122.19442,45.57997],[-122.19448,45.58076],[-122.19482,45.58147],[-122.19483,45.58182],[-122.19461,45.58258],[-122.19429,45.58309],[-122.19315,45.58424],[-122.19249,45.58475],[-122.19174,45.58516],[-122.19004,45.58567],[-122.18801,45.58745],[-122.18732,45.58774],[-122.18584,45.5879],[-122.18394,45.58852],[-122.18179,45.58886],[-122.17584,45.58875],[-122.17113,45.58857],[-122.16744,45.58822],[-122.1665,45.5882],[-122.16591,45.58827],[-122.16353,45.58886],[-122.15855,45.58967],[-122.15778,45.58996],[-122.15602,45.59088],[-122.15463,45.59127],[-122.1522,45.59166],[-122.14761,45.59204],[-122.14634,45.59188],[-122.14515,45.59145],[-122.14442,45.5913],[-122.14327,45.59128],[-122.14141,45.5915],[-122.13993,45.59198],[-122.1301,45.5964],[-122.12819,45.59719],[-122.12618,45.59788],[-122.12555,45.59799],[-122.12493,45.59796],[-122.12338,45.59742],[-122.123,45.59736],[-122.12072,45.59748],[-122.11956,45.59781],[-122.11182,45.6012],[-122.10987,45.60201],[-122.10867,45.60236],[-122.10665,45.60269],[-122.10371,45.60252],[-122.10131,45.6028],[-122.0988,45.60267],[-122.09814,45.60288],[-122.096,45.60405],[-122.09106,45.60573],[-122.087,45.60675],[-122.08589,45.60683],[-122.08374,45.60669],[-122.07876,45.60703],[-122.0703,45.60855],[-122.06648,45.60952],[-122.06304,45.60986],[-122.06025,45.61076],[-122.05502,45.61321],[-122.04982,45.61526],[-122.04057,45.61744],[-122.03826,45.61819],[-122.03725,45.61837],[-122.03533,45.61892],[-122.03212,45.6195],[-122.03127,45.61994],[-122.03003,45.6212],[-122.02956,45.6215],[-122.02882,45.62179],[-122.0266,45.62233],[-122.02552,45.62298],[-122.025,45.62357],[-122.02478,45.62403],[-122.02448,45.62659],[-122.02396,45.62756],[-122.02226,45.62864],[-122.01846,45.63028],[-122.01645,45.63191],[-122.01555,45.63219],[-122.01472,45.63223],[-122.01362,45.63198],[-122.01164,45.63104],[-122.01082,45.6308],[-122.0096,45.63073],[-122.0086,45.63096],[-122.00667,45.63194],[-122.00389,45.63438],[-122.00285,45.63507],[-122.00199,45.63542],[-121.99967,45.63605],[-121.99328,45.63872],[-121.9888,45.64078],[-121.98793,45.64109],[-121.9864,45.64135],[-121.98474,45.64133],[-121.98403,45.64122],[-121.98124,45.64046],[-121.97972,45.64031],[-121.97137,45.64098],[-121.96934,45.64134],[-121.96754,45.64191],[-121.94443,45.65142],[-121.94244,45.65197],[-121.94017,45.65208],[-121.93879,45.6519],[-121.93754,45.65158],[-121.93623,45.65102],[-121.93222,45.64875],[-121.93078,45.64827],[-121.93004,45.64817],[-121.92896,45.64818],[-121.92841,45.64826],[-121.92752,45.64855],[-121.92644,45.64909],[-121.92308,45.65159],[-121.92163,45.65254],[-121.92098,45.65283],[-121.92021,45.65308],[-121.91907,45.65331],[-121.91496,45.65374],[-121.9135,45.65425],[-121.90933,45.6572],[-121.90817,45.65819],[-121.90675,45.65995],[-121.90526,45.66303],[-121.90504,45.66387],[-121.90516,45.66457],[-121.90537,45.66499],[-121.90785,45.66827],[-121.90923,45.66975],[-121.90955,45.67033],[-121.90979,45.67303],[-121.90979,45.67462],[-121.90945,45.67596],[-121.90897,45.67697],[-121.90826,45.67796],[-121.90731,45.67892],[-121.90564,45.68012],[-121.89104,45.68808],[-121.88979,45.68911],[-121.88698,45.69183]]]}}
