{"type":"Feature","properties":{"id":"corral-canyon","name":"Corral Canyon Road","difficulty":3,"character":"Technical"},"geometry":{"type":"MultiLineString","coordinates":[[[-118.74327,34.03313],[-118.74343,34.03336],[-118.7444,34.03376],[-118.74472,34.03402],[-118.74478,34.03443],[-118.7445,34.03493],[-118.7442,34.03486],[-118.74349,34.03431],[-118.74269,34.03414],[-118.74229,34.03419],[-118.74189,34.03395],[-118.74139,34.03398],[-118.73977,34.03452],[-118.73897,34.03523],[-118.73729,34.03557],[-118.7363,34.0359],[-118.73616,34.03603],[-118.73628,34.0363],[-118.73683,34.0364],[-118.73699,34.03651],[-118.73732,34.03707],[-118.73811,34.03764],[-118.73842,34.03775],[-118.73916,34.03775],[-118.73951,34.03784],[-118.74053,34.03852],[-118.74075,34.03885],[-118.74054,34.03962],[-118.74062,34.04054],[-118.73975,34.04115],[-118.73932,34.0418],[-118.73925,34.04217],[-118.73887,34.04245],[-118.73899,34.04255],[-118.73964,34.04225],[-118.73982,34.04249],[-118.73972,34.04294],[-118.73941,34.04342],[-118.73958,34.04437],[-118.7394,34.04462],[-118.73896,34.04492],[-118.73873,34.04535],[-118.73933,34.04715],[-118.73961,34.04832],[-118.73945,34.04994],[-118.73924,34.05058],[-118.73943,34.05243],[-118.73975,34.05297],[-118.73971,34.05339],[-118.74009,34.05414],[-118.74043,34.05448],[-118.74049,34.05485],[-118.74076,34.05516],[-118.7406,34.05589],[-118.74088,34.05644],[-118.7409,34.05709],[-118.74114,34.05746],[-118.74087,34.05829],[-118.74092,34.05903],[-118.74057,34.05946],[-118.74039,34.05997],[-118.7411,34.06007],[-118.74188,34.06035],[-118.74324,34.06065],[-118.74489,34.06049],[-118.74583,34.06138],[-118.74646,34.06218],[-118.74768,34.06303],[-118.74835,34.06335],[-118.74943,34.06343],[-118.74984,34.06378],[-118.75079,34.06402],[-118.75083,34.06421],[-118.75054,34.06494],[-118.75062,34.06515],[-118.75086,34.06521],[-118.75147,34.06496],[-118.75167,34.06498],[-118.75205,34.06551],[-118.75256,34.06551],[-118.75283,34.06591],[-118.75336,34.06594],[-118.7545,34.06657],[-118.75473,34.06651],[-118.7551,34.06598],[-118.75538,34.06603],[-118.75539,34.06622],[-118.75503,34.06662],[-118.75483,34.06677],[-118.75449,34.06683],[-118.75437,34.06719],[-118.75324,34.06804],[-118.75335,34.06822],[-118.75387,34.06847],[-118.75379,34.06917],[-118.75423,34.06991],[-118.75392,34.07063],[-118.75393,34.07086],[-118.75429,34.07139],[-118.75466,34.07163],[-118.75474,34.07189],[-118.75465,34.07216],[-118.75348,34.07269],[-118.75336,34.07298],[-118.75351,34.07343],[-118.75399,34.07383],[-118.75422,34.07446],[-118.75478,34.07469],[-118.75547,34.07531],[-118.75501,34.07568],[-118.75495,34.07652],[-118.75439,34.07702],[-118.7553,34.07826],[-118.75563,34.07921],[-118.75562,34.0795],[-118.75516,34.07988],[-118.75517,34.0801],[-118.75554,34.08032],[-118.75601,34.08032],[-118.75624,34.0807],[-118.75665,34.08058],[-118.75701,34.08069],[-118.75709,34.08107],[-118.7575,34.08133]]]}}
