{"type":"Feature","properties":{"id":"couser-canyon","name":"Couser Canyon Road","difficulty":3,"character":"Technical"},"geometry":{"type":"MultiLineString","coordinates":[[[-117.0853,33.29844],[-117.08569,33.29881],[-117.08654,33.30003],[-117.08675,33.30071],[-117.08731,33.3011],[-117.08788,33.30129],[-117.08924,33.30218],[-117.08969,33.30262],[-117.09179,33.3057],[-117.09197,33.30732],[-117.0921,33.30756],[-117.09299,33.30825],[-117.09397,33.30837],[-117.09445,33.30856],[-117.09486,33.30899],[-117.09528,33.30896],[-117.09562,33.30918],[-117.09601,33.31041],[-117.09619,33.31062],[-117.09657,33.31083],[-117.09682,33.31148],[-117.09726,33.31177],[-117.09792,33.3127],[-117.09829,33.31295],[-117.09858,33.31356],[-117.09851,33.31423],[-117.09925,33.3152],[-117.09932,33.31569],[-117.09977,33.316],[-117.09981,33.31655],[-117.10038,33.31712],[-117.10076,33.31777],[-117.10172,33.31875],[-117.10251,33.32094],[-117.10318,33.32163],[-117.10398,33.32377],[-117.10474,33.32452],[-117.10568,33.32494],[-117.10631,33.32538],[-117.10696,33.32528],[-117.10729,33.32533],[-117.1081,33.32633],[-117.10946,33.32694],[-117.10991,33.32692],[-117.11082,33.32667],[-117.11141,33.32693],[-117.11162,33.32692],[-117.11193,33.32657],[-117.11193,33.32613],[-117.11221,33.32603],[-117.11279,33.32648],[-117.11301,33.32646],[-117.11339,33.32619],[-117.11389,33.32642],[-117.1144,33.3265],[-117.11535,33.32694],[-117.11583,33.32687],[-117.11626,33.32724],[-117.11674,33.32722],[-117.11712,33.32744],[-117.11746,33.3275],[-117.11798,33.32796],[-117.11816,33.32797],[-117.11858,33.32778],[-117.1188,33.3278],[-117.11894,33.32792],[-117.119,33.32841],[-117.11938,33.32863],[-117.11965,33.32892],[-117.12026,33.32909],[-117.12036,33.3295],[-117.12051,33.32968],[-117.12108,33.32992],[-117.12154,33.32999],[-117.12188,33.33023],[-117.12225,33.33029],[-117.12244,33.33021],[-117.12302,33.32952],[-117.12352,33.32948],[-117.12383,33.32957],[-117.12432,33.3299],[-117.12493,33.33057],[-117.12504,33.33101],[-117.12492,33.33167],[-117.12517,33.3323],[-117.12574,33.33265],[-117.12671,33.33374],[-117.12695,33.3338],[-117.12768,33.33375],[-117.12866,33.33411],[-117.12966,33.33376],[-117.12991,33.33376],[-117.13067,33.33441],[-117.13124,33.33472],[-117.13132,33.33815],[-117.13123,33.34338],[-117.13131,33.34362]]]}}
