{"type":"Feature","properties":{"id":"cullasaja-gorge","name":"Cullasaja Gorge \u00b7 US 64","difficulty":2,"character":"Technical"},"geometry":{"type":"MultiLineString","coordinates":[[[-83.19657,35.05366],[-83.19712,35.05263],[-83.20417,35.05514],[-83.20453,35.05541],[-83.20524,35.05627],[-83.2055,35.05753],[-83.20574,35.05781],[-83.20697,35.0585],[-83.20866,35.0585],[-83.20916,35.05878],[-83.20927,35.05905],[-83.20962,35.06168],[-83.20972,35.06187],[-83.21003,35.06205],[-83.21113,35.06235],[-83.21201,35.06214],[-83.21306,35.0629],[-83.21375,35.06309],[-83.21425,35.06301],[-83.21575,35.06225],[-83.21723,35.06166],[-83.21787,35.06161],[-83.21862,35.06184],[-83.21914,35.0622],[-83.21948,35.06267],[-83.21988,35.06441],[-83.22003,35.06472],[-83.22264,35.0665],[-83.22377,35.06757],[-83.22421,35.06776],[-83.22629,35.06806],[-83.22771,35.06808],[-83.22813,35.06829],[-83.22872,35.06954],[-83.2292,35.07098],[-83.22915,35.07214],[-83.22934,35.07248],[-83.22956,35.0726],[-83.2301,35.07258],[-83.23083,35.07242],[-83.23141,35.07262],[-83.23165,35.07261],[-83.23225,35.07243],[-83.2329,35.072],[-83.23371,35.07196],[-83.23382,35.07185],[-83.23378,35.07147],[-83.234,35.07081],[-83.23424,35.07061],[-83.23484,35.07063],[-83.23513,35.07051],[-83.23527,35.06985],[-83.23577,35.06954],[-83.23593,35.0691],[-83.23688,35.0682],[-83.23723,35.06758],[-83.23763,35.06723],[-83.23804,35.06723],[-83.23822,35.06741],[-83.23828,35.06856],[-83.23807,35.06934],[-83.23815,35.06984],[-83.23809,35.07047],[-83.23836,35.0715],[-83.23878,35.07222],[-83.23889,35.07299],[-83.23938,35.0738],[-83.23984,35.07384],[-83.24147,35.07338],[-83.24194,35.07343],[-83.24233,35.07372],[-83.24331,35.07505],[-83.24394,35.07545],[-83.24535,35.07591],[-83.24623,35.07611],[-83.24769,35.07686],[-83.24989,35.07696],[-83.25037,35.07751],[-83.25095,35.0777],[-83.25153,35.07759],[-83.25223,35.07724],[-83.2525,35.07737],[-83.25341,35.07816],[-83.25376,35.0782],[-83.25453,35.07805],[-83.25478,35.07811],[-83.25494,35.07825],[-83.25495,35.07844],[-83.25459,35.07904],[-83.25458,35.07972],[-83.25467,35.07994],[-83.25488,35.08004],[-83.25607,35.07986],[-83.25696,35.07908],[-83.25753,35.07908],[-83.25779,35.07933],[-83.25775,35.0801],[-83.25996,35.0828],[-83.26034,35.08291],[-83.26132,35.08264],[-83.26211,35.08253],[-83.26234,35.08238],[-83.26269,35.08187],[-83.2632,35.08183],[-83.26334,35.08191],[-83.26386,35.08272],[-83.26438,35.08305],[-83.26465,35.08333],[-83.26489,35.08391],[-83.2653,35.08452],[-83.26612,35.0848],[-83.26703,35.0853],[-83.26746,35.08536],[-83.26789,35.08565],[-83.26876,35.08593],[-83.26881,35.08628],[-83.26856,35.0868],[-83.26811,35.08731],[-83.26786,35.08807],[-83.26801,35.08961],[-83.26763,35.09105],[-83.26776,35.09157],[-83.26773,35.09189],[-83.26755,35.09214],[-83.26686,35.09265],[-83.26666,35.09271],[-83.26605,35.09262],[-83.26564,35.09276],[-83.26499,35.09416],[-83.26356,35.09552],[-83.26332,35.09637],[-83.26265,35.09781],[-83.26261,35.0991],[-83.26293,35.09982],[-83.26337,35.10197],[-83.2636,35.1024],[-83.26399,35.10268],[-83.26465,35.10287],[-83.26508,35.10291],[-83.26609,35.10282],[-83.26879,35.10351],[-83.26955,35.10398],[-83.26994,35.10466],[-83.26975,35.10506],[-83.26915,35.10536],[-83.26895,35.10557],[-83.26825,35.10712],[-83.26794,35.1092],[-83.26772,35.10995],[-83.26681,35.1105],[-83.26504,35.11231],[-83.26478,35.11269],[-83.26479,35.11316],[-83.26643,35.11482],[-83.26802,35.11578],[-83.2687,35.11592],[-83.26907,35.1165],[-83.26944,35.1168],[-83.26979,35.11745],[-83.26999,35.11759],[-83.27043,35.11768],[-83.27086,35.1176],[-83.27129,35.1178],[-83.27158,35.11782],[-83.27293,35.11736],[-83.27395,35.11718],[-83.27567,35.11795],[-83.27665,35.11881],[-83.27744,35.11908],[-83.27821,35.12039],[-83.27847,35.12104],[-83.27843,35.12185],[-83.27853,35.12275],[-83.27896,35.12373],[-83.27923,35.12397],[-83.28027,35.12409],[-83.28084,35.1249],[-83.28076,35.12513],[-83.2802,35.12551],[-83.27994,35.12599],[-83.27994,35.1263],[-83.28013,35.12643],[-83.28037,35.12642],[-83.28081,35.12605],[-83.28143,35.1259],[-83.28168,35.12594],[-83.28182,35.12609],[-83.28185,35.12632],[-83.28106,35.12808],[-83.2813,35.12904],[-83.28106,35.12964],[-83.28138,35.13103],[-83.28126,35.13328],[-83.28103,35.13481],[-83.28102,35.1353],[-83.28124,35.1361],[-83.28167,35.13684],[-83.28222,35.13738],[-83.28475,35.13889],[-83.28576,35.13965],[-83.28704,35.14122],[-83.28774,35.14184],[-83.2882,35.14212],[-83.28904,35.14243],[-83.28966,35.14256],[-83.29082,35.14258],[-83.29327,35.1423],[-83.29591,35.14183],[-83.2971,35.14181],[-83.2979,35.14197],[-83.3035,35.14414],[-83.3058,35.14519],[-83.31377,35.15057],[-83.31503,35.15186],[-83.31537,35.15248],[-83.31554,35.15344]]]}}
