{"type":"Feature","properties":{"id":"cuyamaca-79","name":"Highway 79 \u00b7 Cuyamaca","difficulty":2,"character":"Medium speed"},"geometry":{"type":"MultiLineString","coordinates":[[[-116.61301,32.84117],[-116.61242,32.84162],[-116.61176,32.84186],[-116.61115,32.84192],[-116.60972,32.8417],[-116.60892,32.84174],[-116.60288,32.8432],[-116.60199,32.84356],[-116.60124,32.84416],[-116.59906,32.84781],[-116.59449,32.85248],[-116.59499,32.85295],[-116.59523,32.85333],[-116.59543,32.85426],[-116.59529,32.85482],[-116.59456,32.85567],[-116.59438,32.85607],[-116.59431,32.85682],[-116.5945,32.85846],[-116.59435,32.85945],[-116.5931,32.86237],[-116.59239,32.86316],[-116.59206,32.86369],[-116.592,32.86409],[-116.59213,32.86494],[-116.59209,32.86531],[-116.59166,32.86611],[-116.59142,32.86686],[-116.58963,32.87032],[-116.58917,32.87209],[-116.58914,32.87288],[-116.58901,32.87327],[-116.58819,32.87454],[-116.58781,32.87549],[-116.58754,32.87569],[-116.58696,32.8758],[-116.58672,32.87593],[-116.58623,32.87659],[-116.58581,32.87685],[-116.58544,32.87728],[-116.58522,32.8778],[-116.58451,32.87843],[-116.5845,32.87871],[-116.58486,32.87986],[-116.58478,32.88035],[-116.58454,32.88053],[-116.58425,32.88054],[-116.58353,32.88018],[-116.58293,32.87965],[-116.58261,32.87961],[-116.58216,32.87972],[-116.58048,32.88099],[-116.57985,32.8816],[-116.57768,32.88277],[-116.5764,32.88303],[-116.57598,32.88319],[-116.57524,32.884],[-116.57485,32.88473],[-116.57484,32.88527],[-116.5757,32.88739],[-116.57601,32.88919],[-116.57646,32.89068],[-116.5775,32.89245],[-116.57857,32.89402],[-116.57918,32.89625],[-116.57945,32.89676],[-116.58018,32.89762],[-116.58046,32.8982],[-116.58065,32.89916],[-116.58062,32.90057],[-116.58047,32.90124],[-116.58004,32.90219],[-116.58078,32.90428],[-116.58064,32.90517],[-116.58046,32.90561],[-116.57957,32.90676],[-116.57929,32.90749],[-116.57874,32.90815],[-116.57748,32.90885],[-116.57557,32.90918],[-116.57486,32.90971],[-116.57459,32.91016],[-116.57322,32.91346],[-116.57295,32.91383],[-116.57185,32.91484],[-116.57154,32.9153],[-116.57146,32.91567],[-116.57158,32.91694],[-116.57123,32.91786],[-116.56417,32.92494],[-116.56368,32.92625],[-116.56348,32.92777],[-116.56267,32.93086],[-116.56272,32.93187],[-116.56261,32.93468],[-116.56357,32.93779],[-116.56399,32.93847],[-116.56461,32.93912],[-116.56576,32.93997],[-116.56693,32.94165],[-116.56734,32.9427],[-116.56835,32.94352],[-116.56992,32.9454],[-116.57059,32.94597],[-116.57142,32.94735],[-116.57201,32.94782],[-116.57241,32.94833],[-116.57271,32.94847],[-116.57334,32.94841],[-116.57446,32.94764],[-116.57519,32.9475],[-116.57571,32.9476],[-116.57631,32.94794],[-116.57712,32.94808],[-116.57813,32.94806],[-116.5783,32.94814],[-116.57828,32.94837],[-116.5776,32.94911],[-116.57731,32.94978],[-116.57659,32.95054],[-116.57638,32.95135],[-116.57696,32.95214],[-116.57683,32.95256],[-116.57688,32.95273],[-116.57792,32.95326],[-116.57787,32.9534],[-116.57746,32.95356],[-116.5772,32.95383],[-116.57709,32.95426],[-116.57715,32.95459],[-116.57739,32.95499],[-116.57822,32.9555],[-116.57826,32.95575],[-116.57805,32.9564],[-116.5781,32.95671],[-116.57846,32.95725],[-116.57901,32.9576],[-116.57912,32.95778],[-116.57907,32.95868],[-116.57929,32.96171],[-116.57983,32.96401],[-116.57967,32.96458],[-116.58019,32.96602],[-116.5801,32.96659],[-116.58022,32.96754],[-116.58011,32.96803],[-116.57979,32.96849],[-116.57932,32.96872],[-116.57836,32.96883],[-116.57732,32.96971],[-116.5771,32.97078],[-116.57727,32.97205],[-116.57691,32.97311],[-116.57689,32.97346],[-116.57718,32.97424],[-116.57783,32.9749],[-116.57837,32.97602],[-116.57868,32.97639],[-116.57932,32.97656],[-116.58152,32.97652],[-116.58187,32.97672],[-116.58189,32.9771],[-116.58096,32.97904],[-116.58115,32.98058],[-116.58078,32.98163],[-116.58098,32.98222],[-116.58175,32.98326],[-116.58223,32.98496],[-116.58241,32.98527],[-116.58332,32.9862],[-116.58371,32.98694],[-116.58436,32.9876],[-116.58479,32.98783],[-116.58577,32.988],[-116.58698,32.98858],[-116.58834,32.98985],[-116.5885,32.99056],[-116.58832,32.99108],[-116.58804,32.99142],[-116.58754,32.99172],[-116.58694,32.99184],[-116.58106,32.99112],[-116.57964,32.99063],[-116.57938,32.99066],[-116.57866,32.99111],[-116.57831,32.99117],[-116.57786,32.99113],[-116.57691,32.99077],[-116.57646,32.99073],[-116.57608,32.99088],[-116.57541,32.99142],[-116.57437,32.99169],[-116.57354,32.99252],[-116.57241,32.99291],[-116.5717,32.99404],[-116.56671,32.99903],[-116.56568,33.0014],[-116.56451,33.00237],[-116.56372,33.00783],[-116.56351,33.00821],[-116.56121,33.01092],[-116.56111,33.01156],[-116.56119,33.01246],[-116.56169,33.01426],[-116.56246,33.01553],[-116.56255,33.01592],[-116.56234,33.01724],[-116.56128,33.0187],[-116.56114,33.02013],[-116.56117,33.0221],[-116.56208,33.02496],[-116.56232,33.02627],[-116.56287,33.02724],[-116.5629,33.02753],[-116.56253,33.02861],[-116.5626,33.02889],[-116.56309,33.02969],[-116.56315,33.03019],[-116.56311,33.03055],[-116.56296,33.03079],[-116.56207,33.03124],[-116.56159,33.03162],[-116.56146,33.03195],[-116.56146,33.03244],[-116.56161,33.03278],[-116.56214,33.03347],[-116.56275,33.03382],[-116.56301,33.03407],[-116.56342,33.03495],[-116.56334,33.03533],[-116.56264,33.03563],[-116.56218,33.0364],[-116.56236,33.03671],[-116.56324,33.03732],[-116.56337,33.03832],[-116.5643,33.03887],[-116.56485,33.03881],[-116.56566,33.03858],[-116.56603,33.03862],[-116.56709,33.03915],[-116.5679,33.0399],[-116.56786,33.04023],[-116.56709,33.04078],[-116.56688,33.04171],[-116.56663,33.04211],[-116.5662,33.04241],[-116.56595,33.04294],[-116.56595,33.04311],[-116.56623,33.04366],[-116.56631,33.04444],[-116.56648,33.04484],[-116.56664,33.04506],[-116.56721,33.04542],[-116.56761,33.04633],[-116.56793,33.04656],[-116.5688,33.04691],[-116.56921,33.04727],[-116.56941,33.04765],[-116.56976,33.04904],[-116.57006,33.04949],[-116.57222,33.05094],[-116.573,33.05166],[-116.57472,33.05444],[-116.57603,33.05634],[-116.57803,33.05866],[-116.57879,33.06061],[-116.57909,33.06115],[-116.58324,33.06544],[-116.58399,33.06606],[-116.58495,33.06671],[-116.59765,33.0739],[-116.59815,33.07441],[-116.59846,33.07498],[-116.59861,33.07552],[-116.59865,33.07643]]]}}
