{"type":"Feature","properties":{"id":"dead-indian-memorial-road","name":"Dead Indian Memorial Road \u00b7 CR 722","difficulty":2,"character":"Medium speed"},"geometry":{"type":"MultiLineString","coordinates":[[[-122.65559,42.18255],[-122.65463,42.18304],[-122.65445,42.18338],[-122.6544,42.1899],[-122.6545,42.1912],[-122.65408,42.19151],[-122.65241,42.19175],[-122.65178,42.19209],[-122.65149,42.19245],[-122.65129,42.19326],[-122.65106,42.19364],[-122.64734,42.1975],[-122.64682,42.19767],[-122.64499,42.19796],[-122.64215,42.19882],[-122.64055,42.199],[-122.63824,42.19954],[-122.63749,42.19981],[-122.6353,42.20097],[-122.63387,42.20288],[-122.6334,42.20387],[-122.632,42.20519],[-122.62972,42.20687],[-122.62882,42.20782],[-122.62783,42.20849],[-122.62581,42.20954],[-122.62509,42.21004],[-122.62372,42.21124],[-122.6231,42.21164],[-122.61786,42.21391],[-122.61667,42.21556],[-122.61423,42.21658],[-122.61392,42.21692],[-122.61279,42.21901],[-122.60915,42.22173],[-122.60863,42.22186],[-122.60719,42.22182],[-122.60683,42.22192],[-122.6066,42.22209],[-122.6065,42.22258],[-122.60672,42.22302],[-122.60672,42.22331],[-122.60609,42.22404],[-122.60543,42.22423],[-122.60455,42.22485],[-122.60411,42.22531],[-122.60381,42.22533],[-122.60356,42.22511],[-122.60361,42.22476],[-122.60387,42.22436],[-122.60455,42.22375],[-122.60469,42.22338],[-122.6046,42.22288],[-122.60437,42.22257],[-122.60376,42.22224],[-122.60299,42.22225],[-122.60247,42.2224],[-122.60117,42.22333],[-122.60048,42.22346],[-122.59963,42.22344],[-122.59909,42.2236],[-122.59861,42.22387],[-122.59693,42.22561],[-122.59624,42.22607],[-122.59243,42.22811],[-122.59187,42.22817],[-122.58949,42.22787],[-122.58887,42.22796],[-122.58683,42.22861],[-122.58623,42.22905],[-122.58571,42.22974],[-122.58477,42.23157],[-122.58435,42.23199],[-122.58395,42.23211],[-122.58345,42.23209],[-122.58073,42.2316],[-122.57893,42.23178],[-122.57634,42.2327],[-122.57426,42.23383],[-122.57388,42.23432],[-122.57346,42.23559],[-122.57235,42.23774],[-122.57205,42.23803],[-122.57143,42.23827],[-122.57005,42.23857],[-122.5695,42.23883],[-122.56858,42.24047],[-122.56849,42.24128],[-122.56823,42.24155],[-122.56777,42.24157],[-122.56752,42.2413],[-122.56736,42.23939],[-122.56707,42.2392],[-122.56665,42.23918],[-122.56588,42.23935],[-122.56567,42.23952],[-122.5656,42.23984],[-122.56573,42.24061],[-122.56542,42.24104],[-122.56496,42.24116],[-122.56411,42.24088],[-122.56366,42.2409],[-122.5629,42.24149],[-122.56121,42.24225],[-122.56087,42.24279],[-122.56078,42.24387],[-122.5606,42.24409],[-122.56027,42.24424],[-122.55974,42.24427],[-122.55893,42.24396],[-122.55741,42.24378],[-122.5561,42.24351],[-122.5546,42.2436],[-122.55308,42.24308],[-122.55237,42.24299],[-122.55041,42.2433],[-122.54991,42.24347],[-122.54963,42.24369],[-122.5493,42.24425],[-122.54848,42.24523],[-122.54812,42.24544],[-122.54771,42.24546],[-122.54644,42.24509],[-122.54299,42.24497],[-122.54204,42.24466],[-122.54055,42.24353],[-122.53866,42.24311],[-122.53634,42.24233],[-122.53493,42.24144],[-122.53455,42.24038],[-122.53387,42.23964],[-122.53209,42.23882],[-122.53017,42.23755],[-122.52881,42.23698],[-122.52783,42.23605],[-122.52591,42.2353],[-122.52554,42.23529],[-122.52539,42.23542],[-122.52544,42.23562],[-122.52634,42.23608],[-122.52681,42.23647],[-122.52711,42.23746],[-122.52703,42.23908],[-122.52684,42.23933],[-122.52598,42.23979],[-122.52594,42.24012],[-122.52656,42.24074],[-122.52802,42.24122],[-122.52909,42.2417],[-122.52932,42.24205],[-122.52918,42.24247],[-122.5287,42.24271],[-122.52423,42.24328],[-122.52356,42.24323],[-122.52162,42.2428],[-122.52056,42.24243],[-122.52018,42.24209],[-122.51998,42.24159],[-122.52021,42.2405],[-122.52062,42.23995],[-122.52134,42.2395],[-122.52166,42.23918],[-122.52187,42.23872],[-122.52185,42.23826],[-122.52158,42.23784],[-122.52108,42.2375],[-122.51897,42.23681],[-122.5181,42.23682],[-122.51743,42.237],[-122.51702,42.23722],[-122.51607,42.23807],[-122.51564,42.23833],[-122.51352,42.23933],[-122.51158,42.24006],[-122.51113,42.24047],[-122.51094,42.24095],[-122.51098,42.24143],[-122.51157,42.24282],[-122.5116,42.24319],[-122.51143,42.24367],[-122.51099,42.24424],[-122.51082,42.24463],[-122.51081,42.24611],[-122.51054,42.24661],[-122.50956,42.24754],[-122.5093,42.24822],[-122.5092,42.25002],[-122.50923,42.25309],[-122.50889,42.25354],[-122.50776,42.2544],[-122.50678,42.25586],[-122.50579,42.25697],[-122.50336,42.25895],[-122.50274,42.25928],[-122.50162,42.25951],[-122.49906,42.25945],[-122.49773,42.25923],[-122.49623,42.25864],[-122.49407,42.25713],[-122.4928,42.2564],[-122.48737,42.25403],[-122.48617,42.2538],[-122.48413,42.25394],[-122.4834,42.25385],[-122.48173,42.25299],[-122.48013,42.25241],[-122.47871,42.25165],[-122.47787,42.25139],[-122.47281,42.25087],[-122.47183,42.25087],[-122.47092,42.25111],[-122.47015,42.25161],[-122.46886,42.2534],[-122.46603,42.2546],[-122.4655,42.25493],[-122.46502,42.25558],[-122.46469,42.25755],[-122.4645,42.25802],[-122.46421,42.25845],[-122.46373,42.25879],[-122.4585,42.26214],[-122.44934,42.26592],[-122.42217,42.27604],[-122.42176,42.27625],[-122.41489,42.2814],[-122.41374,42.28206],[-122.40887,42.28418],[-122.40826,42.28438],[-122.40701,42.28432],[-122.40355,42.28311],[-122.40315,42.28304],[-122.40226,42.28309],[-122.38903,42.28886],[-122.38795,42.28894],[-122.38723,42.28878],[-122.37483,42.28531],[-122.37406,42.28516],[-122.37333,42.28514],[-122.37234,42.28529],[-122.37175,42.28549],[-122.36065,42.29046],[-122.35992,42.29061],[-122.35903,42.29064],[-122.35402,42.28999],[-122.35312,42.28966],[-122.35111,42.2886],[-122.34752,42.28733],[-122.34565,42.28686],[-122.3448,42.28676],[-122.34364,42.28678],[-122.3416,42.28715],[-122.33611,42.28911],[-122.3352,42.28934],[-122.33096,42.28964],[-122.32788,42.28946],[-122.32723,42.28959],[-122.3239,42.29074],[-122.32297,42.29095],[-122.31434,42.29138],[-122.31172,42.29166],[-122.29061,42.29568],[-122.28976,42.2957],[-122.28902,42.29559],[-122.28809,42.2952],[-122.28738,42.2948],[-122.28468,42.29276],[-122.28369,42.29231],[-122.28253,42.29202],[-122.28179,42.29194],[-122.28007,42.29206],[-122.26796,42.29398],[-122.26591,42.29445],[-122.25675,42.29782],[-122.25201,42.29916],[-122.25061,42.29972],[-122.24872,42.30085],[-122.22899,42.31807],[-122.22811,42.31864],[-122.22568,42.31934],[-122.22484,42.31981],[-122.21877,42.32552],[-122.21818,42.32654],[-122.21783,42.32903],[-122.21786,42.33034],[-122.21732,42.33206],[-122.21708,42.33327],[-122.21713,42.33429],[-122.21829,42.33795],[-122.21857,42.33945],[-122.2182,42.34007],[-122.21758,42.34055],[-122.2172,42.34067],[-122.21427,42.34107],[-122.21229,42.3415],[-122.21164,42.34175],[-122.21046,42.34194],[-122.20874,42.34283],[-122.20812,42.34346],[-122.20815,42.34406],[-122.20894,42.3458],[-122.20895,42.3471],[-122.20849,42.34844],[-122.20767,42.34959],[-122.20669,42.35061],[-122.20569,42.3514],[-122.20418,42.35315],[-122.20383,42.35387],[-122.20292,42.36038],[-122.20216,42.36284],[-122.20186,42.36471],[-122.20146,42.36863],[-122.20279,42.37061],[-122.20296,42.37113],[-122.20277,42.37214],[-122.20146,42.3743],[-122.20153,42.37482],[-122.20273,42.37671],[-122.20289,42.37724],[-122.20287,42.37789],[-122.20264,42.3785],[-122.20144,42.37966],[-122.2012,42.38007],[-122.20099,42.38047],[-122.20057,42.38203],[-122.19977,42.38328],[-122.19864,42.38473],[-122.19749,42.38579],[-122.19661,42.38693],[-122.19595,42.38815],[-122.19589,42.38899],[-122.19619,42.38987],[-122.19591,42.39046],[-122.19379,42.39185],[-122.19326,42.39254],[-122.19226,42.39458],[-122.19239,42.39525],[-122.19231,42.39557],[-122.19137,42.39628],[-122.1912,42.3966],[-122.19093,42.39751],[-122.19094,42.39817]]]}}
