{"type":"Feature","properties":{"id":"decker-canyon","name":"Decker Road \u00b7 SR 23","difficulty":3,"character":"Technical"},"geometry":{"type":"MultiLineString","coordinates":[[[-118.89441,34.04147],[-118.8945,34.04176],[-118.89523,34.04189],[-118.89601,34.04235],[-118.89658,34.04331],[-118.89669,34.04406],[-118.89692,34.04469],[-118.8978,34.04573],[-118.89767,34.04648],[-118.89789,34.04721],[-118.89749,34.04768],[-118.89742,34.04801],[-118.89755,34.04848],[-118.89781,34.04883],[-118.89762,34.04882],[-118.89734,34.04856],[-118.89696,34.04785],[-118.89682,34.04783],[-118.89679,34.04794],[-118.89714,34.04887],[-118.8974,34.04921],[-118.89761,34.05008],[-118.89823,34.0508],[-118.89914,34.05132],[-118.89934,34.05171],[-118.89928,34.05214],[-118.8991,34.0524],[-118.89827,34.05276],[-118.89813,34.05302],[-118.8978,34.0532],[-118.89807,34.0539],[-118.89852,34.05418],[-118.89859,34.05448],[-118.89793,34.0551],[-118.89672,34.05542],[-118.89619,34.05598],[-118.89632,34.05616],[-118.89673,34.05621],[-118.89737,34.0567],[-118.89741,34.05698],[-118.8969,34.05799],[-118.89707,34.05806],[-118.89746,34.05788],[-118.89757,34.05799],[-118.89723,34.05882],[-118.8973,34.0596],[-118.89696,34.06119],[-118.89703,34.06199],[-118.8968,34.06337],[-118.89641,34.0638],[-118.89603,34.06463],[-118.89582,34.06548],[-118.89526,34.066],[-118.8953,34.06643],[-118.89506,34.06677],[-118.89493,34.06722],[-118.89453,34.06747],[-118.89427,34.06821],[-118.8939,34.06848],[-118.89322,34.06864],[-118.89325,34.06879],[-118.89383,34.06947],[-118.89375,34.06975],[-118.89244,34.07019],[-118.89179,34.07013],[-118.89073,34.07045],[-118.89064,34.07073],[-118.8911,34.07121],[-118.89115,34.07138],[-118.89086,34.07201],[-118.89072,34.07213],[-118.89052,34.07221],[-118.88937,34.07227],[-118.88886,34.07222],[-118.88871,34.07241],[-118.88879,34.07274],[-118.88867,34.07283],[-118.88803,34.07257],[-118.8878,34.07258],[-118.88759,34.07297],[-118.88692,34.07293],[-118.88592,34.07331],[-118.88546,34.0737],[-118.88466,34.07392],[-118.88423,34.07452],[-118.88279,34.07493],[-118.88237,34.07513],[-118.88186,34.07569],[-118.88136,34.07679],[-118.88051,34.07731],[-118.87975,34.07764],[-118.8788,34.07842],[-118.87866,34.07868],[-118.87894,34.07955],[-118.87891,34.07973],[-118.87829,34.08024],[-118.87792,34.08087],[-118.87803,34.08143],[-118.87794,34.08222],[-118.87821,34.08322],[-118.87816,34.08351],[-118.87777,34.08387],[-118.87738,34.08478],[-118.87681,34.08538],[-118.87619,34.08628],[-118.8759,34.08648],[-118.87495,34.08679],[-118.87471,34.08698],[-118.87388,34.08813],[-118.87341,34.08857]]]}}
