{"type":"Feature","properties":{"id":"deer-creek-canyon-road","name":"Deer Creek Canyon Road","difficulty":2,"character":"Medium speed"},"geometry":{"type":"MultiLineString","coordinates":[[[-105.08702,39.54945],[-105.0889,39.55],[-105.09016,39.55065],[-105.09086,39.55125],[-105.09281,39.55335],[-105.09344,39.55383],[-105.09431,39.55412],[-105.09843,39.55501],[-105.10035,39.55523],[-105.10249,39.55516],[-105.10555,39.55462],[-105.10696,39.55452],[-105.10955,39.55362],[-105.11057,39.55347],[-105.11278,39.55373],[-105.11417,39.55405],[-105.11728,39.55433],[-105.11965,39.55483],[-105.12024,39.55482],[-105.12163,39.55445],[-105.12178,39.55415],[-105.12202,39.55395],[-105.12317,39.55339],[-105.12417,39.55262],[-105.12494,39.55226],[-105.12795,39.55194],[-105.12953,39.55146],[-105.13071,39.55076],[-105.13125,39.54995],[-105.13155,39.5497],[-105.13329,39.54913],[-105.13378,39.54909],[-105.1343,39.54925],[-105.13516,39.55004],[-105.13581,39.55033],[-105.14075,39.55125],[-105.14142,39.55125],[-105.14314,39.5508],[-105.1446,39.55067],[-105.14554,39.55041],[-105.14646,39.54999],[-105.1479,39.54964],[-105.14909,39.54912],[-105.15066,39.54892],[-105.15184,39.54823],[-105.15287,39.54782],[-105.15658,39.54706],[-105.1601,39.5461],[-105.1604,39.54578],[-105.16028,39.54506],[-105.16061,39.54457],[-105.16091,39.5437],[-105.16117,39.54348],[-105.16207,39.54318],[-105.16254,39.54318],[-105.16299,39.54365],[-105.16339,39.54379],[-105.16502,39.54365],[-105.16591,39.54398],[-105.16666,39.54387],[-105.1675,39.54409],[-105.16849,39.54388],[-105.16955,39.54398],[-105.16984,39.54385],[-105.16998,39.54368],[-105.16998,39.54296],[-105.17014,39.54261],[-105.17049,39.5425],[-105.17136,39.5425],[-105.17173,39.54231],[-105.17179,39.54194],[-105.17155,39.54101],[-105.17167,39.54072],[-105.17206,39.54049],[-105.17238,39.54045],[-105.17353,39.54064],[-105.17506,39.54057],[-105.17702,39.54064],[-105.17871,39.54047],[-105.17962,39.54077],[-105.17992,39.54077],[-105.1803,39.54059],[-105.18073,39.53981],[-105.18167,39.53928],[-105.18221,39.5391],[-105.18339,39.53901],[-105.18589,39.53835],[-105.18668,39.53753],[-105.1886,39.53653],[-105.18947,39.5364],[-105.19058,39.53692],[-105.19149,39.53667],[-105.19182,39.53681],[-105.192,39.53704],[-105.19194,39.53718],[-105.19147,39.53751],[-105.19118,39.53796],[-105.19113,39.53832],[-105.19126,39.53853],[-105.19164,39.53865],[-105.19219,39.53829],[-105.19268,39.53826],[-105.19374,39.5388],[-105.19459,39.5391],[-105.19552,39.5398],[-105.1958,39.54039],[-105.19637,39.54086],[-105.19676,39.54141],[-105.19751,39.54185],[-105.19758,39.54205],[-105.19731,39.54275],[-105.19767,39.54369],[-105.19764,39.54424],[-105.19796,39.54548],[-105.19844,39.5461],[-105.19982,39.54715],[-105.20065,39.54825],[-105.20123,39.5488],[-105.20171,39.54974],[-105.20255,39.55047],[-105.2033,39.55146],[-105.20549,39.55352],[-105.20641,39.55535],[-105.20764,39.55657],[-105.20848,39.55785],[-105.20934,39.55862],[-105.20996,39.55938],[-105.21113,39.56111],[-105.2115,39.56236],[-105.21224,39.56412],[-105.21284,39.56515],[-105.21305,39.56588],[-105.21446,39.56773],[-105.21495,39.56905],[-105.21615,39.57076],[-105.21674,39.57241],[-105.21689,39.57259],[-105.21729,39.57276]]]}}
