{"type":"Feature","properties":{"id":"deer-creek","name":"Deer Creek Road","difficulty":3,"character":"Technical"},"geometry":{"type":"MultiLineString","coordinates":[[[-118.98552,34.06218],[-118.98511,34.06266],[-118.98482,34.06335],[-118.98483,34.06358],[-118.98524,34.06426],[-118.98639,34.06554],[-118.98706,34.06683],[-118.98719,34.06685],[-118.98726,34.06675],[-118.98709,34.06556],[-118.98718,34.06516],[-118.98747,34.06497],[-118.98796,34.065],[-118.98976,34.06588],[-118.99041,34.06636],[-118.99096,34.06734],[-118.99079,34.06812],[-118.99094,34.0684],[-118.99155,34.06864],[-118.99252,34.06926],[-118.99422,34.06947],[-118.99441,34.06961],[-118.99403,34.07011],[-118.99336,34.07038],[-118.99237,34.07154],[-118.99234,34.07176],[-118.99257,34.07251],[-118.99206,34.07318],[-118.99194,34.07361],[-118.99219,34.07456],[-118.99221,34.07527],[-118.9917,34.07559],[-118.99097,34.07635],[-118.99088,34.07722],[-118.99016,34.07858],[-118.99014,34.07913],[-118.98997,34.07967],[-118.98971,34.08001],[-118.9892,34.08019],[-118.9887,34.08061],[-118.98861,34.08094],[-118.98802,34.08182],[-118.98778,34.08245],[-118.9869,34.08397],[-118.98672,34.08467],[-118.98727,34.08533],[-118.98721,34.08625],[-118.9874,34.08649],[-118.9882,34.08677],[-118.98841,34.08718],[-118.98738,34.08785],[-118.98667,34.088]]]}}
