{"type":"Feature","properties":{"id":"del-puerto-canyon","name":"Del Puerto Canyon Road","difficulty":3,"character":"Technical"},"geometry":{"type":"MultiLineString","coordinates":[[[-121.49039,37.39175],[-121.48949,37.39152],[-121.48852,37.39087],[-121.487,37.39051],[-121.48633,37.39047],[-121.48523,37.39096],[-121.48469,37.39099],[-121.48387,37.3907],[-121.48277,37.38983],[-121.48234,37.38961],[-121.48184,37.38958],[-121.48069,37.38987],[-121.48006,37.38992],[-121.47975,37.38983],[-121.47889,37.38933],[-121.47848,37.38923],[-121.47808,37.38925],[-121.47773,37.38941],[-121.47666,37.39012],[-121.4761,37.3908],[-121.47567,37.39098],[-121.47046,37.39048],[-121.46904,37.39],[-121.46861,37.38971],[-121.46545,37.3858],[-121.46357,37.38486],[-121.46208,37.38396],[-121.46111,37.38379],[-121.45787,37.38384],[-121.45709,37.38423],[-121.45613,37.38503],[-121.45507,37.3855],[-121.45364,37.38634],[-121.45331,37.38667],[-121.45315,37.38736],[-121.45299,37.38758],[-121.45276,37.38773],[-121.45206,37.38787],[-121.4518,37.38802],[-121.45124,37.38901],[-121.45065,37.38944],[-121.45064,37.38962],[-121.45091,37.39017],[-121.45054,37.39057],[-121.45043,37.39143],[-121.44984,37.39219],[-121.44971,37.3928],[-121.4492,37.39394],[-121.44921,37.39461],[-121.44864,37.39527],[-121.4479,37.39562],[-121.44752,37.39628],[-121.44634,37.39645],[-121.44601,37.39667],[-121.44543,37.39773],[-121.44533,37.39828],[-121.44445,37.39949],[-121.44387,37.39971],[-121.44288,37.40046],[-121.44191,37.40084],[-121.4411,37.40086],[-121.44055,37.40104],[-121.43929,37.40171],[-121.43814,37.40186],[-121.43783,37.40213],[-121.4377,37.40262],[-121.437,37.40339],[-121.43668,37.404],[-121.43604,37.4044],[-121.43486,37.40468],[-121.43448,37.4049],[-121.43344,37.40526],[-121.43208,37.40505],[-121.43151,37.40484],[-121.43134,37.40487],[-121.43084,37.40589],[-121.43077,37.40656],[-121.43033,37.40692],[-121.42985,37.40756],[-121.42857,37.40994],[-121.42805,37.41036],[-121.42766,37.41041],[-121.42668,37.41025],[-121.4245,37.41026],[-121.42292,37.40999],[-121.42179,37.40964],[-121.42088,37.40961],[-121.41889,37.40973],[-121.41852,37.40964],[-121.41765,37.40907],[-121.41635,37.40877],[-121.4149,37.4089],[-121.41369,37.40884],[-121.41298,37.40896],[-121.41166,37.40846],[-121.41043,37.40859],[-121.40956,37.40858],[-121.40842,37.4096],[-121.4076,37.40993],[-121.40695,37.41119],[-121.40563,37.41226],[-121.40532,37.41235],[-121.40458,37.41221],[-121.40429,37.41225],[-121.4039,37.41252],[-121.40382,37.41308],[-121.40362,37.41332],[-121.4028,37.41344],[-121.40128,37.41341],[-121.39926,37.41484],[-121.3987,37.41504],[-121.39784,37.41509],[-121.39762,37.41518],[-121.397,37.41581],[-121.39607,37.41628],[-121.39542,37.41763],[-121.39498,37.41809],[-121.39459,37.41822],[-121.39257,37.41854],[-121.39165,37.41904],[-121.39098,37.41967],[-121.38946,37.42053],[-121.38613,37.42125],[-121.38469,37.42169],[-121.38317,37.42237],[-121.38248,37.42257],[-121.37977,37.42267],[-121.37888,37.42256],[-121.37629,37.42104],[-121.37508,37.42067],[-121.37414,37.42068],[-121.37276,37.42086],[-121.37223,37.42108],[-121.37168,37.42148],[-121.37131,37.42192],[-121.37047,37.42348],[-121.37009,37.42367],[-121.36928,37.42367],[-121.36686,37.42276],[-121.3663,37.42275],[-121.36529,37.42294],[-121.36454,37.42276],[-121.36286,37.42206],[-121.36081,37.42082],[-121.35981,37.42035],[-121.35808,37.41926],[-121.35696,37.41876],[-121.35654,37.41869],[-121.35486,37.41908],[-121.35314,37.42007],[-121.35263,37.42046],[-121.35166,37.42094],[-121.35103,37.42114],[-121.35041,37.42108],[-121.34915,37.42051],[-121.34823,37.42034],[-121.34448,37.42057],[-121.34387,37.42089],[-121.34343,37.42135],[-121.34294,37.42264],[-121.34274,37.4239],[-121.34153,37.42599],[-121.34086,37.4265],[-121.33911,37.42823],[-121.33686,37.42906],[-121.3365,37.4293],[-121.33642,37.4296],[-121.33647,37.43008],[-121.33696,37.43091],[-121.33682,37.43189],[-121.33701,37.43273],[-121.33605,37.43382],[-121.33604,37.43414],[-121.33632,37.4347],[-121.33588,37.43551],[-121.33576,37.43718],[-121.33586,37.43761],[-121.33617,37.43819],[-121.33598,37.43848],[-121.33543,37.43897],[-121.33408,37.43922],[-121.33308,37.43916],[-121.33292,37.43898],[-121.33285,37.43837],[-121.33217,37.43789],[-121.33162,37.43774],[-121.33086,37.43789],[-121.3296,37.43763],[-121.3294,37.43747],[-121.32874,37.43632],[-121.32854,37.43618],[-121.32774,37.43595],[-121.32722,37.43584],[-121.32619,37.43589],[-121.32566,37.43606],[-121.32503,37.43643],[-121.32479,37.43635],[-121.32412,37.43582],[-121.32349,37.43562],[-121.32307,37.43562],[-121.32226,37.43583],[-121.32177,37.43623],[-121.32163,37.43656],[-121.32148,37.4376],[-121.32127,37.43786],[-121.32098,37.438],[-121.32051,37.4381],[-121.32007,37.43808],[-121.31917,37.43788],[-121.31778,37.43731],[-121.31726,37.43726],[-121.31694,37.43737],[-121.31664,37.43789],[-121.3163,37.43905],[-121.31597,37.43927],[-121.3152,37.43944],[-121.31474,37.43977],[-121.31455,37.44011],[-121.31431,37.44125],[-121.31334,37.4422],[-121.31305,37.44209],[-121.31267,37.44163],[-121.31206,37.44117],[-121.31163,37.44055],[-121.31069,37.43978],[-121.31012,37.43985],[-121.30951,37.44041],[-121.30892,37.44071],[-121.3078,37.44091],[-121.30695,37.44052],[-121.30579,37.43932],[-121.30549,37.43917],[-121.30513,37.43914],[-121.30464,37.43935],[-121.30411,37.44026],[-121.30365,37.44058],[-121.30321,37.44063],[-121.30252,37.44051],[-121.30216,37.44058],[-121.29584,37.44328],[-121.29343,37.44402],[-121.29202,37.44411],[-121.29043,37.44374],[-121.28861,37.44428],[-121.28811,37.4442],[-121.28683,37.4437],[-121.2857,37.44375],[-121.28535,37.44393],[-121.2845,37.44471],[-121.28363,37.44507],[-121.28242,37.44629],[-121.28225,37.44676],[-121.28228,37.44722],[-121.2825,37.44775],[-121.28297,37.44836],[-121.28313,37.44882],[-121.28321,37.4512],[-121.28277,37.45163],[-121.28181,37.45186],[-121.28153,37.45215],[-121.28122,37.45289],[-121.28092,37.4531],[-121.28017,37.45336],[-121.27976,37.45338],[-121.27924,37.45325],[-121.27851,37.45283],[-121.27795,37.45268],[-121.27681,37.45255],[-121.27537,37.45288],[-121.27489,37.45281],[-121.274,37.4525],[-121.27277,37.45264],[-121.27087,37.45354],[-121.26617,37.45358],[-121.26441,37.4529],[-121.26332,37.45232],[-121.26141,37.4509],[-121.26003,37.44932],[-121.25929,37.44879],[-121.25873,37.44859],[-121.25575,37.44802],[-121.25514,37.44802],[-121.2547,37.44828],[-121.25466,37.44848],[-121.25475,37.44861],[-121.25561,37.44903],[-121.25687,37.44942],[-121.25714,37.44975],[-121.25715,37.45013],[-121.25586,37.45215],[-121.25532,37.4536],[-121.25337,37.45537],[-121.25289,37.45599],[-121.25272,37.45643],[-121.25314,37.45709],[-121.25366,37.45755],[-121.25521,37.45799],[-121.25559,37.45851],[-121.25561,37.45894],[-121.25516,37.45941],[-121.25379,37.45985],[-121.25325,37.46018],[-121.25302,37.46071],[-121.2533,37.46123],[-121.25323,37.46144],[-121.25194,37.4616],[-121.25167,37.4618],[-121.25161,37.46206],[-121.25171,37.46287],[-121.25201,37.46341],[-121.25314,37.46463],[-121.25424,37.4652],[-121.2543,37.46534],[-121.25421,37.46553],[-121.25352,37.46613],[-121.25298,37.46615],[-121.25219,37.4658],[-121.25061,37.46475],[-121.2501,37.46465],[-121.2488,37.4652],[-121.24736,37.46565],[-121.24662,37.46633],[-121.24628,37.46653],[-121.24467,37.46678],[-121.24439,37.46698],[-121.24411,37.46756],[-121.2442,37.46899],[-121.24408,37.46937],[-121.24359,37.46989],[-121.24244,37.47045],[-121.24168,37.47122],[-121.24067,37.47198],[-121.24055,37.47233],[-121.24071,37.47313],[-121.24053,37.47334],[-121.23966,37.4735],[-121.23897,37.47377],[-121.23828,37.47433],[-121.23804,37.4743],[-121.23661,37.47364],[-121.23622,37.47359],[-121.23568,37.47368],[-121.23496,37.47409],[-121.23421,37.47503],[-121.23376,37.47523],[-121.23303,37.4754],[-121.23205,37.47533],[-121.23043,37.47503],[-121.22944,37.47509],[-121.22777,37.47584],[-121.22588,37.47762],[-121.22461,37.47754],[-121.22344,37.47706],[-121.22184,37.47691],[-121.22121,37.47701],[-121.21969,37.47753],[-121.21766,37.47802],[-121.21701,37.47804],[-121.21541,37.47788],[-121.21447,37.47816],[-121.21403,37.47839],[-121.21302,37.47923],[-121.21256,37.47977],[-121.21223,37.47997],[-121.21144,37.48012],[-121.21075,37.47999],[-121.21019,37.47968],[-121.20913,37.47854],[-121.2073,37.47714],[-121.20341,37.47434],[-121.20176,37.47346],[-121.20019,37.47192],[-121.19707,37.47058],[-121.19456,37.46906],[-121.19419,37.46867],[-121.19372,37.46774],[-121.19186,37.46601],[-121.19114,37.46501],[-121.19072,37.46462],[-121.18981,37.46423],[-121.188,37.46398],[-121.18426,37.46319],[-121.18382,37.46298],[-121.18357,37.46266]]]}}
