{"type":"Feature","properties":{"id":"devils-whip","name":"Devil's Whip \u00b7 NC 80","difficulty":3,"character":"Technical"},"geometry":{"type":"MultiLineString","coordinates":[[[-82.16472,35.77073],[-82.16443,35.77053],[-82.16431,35.77024],[-82.16439,35.76991],[-82.16482,35.76933],[-82.16496,35.76875],[-82.16495,35.76815],[-82.16467,35.76757],[-82.16477,35.76741],[-82.16549,35.76725],[-82.16576,35.76711],[-82.16616,35.76661],[-82.16618,35.76625],[-82.16603,35.76621],[-82.16581,35.76665],[-82.16541,35.76693],[-82.16467,35.76687],[-82.16351,35.76694],[-82.16334,35.76703],[-82.16334,35.76728],[-82.16374,35.76773],[-82.16381,35.76858],[-82.16366,35.76885],[-82.16295,35.76923],[-82.16278,35.76915],[-82.16277,35.76899],[-82.16345,35.76874],[-82.16352,35.7686],[-82.16343,35.76834],[-82.1631,35.7678],[-82.16198,35.76714],[-82.16187,35.76694],[-82.16196,35.76677],[-82.16269,35.7662],[-82.16374,35.76586],[-82.16379,35.76575],[-82.16369,35.76564],[-82.16261,35.76587],[-82.16153,35.76628],[-82.16101,35.76687],[-82.161,35.76706],[-82.16127,35.7676],[-82.16113,35.76775],[-82.16038,35.76773],[-82.15986,35.76723],[-82.1591,35.76705],[-82.15912,35.76686],[-82.15953,35.76631],[-82.15945,35.76586],[-82.15809,35.76438],[-82.15742,35.76401],[-82.15745,35.76383],[-82.15797,35.76348],[-82.15804,35.76325],[-82.15727,35.76209],[-82.15644,35.76146],[-82.15649,35.76103],[-82.15671,35.76059],[-82.15631,35.76019],[-82.15621,35.7594],[-82.15592,35.75915],[-82.1553,35.75894],[-82.15499,35.7587],[-82.15496,35.75846],[-82.15525,35.75785],[-82.1551,35.75755],[-82.15455,35.75716],[-82.15398,35.75705],[-82.15374,35.75673],[-82.15368,35.75651],[-82.1538,35.75619],[-82.15374,35.75589],[-82.15386,35.75562],[-82.15389,35.75462],[-82.15376,35.75446],[-82.15328,35.75436],[-82.15315,35.75418],[-82.1531,35.75359],[-82.15323,35.75319],[-82.1527,35.75287],[-82.15276,35.75233],[-82.15246,35.75192],[-82.15254,35.75116],[-82.15242,35.7509],[-82.15221,35.75074],[-82.15192,35.75072],[-82.15086,35.75133],[-82.15029,35.75151],[-82.14961,35.75197],[-82.14897,35.7528],[-82.14825,35.7535],[-82.14804,35.7535],[-82.14793,35.75341],[-82.14801,35.75284],[-82.14871,35.75077],[-82.15051,35.74873],[-82.15052,35.74772],[-82.15011,35.74636],[-82.15002,35.74554],[-82.14909,35.74445],[-82.14775,35.74367],[-82.14706,35.74303],[-82.14665,35.74247],[-82.14633,35.74168],[-82.1455,35.74069],[-82.14503,35.73992],[-82.14375,35.73905],[-82.14298,35.73888],[-82.14248,35.73865],[-82.14212,35.73801],[-82.14193,35.73794],[-82.13793,35.73785],[-82.13729,35.73774],[-82.13578,35.73721],[-82.13539,35.73717],[-82.13504,35.73726],[-82.13483,35.73747],[-82.13504,35.73812],[-82.13492,35.73832],[-82.13445,35.73856],[-82.13381,35.73856],[-82.13315,35.7383],[-82.13252,35.73791],[-82.13016,35.73577],[-82.12977,35.73558],[-82.12825,35.7358],[-82.1243,35.73772],[-82.12235,35.7381],[-82.12162,35.73816],[-82.12127,35.738],[-82.1208,35.7375],[-82.12074,35.73724],[-82.12083,35.73657],[-82.12065,35.73629],[-82.12042,35.73624],[-82.11966,35.73646],[-82.11907,35.73643],[-82.11759,35.73507],[-82.11729,35.73511],[-82.11679,35.73549],[-82.11628,35.73551],[-82.11551,35.73463],[-82.11384,35.73396],[-82.11324,35.73321],[-82.11199,35.73293],[-82.11159,35.73253],[-82.11133,35.73248],[-82.11026,35.73278],[-82.10926,35.73346],[-82.10883,35.73358],[-82.10714,35.73312],[-82.10654,35.73263],[-82.10624,35.73249],[-82.10591,35.7326],[-82.10547,35.73304],[-82.10508,35.73311],[-82.10362,35.73301],[-82.10272,35.73262],[-82.10212,35.73255],[-82.10192,35.73271],[-82.10193,35.73298],[-82.103,35.73439],[-82.10301,35.73476],[-82.10282,35.73498],[-82.10241,35.73515],[-82.10103,35.73499],[-82.09881,35.73389],[-82.09704,35.73315],[-82.09685,35.7329],[-82.09647,35.73181],[-82.0961,35.73141],[-82.09572,35.73125],[-82.09424,35.73098],[-82.09395,35.73083],[-82.09332,35.72908],[-82.09289,35.72848],[-82.09256,35.72821],[-82.09187,35.72793],[-82.09098,35.72815],[-82.09034,35.72787],[-82.09005,35.7274],[-82.09,35.72708],[-82.09015,35.72413],[-82.08998,35.72374],[-82.08959,35.72337],[-82.08902,35.7232],[-82.08695,35.7229],[-82.08617,35.72302],[-82.08554,35.72347],[-82.08443,35.72324],[-82.0842,35.72307],[-82.08397,35.7223],[-82.08287,35.72151],[-82.08304,35.72087],[-82.08294,35.72068],[-82.08276,35.7206],[-82.08251,35.72061],[-82.08221,35.72082],[-82.08132,35.72217],[-82.0806,35.72277],[-82.08025,35.72279],[-82.07998,35.72265],[-82.07908,35.72136],[-82.07829,35.721],[-82.07779,35.72043],[-82.07771,35.72006],[-82.07776,35.71922],[-82.07765,35.71878],[-82.0774,35.71841],[-82.07692,35.718],[-82.07616,35.71764],[-82.07182,35.71675],[-82.07129,35.71651],[-82.07111,35.7163],[-82.07096,35.7159],[-82.07091,35.71345],[-82.06938,35.70459],[-82.0693,35.70368],[-82.06788,35.6978],[-82.06746,35.69725],[-82.06192,35.6921]]]}}
