{"type":"Feature","properties":{"id":"diablo","name":"Mount Diablo roads","difficulty":3,"character":"Technical"},"geometry":{"type":"MultiLineString","coordinates":[[[-121.98997,37.89925],[-121.98835,37.89837],[-121.98821,37.89822],[-121.9882,37.89795],[-121.98877,37.89732],[-121.98885,37.89696],[-121.98872,37.89643],[-121.9881,37.89575],[-121.98814,37.89502],[-121.98797,37.89463],[-121.98686,37.89362],[-121.98591,37.89301],[-121.98571,37.8928],[-121.98565,37.89244],[-121.98547,37.89214],[-121.98419,37.89177],[-121.98172,37.88981],[-121.98061,37.88858],[-121.9801,37.88754],[-121.97909,37.88666],[-121.97848,37.88579],[-121.97653,37.88458],[-121.97545,37.8836],[-121.9746,37.88312],[-121.97375,37.88305],[-121.97306,37.88339],[-121.97258,37.88345],[-121.97247,37.88335],[-121.97265,37.88295],[-121.97258,37.88279],[-121.97238,37.88271],[-121.97146,37.88272],[-121.97087,37.88188],[-121.97024,37.88195],[-121.9687,37.88189],[-121.96852,37.88174],[-121.96846,37.88126],[-121.96822,37.88113],[-121.96715,37.88102],[-121.96622,37.8812],[-121.96609,37.88105],[-121.96616,37.88049],[-121.96604,37.88028],[-121.96575,37.88018],[-121.96525,37.88029],[-121.96503,37.88024],[-121.96488,37.87947],[-121.96434,37.87927],[-121.96368,37.87929],[-121.96346,37.87886],[-121.96303,37.87845],[-121.96153,37.87776],[-121.96125,37.87681],[-121.9615,37.87673],[-121.96179,37.87691],[-121.96205,37.87695],[-121.96233,37.87688],[-121.96252,37.87669],[-121.96258,37.8761],[-121.96296,37.87541],[-121.96293,37.87513],[-121.96264,37.87481],[-121.96119,37.87434],[-121.96027,37.8738],[-121.96013,37.87344],[-121.95982,37.87322],[-121.95932,37.87313],[-121.95868,37.87321],[-121.95807,37.87297],[-121.95778,37.87262],[-121.95659,37.87268],[-121.95601,37.87243],[-121.9555,37.87251],[-121.9548,37.87244],[-121.95427,37.87265],[-121.95373,37.87311],[-121.95351,37.87318],[-121.95323,37.87315],[-121.95304,37.87284],[-121.9528,37.87276],[-121.9515,37.87292],[-121.95073,37.87339],[-121.95043,37.87331],[-121.95028,37.87305],[-121.95005,37.87293],[-121.94915,37.87304],[-121.9491,37.8729],[-121.94929,37.87255],[-121.9498,37.87231],[-121.95005,37.87192],[-121.95054,37.87166],[-121.95064,37.87125],[-121.9504,37.87089],[-121.94969,37.87032],[-121.94914,37.8702],[-121.94904,37.86966],[-121.94892,37.86951],[-121.94854,37.8696],[-121.9481,37.86996],[-121.94785,37.87],[-121.94766,37.86994],[-121.94738,37.86964],[-121.94665,37.86946],[-121.9465,37.8693],[-121.94648,37.86891],[-121.94633,37.86862],[-121.94593,37.86833],[-121.94519,37.8674],[-121.94478,37.86725],[-121.94461,37.86663],[-121.94405,37.86619],[-121.94379,37.86579],[-121.94292,37.86621],[-121.94334,37.86704],[-121.94271,37.86751],[-121.94266,37.86765],[-121.94282,37.8678],[-121.94337,37.86795],[-121.94389,37.86847],[-121.94402,37.8687],[-121.94405,37.86951],[-121.94377,37.86949],[-121.94302,37.86877],[-121.94224,37.86873],[-121.94091,37.86839],[-121.94071,37.86845],[-121.94065,37.86868],[-121.94107,37.86899],[-121.94109,37.86949],[-121.94092,37.86957],[-121.93995,37.86948],[-121.93973,37.86958],[-121.93978,37.86971],[-121.94009,37.86991],[-121.94019,37.87013],[-121.94067,37.87013],[-121.94083,37.87022],[-121.94122,37.8707],[-121.94248,37.87154],[-121.94276,37.87185],[-121.94275,37.87204],[-121.94254,37.87207],[-121.94216,37.8717],[-121.94154,37.87148],[-121.94071,37.87134],[-121.9401,37.87141],[-121.93915,37.87112],[-121.93791,37.87097],[-121.93691,37.87042],[-121.93629,37.87033],[-121.93536,37.86978],[-121.93545,37.86898],[-121.93529,37.86776],[-121.93514,37.86757],[-121.93379,37.86726],[-121.93288,37.86735],[-121.93253,37.86699],[-121.93179,37.86667],[-121.93151,37.86619],[-121.9311,37.86596],[-121.93119,37.86527],[-121.93036,37.86499],[-121.93007,37.86459],[-121.93007,37.86425],[-121.93067,37.86374],[-121.93086,37.86332],[-121.93079,37.86278],[-121.93057,37.86254],[-121.93026,37.86259],[-121.92965,37.86291],[-121.92926,37.86319],[-121.92904,37.8635],[-121.92879,37.8636],[-121.9284,37.86356],[-121.92786,37.86306],[-121.9277,37.86302],[-121.92747,37.86326],[-121.92741,37.86354],[-121.92726,37.86364],[-121.92618,37.86357],[-121.9256,37.86335],[-121.92517,37.86338],[-121.92505,37.8635],[-121.92512,37.86372],[-121.92578,37.86417],[-121.9261,37.86468],[-121.92665,37.86516],[-121.92665,37.86532],[-121.92613,37.8658],[-121.92601,37.86609],[-121.92583,37.86617],[-121.92536,37.86608],[-121.92495,37.86572],[-121.92466,37.86563],[-121.92353,37.86557],[-121.92325,37.86564],[-121.92314,37.86586],[-121.92334,37.86623],[-121.92449,37.86731],[-121.92464,37.86791],[-121.92485,37.86827],[-121.92484,37.86861],[-121.92523,37.86923],[-121.9251,37.86974],[-121.92515,37.86997],[-121.92568,37.87067],[-121.92561,37.87131],[-121.92579,37.87145],[-121.92628,37.87152],[-121.92696,37.87137],[-121.92711,37.87145],[-121.92689,37.87183],[-121.92605,37.87226],[-121.92566,37.87258],[-121.92539,37.87294],[-121.92541,37.87313],[-121.92602,37.87326],[-121.92706,37.87367],[-121.92776,37.87365],[-121.92851,37.87452],[-121.92917,37.87437],[-121.92979,37.87496],[-121.9299,37.87542],[-121.92986,37.87614],[-121.93073,37.87641],[-121.93084,37.87668],[-121.93067,37.8768],[-121.93042,37.87679],[-121.92938,37.87627],[-121.92926,37.87611],[-121.92914,37.87529],[-121.92893,37.87518],[-121.92832,37.87528],[-121.92739,37.87517],[-121.92653,37.87551],[-121.92609,37.87508],[-121.92557,37.87501],[-121.92522,37.8752],[-121.92473,37.87593],[-121.92453,37.876],[-121.92362,37.87559],[-121.9227,37.87582],[-121.92131,37.87572],[-121.92103,37.87588],[-121.92055,37.87658],[-121.91976,37.87694],[-121.91948,37.87745],[-121.91927,37.87762],[-121.91871,37.87773],[-121.91792,37.87809],[-121.91785,37.87877],[-121.91771,37.87895],[-121.9169,37.87912],[-121.91607,37.87906],[-121.91506,37.87955],[-121.91428,37.87949],[-121.9141,37.87965],[-121.91427,37.87975],[-121.9148,37.8798],[-121.91616,37.87964],[-121.91704,37.87976],[-121.91751,37.87967],[-121.9181,37.87982],[-121.91864,37.87959],[-121.91911,37.87882],[-121.9194,37.87876],[-121.92003,37.87882],[-121.92033,37.87935],[-121.92054,37.88014],[-121.92115,37.88057],[-121.92109,37.88084],[-121.92036,37.88093],[-121.91953,37.88088],[-121.91934,37.88096],[-121.91908,37.88127],[-121.91879,37.88131],[-121.91816,37.88122],[-121.91766,37.88091],[-121.91724,37.88082],[-121.91639,37.88141],[-121.9156,37.88163],[-121.91475,37.88174]],[[-121.93241,37.86693],[-121.93226,37.86672],[-121.93222,37.86687]],[[-121.95197,37.83194],[-121.95198,37.83274],[-121.95156,37.83515],[-121.95083,37.83562],[-121.95013,37.83638],[-121.94947,37.83736],[-121.94871,37.8379],[-121.94827,37.83835],[-121.94801,37.83883],[-121.94749,37.84042],[-121.94751,37.84074],[-121.9477,37.84104],[-121.94901,37.84089],[-121.94956,37.84118],[-121.94967,37.84156],[-121.94956,37.84271],[-121.94976,37.84272],[-121.95,37.84252],[-121.95015,37.84264],[-121.95025,37.84397],[-121.95005,37.84424],[-121.94973,37.84423],[-121.94881,37.84387],[-121.94787,37.84334],[-121.94784,37.84321],[-121.9483,37.8429],[-121.94835,37.84273],[-121.94816,37.8424],[-121.94789,37.8423],[-121.94739,37.84245],[-121.94676,37.84297],[-121.94597,37.84345],[-121.94571,37.84312],[-121.9449,37.84259],[-121.94368,37.84199],[-121.94339,37.84207],[-121.94147,37.84347],[-121.94137,37.84345],[-121.94129,37.84306],[-121.9409,37.84291],[-121.94053,37.84294],[-121.94026,37.8432],[-121.94013,37.84322],[-121.94012,37.84292],[-121.94057,37.84224],[-121.94057,37.84202],[-121.94033,37.84166],[-121.94013,37.84147],[-121.9398,37.84134],[-121.93835,37.84104],[-121.93773,37.84126],[-121.93717,37.84198],[-121.93689,37.84302],[-121.93706,37.84374],[-121.93698,37.8443],[-121.93688,37.84439],[-121.93672,37.84436],[-121.93602,37.84376],[-121.93569,37.84362],[-121.93419,37.84356],[-121.93363,37.84401],[-121.93335,37.84399],[-121.93306,37.84367],[-121.93308,37.84335],[-121.93275,37.84257],[-121.93224,37.84225],[-121.93211,37.84164],[-121.9319,37.8414],[-121.9316,37.84146],[-121.93134,37.84196],[-121.93108,37.84208],[-121.92954,37.84219],[-121.92892,37.84179],[-121.9287,37.84176],[-121.92788,37.84199],[-121.92752,37.84237],[-121.92683,37.8424],[-121.92646,37.84274],[-121.9259,37.84251],[-121.92576,37.84207],[-121.92473,37.84099],[-121.92389,37.84091],[-121.92299,37.84063],[-121.92213,37.8407],[-121.92133,37.8413],[-121.92134,37.84154],[-121.92173,37.84233],[-121.92172,37.84247],[-121.92144,37.84257],[-121.92079,37.84259],[-121.92044,37.84281],[-121.9206,37.8432],[-121.92183,37.84366],[-121.92264,37.84423],[-121.92401,37.84452],[-121.92492,37.84497],[-121.9258,37.845],[-121.92688,37.84534],[-121.92706,37.84557],[-121.92681,37.8458],[-121.92677,37.84598],[-121.92684,37.84643],[-121.92704,37.84666],[-121.92791,37.84712],[-121.92884,37.84724],[-121.92938,37.84766],[-121.92996,37.8478],[-121.93171,37.84849],[-121.93252,37.84908],[-121.93283,37.84951],[-121.93285,37.84977],[-121.93269,37.85024],[-121.93278,37.85059],[-121.93274,37.85091],[-121.93253,37.85107],[-121.93203,37.85104],[-121.93171,37.85056],[-121.93144,37.85048],[-121.93106,37.85065],[-121.93063,37.8511],[-121.93038,37.85114],[-121.93019,37.85079],[-121.93023,37.85036],[-121.93,37.85025],[-121.92977,37.85041],[-121.92962,37.85095],[-121.92934,37.85129],[-121.92855,37.85176],[-121.92825,37.85182],[-121.9279,37.85146],[-121.92772,37.8514],[-121.92689,37.85161],[-121.92642,37.85131],[-121.92581,37.85179],[-121.92569,37.85198],[-121.92587,37.85222],[-121.92738,37.85269],[-121.92808,37.85283],[-121.92921,37.85289],[-121.92983,37.85325],[-121.93047,37.85341],[-121.93124,37.85436],[-121.93211,37.85509],[-121.93266,37.85543],[-121.93346,37.8555],[-121.9343,37.856],[-121.9345,37.85621],[-121.93473,37.85683],[-121.93567,37.85736],[-121.93545,37.85894],[-121.93451,37.85985],[-121.93395,37.86097],[-121.93271,37.86268],[-121.93283,37.86324],[-121.93327,37.86387],[-121.93257,37.86416],[-121.93255,37.8643],[-121.933,37.86446],[-121.93335,37.86491],[-121.93327,37.86502],[-121.9318,37.86577],[-121.932,37.86637],[-121.93226,37.86672]],[[-121.91724,37.88082],[-121.9163,37.88094],[-121.91544,37.88123],[-121.91471,37.88163]],[[-121.92079,37.84259],[-121.92037,37.84273],[-121.92033,37.84295],[-121.92055,37.84314]]]}}
