{"type":"Feature","properties":{"id":"east-fork-road","name":"East Fork Road","difficulty":2,"character":"Medium speed"},"geometry":{"type":"MultiLineString","coordinates":[[[-117.77198,34.22906],[-117.77357,34.22998],[-117.77418,34.23013],[-117.77501,34.23021],[-117.77591,34.23018],[-117.7772,34.2297],[-117.77805,34.22967],[-117.77916,34.22947],[-117.77949,34.2295],[-117.78006,34.22979],[-117.78051,34.22989],[-117.78212,34.22975],[-117.78415,34.23009],[-117.78569,34.22993],[-117.78661,34.23002],[-117.7876,34.23038],[-117.78803,34.23063],[-117.78852,34.23121],[-117.78927,34.23233],[-117.78977,34.23254],[-117.79021,34.23255],[-117.79055,34.23245],[-117.7913,34.23174],[-117.79199,34.23155],[-117.79252,34.23169],[-117.79383,34.23261],[-117.79446,34.23283],[-117.79584,34.2328],[-117.79751,34.23242],[-117.79898,34.23257],[-117.79952,34.23282],[-117.80039,34.23382],[-117.80077,34.23406],[-117.80218,34.23431],[-117.80338,34.23469],[-117.80383,34.23495],[-117.80435,34.23566],[-117.80475,34.23601],[-117.8068,34.2367],[-117.80733,34.23679],[-117.80908,34.23682],[-117.80973,34.23701],[-117.8106,34.2375],[-117.81103,34.23763],[-117.81152,34.23757],[-117.81259,34.23725],[-117.81457,34.23692],[-117.81662,34.23674],[-117.81744,34.23678],[-117.8189,34.23714],[-117.81953,34.23749],[-117.82011,34.23892],[-117.82176,34.24012],[-117.82235,34.24034],[-117.82277,34.24036],[-117.82336,34.24013],[-117.8245,34.23896],[-117.82532,34.23849],[-117.82595,34.23826],[-117.82753,34.23831],[-117.82908,34.23809],[-117.82969,34.23811],[-117.83474,34.23909],[-117.83534,34.23909],[-117.83607,34.23871],[-117.83728,34.23846],[-117.83883,34.23737],[-117.84047,34.23688],[-117.84128,34.23604],[-117.843,34.23557],[-117.84345,34.23563],[-117.84381,34.23586],[-117.84437,34.23689],[-117.84471,34.23716],[-117.84592,34.23736],[-117.84765,34.23799],[-117.84796,34.23817],[-117.84852,34.23876],[-117.84884,34.23891],[-117.85131,34.23911]]]}}
