{"type":"Feature","properties":{"id":"eastside-sonoma","name":"Eastside Road \u00b7 Sonoma County","difficulty":1,"character":"Low speed"},"geometry":{"type":"MultiLineString","coordinates":[[[-122.84053,38.5732],[-122.84062,38.57285],[-122.84435,38.56689],[-122.84447,38.56615],[-122.84454,38.56173],[-122.84474,38.56114],[-122.84628,38.55846],[-122.84722,38.55524],[-122.84721,38.55442],[-122.84658,38.55163],[-122.84625,38.54815],[-122.84608,38.54738],[-122.84623,38.54415],[-122.84619,38.54043],[-122.84673,38.53795],[-122.84722,38.53493],[-122.84754,38.53428],[-122.84838,38.53337],[-122.84863,38.53286],[-122.84847,38.53145],[-122.84791,38.52923],[-122.84777,38.5263],[-122.84782,38.52467],[-122.84794,38.52426],[-122.84923,38.52194],[-122.85139,38.51959],[-122.85301,38.51812],[-122.85441,38.5172],[-122.85572,38.51589],[-122.8581,38.51323],[-122.85903,38.51054],[-122.85929,38.50944],[-122.86041,38.50772],[-122.86114,38.50405],[-122.86102,38.50324],[-122.86109,38.50312],[-122.8613,38.50291],[-122.86229,38.50243],[-122.86506,38.50152],[-122.86554,38.50118],[-122.8661,38.50003],[-122.86687,38.49769],[-122.86707,38.49742],[-122.86787,38.49688],[-122.86853,38.49656],[-122.86996,38.49632],[-122.871,38.4964],[-122.87308,38.49618],[-122.87421,38.4962],[-122.87525,38.49635],[-122.87631,38.49666],[-122.87778,38.49693]]]}}
