{"type":"Feature","properties":{"id":"empire","name":"Empire Grade","difficulty":2,"character":"Medium speed"},"geometry":{"type":"MultiLineString","coordinates":[[[-122.05813,36.97896],[-122.05865,36.97934],[-122.05936,36.98012],[-122.06198,36.98223],[-122.06315,36.98289],[-122.06487,36.98371],[-122.06623,36.9846],[-122.06759,36.98592],[-122.06845,36.9872],[-122.06913,36.9888],[-122.06933,36.98982],[-122.0694,36.99144],[-122.06989,36.9922],[-122.06988,36.99278],[-122.07011,36.99337],[-122.07002,36.99368],[-122.0693,36.99458],[-122.06893,36.99574],[-122.06913,36.99718],[-122.0688,36.99796],[-122.0687,36.999],[-122.06981,37.00129],[-122.07045,37.0015],[-122.07172,37.00157],[-122.07259,37.00239],[-122.07299,37.00297],[-122.07394,37.00574],[-122.0747,37.00648],[-122.07502,37.00697],[-122.07581,37.0097],[-122.07576,37.01014],[-122.07512,37.01212],[-122.07525,37.0133],[-122.07578,37.01478],[-122.07709,37.01624],[-122.08029,37.01831],[-122.08431,37.02121],[-122.08673,37.02258],[-122.08818,37.02308],[-122.08933,37.02392],[-122.0898,37.02416],[-122.09281,37.02496],[-122.09377,37.02542],[-122.09461,37.02607],[-122.09516,37.02633],[-122.09599,37.02642],[-122.09771,37.02609],[-122.09857,37.02628],[-122.09916,37.02679],[-122.10142,37.02982],[-122.10193,37.03019],[-122.10359,37.03104],[-122.10406,37.03112],[-122.10455,37.03094],[-122.10478,37.03068],[-122.10495,37.0301],[-122.10554,37.02956],[-122.10634,37.02956],[-122.10708,37.02923],[-122.10759,37.02917],[-122.10796,37.02929],[-122.10873,37.02987],[-122.1089,37.0307],[-122.10953,37.03124],[-122.10995,37.03201],[-122.11008,37.03278],[-122.10885,37.03503],[-122.10847,37.03533],[-122.1074,37.03561],[-122.10701,37.03581],[-122.10602,37.03722],[-122.10599,37.03766],[-122.10624,37.03802],[-122.10743,37.03838],[-122.10768,37.03868],[-122.10762,37.03894],[-122.10665,37.03973],[-122.10656,37.04105],[-122.10643,37.04164],[-122.10649,37.04229],[-122.10818,37.04356],[-122.10869,37.04473],[-122.10898,37.04511],[-122.10993,37.04574],[-122.11163,37.04634],[-122.11303,37.04754],[-122.1149,37.04853],[-122.11551,37.04963],[-122.11554,37.04984],[-122.11557,37.05169],[-122.11511,37.05275],[-122.11532,37.05322],[-122.11577,37.0535],[-122.11812,37.0543],[-122.11975,37.05543],[-122.12132,37.05588],[-122.12282,37.05731],[-122.12329,37.05822],[-122.12416,37.05876],[-122.12437,37.05898],[-122.12446,37.05935],[-122.12424,37.05974],[-122.12389,37.05994],[-122.12306,37.06001],[-122.12263,37.06017],[-122.12158,37.06109],[-122.1214,37.06146],[-122.12144,37.06198],[-122.12161,37.06227],[-122.12293,37.06351],[-122.12319,37.06392],[-122.12315,37.06451],[-122.1226,37.06644],[-122.12269,37.06713],[-122.12391,37.06939],[-122.12483,37.07076],[-122.1258,37.07143],[-122.1271,37.07217],[-122.12953,37.07323],[-122.13149,37.07578],[-122.13169,37.07652],[-122.13153,37.07725],[-122.13165,37.07753],[-122.13214,37.07785],[-122.13309,37.07814],[-122.13332,37.0783],[-122.1336,37.07877],[-122.13577,37.08493],[-122.13615,37.0856],[-122.13607,37.08675],[-122.13627,37.08753],[-122.13658,37.08798],[-122.13798,37.0893],[-122.14103,37.09261],[-122.14111,37.09289],[-122.14114,37.09538],[-122.14151,37.09603],[-122.14234,37.09656],[-122.1426,37.09689],[-122.14271,37.09726],[-122.14277,37.09856],[-122.14293,37.09876],[-122.1436,37.09921],[-122.14375,37.09977],[-122.14368,37.10008],[-122.14332,37.10059],[-122.14253,37.10114],[-122.14104,37.10341],[-122.14089,37.1039],[-122.14107,37.10433],[-122.1425,37.10576],[-122.14319,37.10722],[-122.14404,37.10799],[-122.14436,37.10818],[-122.14575,37.10844],[-122.14623,37.10862],[-122.14774,37.11047],[-122.14824,37.11068],[-122.14913,37.11087],[-122.14994,37.11124],[-122.15064,37.11177],[-122.15215,37.11329],[-122.15426,37.11465],[-122.15552,37.11643],[-122.15707,37.11891],[-122.1592,37.12176],[-122.15934,37.1221],[-122.15935,37.12316],[-122.15952,37.12352],[-122.1608,37.12464],[-122.16253,37.12562],[-122.16417,37.12804],[-122.16653,37.12949],[-122.16707,37.13001],[-122.16847,37.1318],[-122.16916,37.13299],[-122.17144,37.13514],[-122.172,37.13583],[-122.17244,37.13668],[-122.17266,37.13754],[-122.17316,37.13867],[-122.17345,37.13908],[-122.1741,37.13914],[-122.1755,37.13882],[-122.17628,37.13847],[-122.17813,37.13852],[-122.17854,37.13875],[-122.17886,37.13943],[-122.17919,37.13979],[-122.17956,37.13996],[-122.18156,37.14025],[-122.18292,37.14002],[-122.18341,37.14002],[-122.18369,37.14012],[-122.18401,37.14041],[-122.18438,37.14113],[-122.18463,37.14138],[-122.18712,37.14189],[-122.18829,37.14194],[-122.18932,37.14256],[-122.19132,37.14281],[-122.19186,37.14277],[-122.19279,37.14254],[-122.19505,37.1426],[-122.19589,37.14264],[-122.19723,37.14306],[-122.19946,37.14253],[-122.20046,37.14267],[-122.20094,37.14261],[-122.20157,37.14211],[-122.20181,37.14153],[-122.20206,37.14034]]]}}
