{"type":"Feature","properties":{"id":"encinal-canyon","name":"Encinal Canyon Road","difficulty":2,"character":"Medium speed"},"geometry":{"type":"MultiLineString","coordinates":[[[-118.88525,34.04036],[-118.88529,34.04065],[-118.88547,34.04084],[-118.88598,34.04113],[-118.89139,34.04229],[-118.89204,34.04251],[-118.89239,34.0428],[-118.89259,34.04322],[-118.8926,34.04365],[-118.89238,34.04408],[-118.89183,34.04443],[-118.89136,34.04452],[-118.88825,34.04433],[-118.8859,34.04389],[-118.88476,34.04388],[-118.88061,34.04418],[-118.87965,34.04409],[-118.87717,34.04361],[-118.87655,34.04365],[-118.87626,34.04378],[-118.87575,34.04423],[-118.87505,34.0452],[-118.87479,34.04577],[-118.87481,34.04645],[-118.87529,34.04803],[-118.87524,34.04867],[-118.87499,34.04915],[-118.87451,34.04958],[-118.87317,34.05025],[-118.8722,34.05126],[-118.87094,34.05195],[-118.87019,34.05279],[-118.86954,34.05494],[-118.86963,34.05687],[-118.86954,34.05764],[-118.8693,34.05834],[-118.86843,34.06007],[-118.86841,34.06057],[-118.86854,34.06093],[-118.86955,34.06229],[-118.87,34.06267],[-118.87112,34.06329],[-118.87145,34.06379],[-118.87174,34.06475],[-118.87208,34.06506],[-118.87272,34.06528],[-118.87345,34.06517],[-118.8739,34.06487],[-118.87412,34.06454],[-118.8742,34.06407],[-118.87409,34.06167],[-118.87421,34.06124],[-118.87448,34.06092],[-118.87525,34.06056],[-118.87592,34.06057],[-118.87659,34.06086],[-118.87695,34.06131],[-118.87707,34.06176],[-118.877,34.06216],[-118.87626,34.06324],[-118.87604,34.06373],[-118.87611,34.06536],[-118.87586,34.06581],[-118.87534,34.06625],[-118.87516,34.06666],[-118.87524,34.06717],[-118.87572,34.06802],[-118.8759,34.06889],[-118.87546,34.07069],[-118.87511,34.07395],[-118.87524,34.07458],[-118.8757,34.07541],[-118.87711,34.07658],[-118.87769,34.07746],[-118.87616,34.07801],[-118.87574,34.07825],[-118.87528,34.07866],[-118.87445,34.08003],[-118.87102,34.08206],[-118.86886,34.0824],[-118.86823,34.08257],[-118.86746,34.08308],[-118.86668,34.08403],[-118.86625,34.08439],[-118.86516,34.08489],[-118.86414,34.08502],[-118.86153,34.08504],[-118.86073,34.08521],[-118.86003,34.0857],[-118.85904,34.08705],[-118.85839,34.08741],[-118.85775,34.08749],[-118.85543,34.08751],[-118.85199,34.08745],[-118.85101,34.08713],[-118.84904,34.08587],[-118.84833,34.08567],[-118.84738,34.08572],[-118.84683,34.08589],[-118.84287,34.08786],[-118.842,34.08791],[-118.84017,34.0875],[-118.83961,34.08762],[-118.83924,34.08783],[-118.8389,34.08834],[-118.83899,34.08996],[-118.83872,34.09049],[-118.83829,34.09089],[-118.83783,34.09112],[-118.83392,34.09229],[-118.83193,34.09234],[-118.83124,34.09249],[-118.82844,34.09426]]]}}
