{"type":"Feature","properties":{"id":"felton-empire","name":"Felton Empire Road","difficulty":3,"character":"Technical"},"geometry":{"type":"MultiLineString","coordinates":[[[-122.07328,37.05308],[-122.07446,37.0531],[-122.07497,37.05299],[-122.08143,37.05011],[-122.08298,37.0493],[-122.08419,37.04916],[-122.08501,37.04959],[-122.08547,37.04966],[-122.08705,37.04879],[-122.08764,37.04863],[-122.08838,37.04861],[-122.08917,37.0489],[-122.09002,37.04891],[-122.09057,37.04906],[-122.09213,37.0498],[-122.09274,37.05084],[-122.09524,37.05154],[-122.09533,37.05176],[-122.09519,37.05207],[-122.09379,37.05228],[-122.09347,37.05253],[-122.09347,37.05273],[-122.09363,37.05285],[-122.0957,37.05327],[-122.09687,37.054],[-122.09719,37.05459],[-122.09715,37.05558],[-122.09742,37.05583],[-122.09867,37.05634],[-122.09943,37.05608],[-122.10009,37.05624],[-122.1005,37.0562],[-122.10101,37.05597],[-122.10153,37.05608],[-122.10201,37.05607],[-122.10209,37.05614],[-122.1021,37.05672],[-122.1023,37.05687],[-122.10281,37.057],[-122.10317,37.05733],[-122.10337,37.0578],[-122.10379,37.05809],[-122.10466,37.05792],[-122.10533,37.05797],[-122.10607,37.05785],[-122.10754,37.05795],[-122.10807,37.05843],[-122.10833,37.05898],[-122.10902,37.05978],[-122.1103,37.06011],[-122.11118,37.06016],[-122.11174,37.06063],[-122.11238,37.061],[-122.11284,37.06115],[-122.11301,37.06116],[-122.11309,37.06105],[-122.11275,37.06086],[-122.11256,37.06064],[-122.1124,37.06003],[-122.11342,37.05911],[-122.11444,37.05912],[-122.115,37.05899],[-122.11653,37.05901],[-122.11719,37.05894],[-122.11831,37.05872],[-122.11886,37.05844],[-122.12059,37.05787],[-122.12195,37.05783],[-122.12312,37.05794]]]}}
