{"type":"Feature","properties":{"id":"foothills-parkway","name":"Foothills Parkway","difficulty":1,"character":"Medium speed"},"geometry":{"type":"MultiLineString","coordinates":[[[-84.01,35.55741],[-84.00933,35.55885],[-84.00877,35.5597],[-84.00822,35.56035],[-84.00577,35.56276],[-84.00496,35.56471],[-84.00306,35.56685],[-84.00264,35.56754],[-84.00258,35.56843],[-84.00331,35.5707],[-84.00341,35.57142],[-84.00322,35.57267],[-84.00292,35.57321],[-84.00228,35.57401],[-84.0022,35.57451],[-84.00245,35.57504],[-84.00351,35.576],[-84.00365,35.57639],[-84.00361,35.57688],[-84.00346,35.57719],[-84.00245,35.57839],[-84.00173,35.57993],[-84.00113,35.58052],[-83.99953,35.5815],[-83.99904,35.58195],[-83.99856,35.58278],[-83.9982,35.58409],[-83.99799,35.58448],[-83.99769,35.58483],[-83.9964,35.58583],[-83.99629,35.58618],[-83.99635,35.58653],[-83.99703,35.58755],[-83.99703,35.588],[-83.99693,35.58823],[-83.99552,35.58931],[-83.99457,35.59055],[-83.99333,35.5912],[-83.99235,35.59197],[-83.99118,35.59266],[-83.99083,35.59308],[-83.99036,35.59396],[-83.99007,35.59426],[-83.98869,35.59501],[-83.98849,35.59528],[-83.98811,35.59626],[-83.98691,35.59724],[-83.98557,35.59905],[-83.98535,35.6004],[-83.9845,35.60116],[-83.98302,35.60295],[-83.98168,35.60407],[-83.98145,35.60445],[-83.98125,35.60533],[-83.98108,35.60563],[-83.98084,35.60583],[-83.97956,35.6064],[-83.97914,35.60671],[-83.97831,35.60806],[-83.97653,35.60978],[-83.97624,35.61031],[-83.97616,35.61105],[-83.9759,35.61157],[-83.97539,35.61184],[-83.9708,35.61334],[-83.96793,35.61454],[-83.96603,35.61564],[-83.96428,35.61696],[-83.96371,35.61756],[-83.96336,35.61808],[-83.96289,35.61969],[-83.96263,35.62015],[-83.96207,35.62061],[-83.96117,35.62117],[-83.96085,35.62152],[-83.96079,35.62194],[-83.96113,35.623],[-83.96104,35.62347],[-83.95885,35.62617],[-83.95846,35.6265],[-83.95768,35.62661],[-83.95508,35.62646],[-83.95281,35.62691],[-83.95081,35.62676],[-83.9503,35.62685],[-83.94991,35.62714],[-83.94957,35.62793],[-83.94933,35.62824],[-83.94798,35.62919],[-83.94654,35.63136],[-83.94628,35.6316],[-83.94591,35.63177],[-83.9453,35.63178],[-83.94382,35.63111],[-83.94309,35.63095],[-83.94099,35.63106],[-83.94053,35.6312],[-83.9401,35.63146],[-83.93942,35.63235],[-83.93881,35.63352],[-83.93851,35.63447],[-83.93817,35.63634],[-83.93742,35.63781],[-83.93413,35.64147],[-83.9336,35.64229],[-83.93262,35.64419],[-83.93219,35.64479],[-83.93134,35.64561],[-83.93,35.6467],[-83.92872,35.64855],[-83.92574,35.65095],[-83.92506,35.6519],[-83.92414,35.65357],[-83.92364,35.65413],[-83.91822,35.65764],[-83.91466,35.66043],[-83.91103,35.66287],[-83.90959,35.66437],[-83.90812,35.66535],[-83.90657,35.66709],[-83.90513,35.6683],[-83.90388,35.67021],[-83.90225,35.67132],[-83.90121,35.67236],[-83.90048,35.67267],[-83.89885,35.67287],[-83.89821,35.67309],[-83.89783,35.67338],[-83.89693,35.67455],[-83.89537,35.67535],[-83.89421,35.67631],[-83.8925,35.67721],[-83.89208,35.67753],[-83.89139,35.67833],[-83.89008,35.68042],[-83.88828,35.6817],[-83.88721,35.68314],[-83.88563,35.68443],[-83.88472,35.68611],[-83.8833,35.68752],[-83.88264,35.6884],[-83.88238,35.689],[-83.88205,35.69035],[-83.88154,35.69132],[-83.87916,35.69401],[-83.87828,35.69482],[-83.87757,35.69534],[-83.87529,35.69662],[-83.87457,35.69715],[-83.87279,35.69899],[-83.87059,35.70104],[-83.86861,35.70246],[-83.86708,35.70304],[-83.8658,35.70419],[-83.86428,35.7047],[-83.86242,35.70571],[-83.86066,35.70632],[-83.8595,35.70702],[-83.85877,35.70715],[-83.85716,35.70686],[-83.85622,35.70707],[-83.8557,35.70746],[-83.85499,35.70839],[-83.85465,35.70864],[-83.85413,35.70888],[-83.85217,35.70947],[-83.85053,35.71075],[-83.84868,35.71149],[-83.84732,35.71262],[-83.8468,35.71284],[-83.84559,35.71315],[-83.84427,35.71381],[-83.8431,35.71416],[-83.84172,35.71502],[-83.83982,35.7158],[-83.83819,35.71675],[-83.83726,35.71705],[-83.8363,35.71716],[-83.8344,35.71691],[-83.83382,35.71694],[-83.83331,35.71714],[-83.83224,35.71808],[-83.83153,35.71829],[-83.83082,35.7182],[-83.82941,35.71773],[-83.8277,35.71775],[-83.82655,35.71762],[-83.82593,35.71768],[-83.82365,35.71825],[-83.82211,35.7184],[-83.8204,35.71826],[-83.81903,35.71788],[-83.81719,35.71625],[-83.81515,35.71474],[-83.81472,35.71427],[-83.81454,35.71386],[-83.81408,35.71102],[-83.81424,35.71052],[-83.81485,35.70959],[-83.81493,35.70914],[-83.81423,35.70767],[-83.81418,35.70725],[-83.81444,35.70677],[-83.81558,35.7058],[-83.81579,35.70531],[-83.8157,35.70496],[-83.81549,35.70473],[-83.81511,35.70456],[-83.81474,35.70453],[-83.81425,35.70466],[-83.81239,35.70549],[-83.81175,35.70566],[-83.81101,35.70566],[-83.80924,35.70529],[-83.8082,35.70544],[-83.8066,35.70625],[-83.80509,35.70722],[-83.80455,35.70772],[-83.80398,35.70855],[-83.80344,35.70884],[-83.80275,35.70881],[-83.80165,35.70825],[-83.79992,35.70775],[-83.79927,35.7078],[-83.79718,35.70827],[-83.79453,35.70857],[-83.79393,35.70888],[-83.79318,35.7098],[-83.79261,35.71016],[-83.79208,35.71025],[-83.79074,35.71002],[-83.78995,35.71007],[-83.78744,35.71121],[-83.78575,35.71172],[-83.78521,35.7122],[-83.78473,35.7134],[-83.78406,35.71383],[-83.78354,35.7139],[-83.78234,35.71371],[-83.78179,35.71376],[-83.77707,35.71558],[-83.77475,35.71603],[-83.77334,35.71665],[-83.77282,35.71679],[-83.77212,35.71681],[-83.76935,35.71652],[-83.7687,35.71656],[-83.76808,35.71673],[-83.76597,35.71773],[-83.76299,35.71882],[-83.76144,35.71974],[-83.75647,35.72118],[-83.756,35.72154],[-83.75532,35.72258],[-83.75473,35.72312],[-83.75396,35.72349],[-83.75236,35.72394],[-83.7513,35.72465],[-83.75063,35.72495],[-83.74973,35.7251],[-83.74748,35.72511],[-83.74598,35.7255],[-83.7446,35.72565],[-83.74211,35.72642],[-83.74059,35.72711],[-83.73865,35.72733],[-83.73691,35.72771],[-83.73622,35.72777],[-83.73567,35.72762],[-83.73534,35.72731],[-83.73528,35.72682],[-83.73552,35.72644],[-83.73606,35.7262],[-83.73729,35.72611],[-83.7384,35.72544],[-83.73945,35.72522],[-83.73974,35.72507],[-83.73994,35.72485],[-83.74028,35.72412],[-83.74051,35.724],[-83.74134,35.72386],[-83.74182,35.72355],[-83.74206,35.72318],[-83.74224,35.72212],[-83.74239,35.72181],[-83.74352,35.72099],[-83.74389,35.72051],[-83.74398,35.72004],[-83.74383,35.71969],[-83.74346,35.71948],[-83.74271,35.71935],[-83.74234,35.71894],[-83.74241,35.7185],[-83.74296,35.71805],[-83.74311,35.71768],[-83.74296,35.71731],[-83.74242,35.71679],[-83.74237,35.71642],[-83.74255,35.71614],[-83.7431,35.71574],[-83.74325,35.71538],[-83.74311,35.71503],[-83.74237,35.71451],[-83.74188,35.71429],[-83.74139,35.71423],[-83.73851,35.71468],[-83.73777,35.71501],[-83.73702,35.71578],[-83.73665,35.7159],[-83.73634,35.71588],[-83.73606,35.71576],[-83.73583,35.71551],[-83.73558,35.71428],[-83.73558,35.71296],[-83.73604,35.71237],[-83.73613,35.7121],[-83.73605,35.71175],[-83.73571,35.71149],[-83.73516,35.71144],[-83.73277,35.71204],[-83.73079,35.71217],[-83.72974,35.71203],[-83.72892,35.71145],[-83.72855,35.71131],[-83.72814,35.71132],[-83.72748,35.71157],[-83.72706,35.71163],[-83.72596,35.71125],[-83.72539,35.71116],[-83.7246,35.7113],[-83.72251,35.71236],[-83.72054,35.71298],[-83.71951,35.71374],[-83.71886,35.71401],[-83.71827,35.71409],[-83.71768,35.71405],[-83.71603,35.71364],[-83.71487,35.71381],[-83.71444,35.71378],[-83.71299,35.71308],[-83.71151,35.71281],[-83.71025,35.7119],[-83.7098,35.71182],[-83.70828,35.71182],[-83.70761,35.7117],[-83.70656,35.71126],[-83.70531,35.71032],[-83.70485,35.71022],[-83.70404,35.71022],[-83.70358,35.71008],[-83.70322,35.70981],[-83.70274,35.70908],[-83.70234,35.70868],[-83.70184,35.70837],[-83.70078,35.70798],[-83.70035,35.70773],[-83.69993,35.70731],[-83.69949,35.7066],[-83.69913,35.70636],[-83.69853,35.70632],[-83.69759,35.70675],[-83.69713,35.7068],[-83.69675,35.70667],[-83.69594,35.70609],[-83.69458,35.70599],[-83.69365,35.70549],[-83.69309,35.7054],[-83.69272,35.70545],[-83.69241,35.70561],[-83.69206,35.70637],[-83.69162,35.70665],[-83.69113,35.70663],[-83.69024,35.70619],[-83.68964,35.70632],[-83.68935,35.7067],[-83.68928,35.70773],[-83.68908,35.70795],[-83.6888,35.70808],[-83.6884,35.70809],[-83.68804,35.70794],[-83.68761,35.70712],[-83.68733,35.70689],[-83.68686,35.7068],[-83.68649,35.70692],[-83.68628,35.70712],[-83.68619,35.70737],[-83.68637,35.70865],[-83.68614,35.7091],[-83.6857,35.70932],[-83.68245,35.70978],[-83.68198,35.70997],[-83.68135,35.71102],[-83.68029,35.71168],[-83.6799,35.71209],[-83.67967,35.71268],[-83.67971,35.7136],[-83.67939,35.71403],[-83.67813,35.71443],[-83.67708,35.71514],[-83.67575,35.71544],[-83.67431,35.71646],[-83.67257,35.71714],[-83.6722,35.71749],[-83.67183,35.71831],[-83.67144,35.71859],[-83.67102,35.71866],[-83.66838,35.71866],[-83.66746,35.71891],[-83.6661,35.71984],[-83.66496,35.72108],[-83.66406,35.72169],[-83.66335,35.7224],[-83.6626,35.72267],[-83.6615,35.72272],[-83.66047,35.7234],[-83.65994,35.72346],[-83.6574,35.72315],[-83.657,35.72286],[-83.65654,35.72201],[-83.65609,35.72156],[-83.65518,35.72104],[-83.65409,35.72075],[-83.65278,35.72066],[-83.65148,35.72082],[-83.65027,35.72123],[-83.64853,35.72222],[-83.64788,35.72238],[-83.64725,35.72241],[-83.6463,35.72227],[-83.64535,35.7219],[-83.64454,35.72134],[-83.64372,35.72048]]]}}
