{"type":"Feature","properties":{"id":"glendora-ridge","name":"Glendora Ridge Road \u00b7 GRR","difficulty":3,"character":"Technical"},"geometry":{"type":"MultiLineString","coordinates":[[[-117.80876,34.20404],[-117.80861,34.20381],[-117.8084,34.20373],[-117.8067,34.2036],[-117.80542,34.20376],[-117.80477,34.20344],[-117.80449,34.20343],[-117.80327,34.20426],[-117.80273,34.20428],[-117.80226,34.20448],[-117.80092,34.20535],[-117.80005,34.20569],[-117.79904,34.20634],[-117.79802,34.20769],[-117.79781,34.20784],[-117.79697,34.20825],[-117.79611,34.20831],[-117.79544,34.2088],[-117.79483,34.20886],[-117.79426,34.20942],[-117.79391,34.20958],[-117.7932,34.20945],[-117.79268,34.20913],[-117.79179,34.2089],[-117.79102,34.20843],[-117.79073,34.20781],[-117.78948,34.20749],[-117.78894,34.20703],[-117.78882,34.20662],[-117.78852,34.20647],[-117.78787,34.20639],[-117.78698,34.20642],[-117.78653,34.2067],[-117.78581,34.20672],[-117.7853,34.20708],[-117.78472,34.20719],[-117.78422,34.20756],[-117.78345,34.20779],[-117.78294,34.20806],[-117.78234,34.208],[-117.78147,34.20814],[-117.78042,34.20809],[-117.77933,34.20853],[-117.77896,34.20859],[-117.77831,34.20859],[-117.77748,34.20835],[-117.77707,34.20837],[-117.7767,34.2087],[-117.77681,34.20944],[-117.77658,34.20963],[-117.7763,34.20957],[-117.77589,34.20913],[-117.77544,34.20891],[-117.77521,34.20835],[-117.77401,34.20804],[-117.77381,34.20812],[-117.77184,34.20997],[-117.7715,34.21049],[-117.77076,34.21107],[-117.77044,34.21145],[-117.76987,34.2117],[-117.76863,34.21302],[-117.76796,34.21338],[-117.76755,34.21401],[-117.76649,34.21469],[-117.76507,34.2154],[-117.76454,34.21592],[-117.76393,34.21625],[-117.76349,34.21732],[-117.76258,34.21759],[-117.76211,34.21753],[-117.76142,34.21729],[-117.76111,34.2173],[-117.76071,34.2175],[-117.76035,34.2179],[-117.7598,34.21802],[-117.75874,34.21849],[-117.75774,34.21866],[-117.75735,34.21891],[-117.7562,34.21926],[-117.75605,34.21947],[-117.75599,34.21999],[-117.75515,34.22088],[-117.75494,34.22221],[-117.75481,34.22236],[-117.75452,34.22232],[-117.75393,34.22167],[-117.75408,34.22109],[-117.75389,34.22072],[-117.75424,34.22024],[-117.75432,34.21999],[-117.75421,34.21974],[-117.75385,34.2194],[-117.75376,34.21864],[-117.75159,34.21758],[-117.75105,34.21746],[-117.75067,34.21748],[-117.75032,34.21755],[-117.7497,34.21786],[-117.74855,34.218],[-117.74791,34.21794],[-117.74676,34.21803],[-117.74449,34.21772],[-117.74418,34.21783],[-117.74325,34.21856],[-117.74324,34.21879],[-117.74354,34.21917],[-117.74369,34.21959],[-117.74367,34.21982],[-117.74352,34.21997],[-117.74334,34.21999],[-117.7421,34.21956],[-117.74179,34.21956],[-117.74112,34.22003],[-117.74107,34.22069],[-117.74065,34.22106],[-117.74031,34.22113],[-117.73961,34.22098],[-117.73934,34.22111],[-117.73906,34.22169],[-117.73921,34.22206],[-117.73919,34.22226],[-117.73876,34.2225],[-117.73843,34.22294],[-117.73848,34.22316],[-117.73882,34.22347],[-117.73862,34.22445],[-117.73842,34.22454],[-117.73746,34.22442],[-117.73649,34.2244],[-117.73623,34.22449],[-117.73576,34.22503],[-117.73572,34.22534],[-117.73529,34.22572],[-117.73513,34.2261],[-117.7346,34.22652],[-117.73431,34.22646],[-117.73405,34.22614],[-117.73383,34.22537],[-117.73351,34.22486],[-117.73342,34.22416],[-117.73322,34.22397],[-117.73209,34.22383],[-117.73162,34.22404],[-117.73068,34.22421],[-117.73013,34.22372],[-117.7296,34.22357],[-117.7292,34.22313],[-117.72886,34.22296],[-117.72823,34.22304],[-117.72736,34.22367],[-117.72705,34.22378],[-117.72678,34.22371],[-117.72653,34.22342],[-117.72579,34.22297],[-117.72546,34.22291],[-117.72506,34.22302],[-117.72462,34.22341],[-117.72383,34.22356],[-117.72365,34.22342],[-117.72338,34.22266],[-117.72285,34.22243],[-117.72238,34.22186],[-117.72171,34.22166],[-117.72117,34.22192],[-117.72073,34.22162],[-117.72013,34.22158],[-117.71981,34.22129],[-117.71934,34.22114],[-117.71904,34.22056],[-117.71802,34.22012],[-117.71706,34.22006],[-117.71651,34.22018],[-117.71566,34.22053],[-117.71523,34.22029],[-117.71453,34.22008],[-117.713,34.22015],[-117.71279,34.21997],[-117.71272,34.21926],[-117.71239,34.21909],[-117.71216,34.21909],[-117.71073,34.21956],[-117.70996,34.21953],[-117.70934,34.21987],[-117.70864,34.21994],[-117.70738,34.22036],[-117.70624,34.22033],[-117.70586,34.2204],[-117.70495,34.22081],[-117.70461,34.22154],[-117.7034,34.22168],[-117.70292,34.22219],[-117.70268,34.22226],[-117.70252,34.22218],[-117.70239,34.22153],[-117.7019,34.22076],[-117.70184,34.2202],[-117.70163,34.22],[-117.701,34.21969],[-117.70085,34.21912],[-117.70038,34.21858],[-117.69967,34.21835],[-117.69846,34.21772],[-117.69808,34.21763],[-117.69787,34.21774],[-117.69781,34.21787],[-117.69798,34.2185],[-117.69791,34.2187],[-117.69708,34.21879],[-117.69631,34.21993],[-117.69515,34.22061],[-117.69448,34.22079],[-117.69417,34.22111],[-117.69417,34.22138],[-117.69451,34.22192],[-117.69442,34.22232],[-117.69423,34.22242],[-117.69394,34.22243],[-117.69303,34.22196],[-117.6923,34.22184],[-117.69192,34.22188],[-117.69152,34.22214],[-117.69128,34.22247],[-117.69097,34.22314],[-117.69092,34.22366],[-117.6907,34.22385],[-117.69038,34.22386],[-117.68992,34.22352],[-117.68878,34.22327],[-117.68754,34.2235],[-117.68675,34.22419],[-117.68639,34.22437],[-117.68604,34.22439],[-117.68543,34.22418],[-117.68492,34.22416],[-117.6846,34.22419],[-117.684,34.22444],[-117.68333,34.22423],[-117.68289,34.22356],[-117.68243,34.22352],[-117.68208,34.22368],[-117.68178,34.224],[-117.68137,34.22515],[-117.68122,34.22526],[-117.681,34.22526],[-117.6797,34.22464],[-117.67935,34.22471],[-117.67844,34.22527],[-117.67804,34.22566],[-117.67772,34.22578],[-117.6773,34.22569],[-117.67662,34.22526],[-117.67614,34.22523],[-117.67554,34.22606],[-117.67471,34.22646],[-117.67394,34.22641],[-117.67359,34.2265],[-117.67331,34.22674],[-117.67297,34.22732],[-117.67168,34.22767],[-117.67106,34.22804],[-117.66996,34.22819],[-117.66804,34.22887],[-117.66658,34.23014],[-117.66609,34.23115],[-117.66504,34.23164],[-117.66475,34.23187],[-117.66397,34.23298],[-117.66378,34.23383],[-117.66353,34.23423],[-117.66196,34.23555],[-117.66025,34.23627],[-117.66006,34.23623],[-117.65996,34.23607]]]}}
