{"type":"Feature","properties":{"id":"glendora-mountain","name":"Glendora Mountain Road \u00b7 GMR","difficulty":3,"character":"Technical"},"geometry":{"type":"MultiLineString","coordinates":[[[-117.84333,34.15918],[-117.84331,34.15937],[-117.84282,34.15983],[-117.84269,34.1601],[-117.84292,34.16113],[-117.84325,34.16169],[-117.84318,34.16249],[-117.84341,34.16259],[-117.84358,34.16244],[-117.8436,34.16167],[-117.84342,34.1607],[-117.84372,34.16023],[-117.844,34.16017],[-117.84407,34.16042],[-117.84371,34.16082],[-117.8439,34.16133],[-117.84429,34.16163],[-117.84417,34.16223],[-117.84487,34.1627],[-117.84522,34.16313],[-117.84568,34.16336],[-117.84589,34.16386],[-117.84585,34.16434],[-117.84546,34.16504],[-117.84494,34.16534],[-117.84388,34.16561],[-117.84372,34.16579],[-117.84385,34.16613],[-117.84438,34.16662],[-117.84571,34.16724],[-117.84639,34.16779],[-117.84633,34.168],[-117.84586,34.16833],[-117.84476,34.16877],[-117.84466,34.1689],[-117.84466,34.1692],[-117.84491,34.16964],[-117.84522,34.16976],[-117.84539,34.1696],[-117.8452,34.16914],[-117.84531,34.16891],[-117.84672,34.16859],[-117.84734,34.16862],[-117.84763,34.1685],[-117.84768,34.16755],[-117.84729,34.16696],[-117.84748,34.16677],[-117.84781,34.16684],[-117.84817,34.16787],[-117.84864,34.16839],[-117.8487,34.16863],[-117.84779,34.16935],[-117.84752,34.16938],[-117.84688,34.16926],[-117.84662,34.16937],[-117.8466,34.16953],[-117.84791,34.17047],[-117.84805,34.17079],[-117.84788,34.17114],[-117.84792,34.17124],[-117.84829,34.17148],[-117.84851,34.17193],[-117.84968,34.17315],[-117.84977,34.17345],[-117.8496,34.17373],[-117.84914,34.17395],[-117.84855,34.17446],[-117.84861,34.17465],[-117.84913,34.17495],[-117.84919,34.17511],[-117.84835,34.17672],[-117.84824,34.17717],[-117.84721,34.17775],[-117.84638,34.17809],[-117.84592,34.17843],[-117.84492,34.17949],[-117.84394,34.18034],[-117.84325,34.18131],[-117.84236,34.18231],[-117.84238,34.18263],[-117.84272,34.18316],[-117.84268,34.18364],[-117.84286,34.18434],[-117.84311,34.18464],[-117.84353,34.18491],[-117.84339,34.18548],[-117.84354,34.18563],[-117.84402,34.18578],[-117.84412,34.18594],[-117.84376,34.18625],[-117.84346,34.18675],[-117.84185,34.18741],[-117.84168,34.18803],[-117.84124,34.18893],[-117.8412,34.18934],[-117.84133,34.19031],[-117.84147,34.19042],[-117.84189,34.1905],[-117.84221,34.19071],[-117.84206,34.19198],[-117.84261,34.19252],[-117.84293,34.19311],[-117.84281,34.19325],[-117.84231,34.19327],[-117.84163,34.19348],[-117.84143,34.19367],[-117.84129,34.19416],[-117.84102,34.19424],[-117.84038,34.19422],[-117.83974,34.19454],[-117.83963,34.19472],[-117.84015,34.19558],[-117.84003,34.19649],[-117.84027,34.19672],[-117.84077,34.19696],[-117.84108,34.19742],[-117.84221,34.19843],[-117.84225,34.19898],[-117.84218,34.19914],[-117.84194,34.19922],[-117.8417,34.19914],[-117.84119,34.19829],[-117.84054,34.19805],[-117.84014,34.19766],[-117.8399,34.19769],[-117.83946,34.19798],[-117.8392,34.19793],[-117.83865,34.19735],[-117.83849,34.19685],[-117.83797,34.19646],[-117.8376,34.19646],[-117.83733,34.19665],[-117.83705,34.19722],[-117.83655,34.19786],[-117.83525,34.19831],[-117.83519,34.19865],[-117.83555,34.19913],[-117.83545,34.19935],[-117.83514,34.19942],[-117.83444,34.19926],[-117.83409,34.19932],[-117.83386,34.1995],[-117.83363,34.19997],[-117.83284,34.20016],[-117.83253,34.20055],[-117.83199,34.20084],[-117.83176,34.2008],[-117.83143,34.20036],[-117.83088,34.20014],[-117.83059,34.1999],[-117.82993,34.19979],[-117.82928,34.19948],[-117.82815,34.19951],[-117.82735,34.19973],[-117.8267,34.20011],[-117.82594,34.20086],[-117.82513,34.20123],[-117.82461,34.20179],[-117.82427,34.20191],[-117.82375,34.20191],[-117.82346,34.20201],[-117.82268,34.20247],[-117.82179,34.20285],[-117.82003,34.20405],[-117.81957,34.20448],[-117.81954,34.20504],[-117.81895,34.20538],[-117.81884,34.20582],[-117.81817,34.20597],[-117.81785,34.20614],[-117.81757,34.20654],[-117.81739,34.20663],[-117.81716,34.20659],[-117.81686,34.20637],[-117.81675,34.20568],[-117.81657,34.20551],[-117.816,34.20574],[-117.81546,34.20677],[-117.8151,34.20694],[-117.81453,34.20678],[-117.81286,34.20601],[-117.81187,34.20586],[-117.8114,34.20544],[-117.81105,34.20543],[-117.81053,34.20561],[-117.81024,34.20562],[-117.80996,34.20519],[-117.80925,34.2046],[-117.809,34.20417],[-117.80876,34.20404],[-117.80811,34.20395],[-117.80744,34.20421],[-117.80583,34.20441],[-117.8054,34.2044],[-117.80514,34.2043],[-117.80478,34.20433],[-117.80434,34.2048],[-117.80417,34.20551],[-117.80388,34.20562],[-117.80344,34.20558],[-117.80319,34.20632],[-117.80286,34.20647],[-117.80249,34.20648],[-117.80203,34.20664],[-117.80152,34.20707],[-117.80127,34.20763],[-117.80128,34.20785],[-117.80157,34.20813],[-117.80225,34.20834],[-117.80267,34.20871],[-117.80275,34.20891],[-117.80259,34.20929],[-117.80271,34.20964],[-117.80256,34.20983],[-117.80197,34.21007],[-117.8017,34.21009],[-117.80098,34.20991],[-117.80084,34.20999],[-117.80076,34.21021],[-117.80091,34.21043],[-117.80141,34.21084],[-117.80192,34.21181],[-117.80225,34.21222],[-117.80214,34.21286],[-117.80198,34.21299],[-117.80174,34.213],[-117.80106,34.21275],[-117.8003,34.21227],[-117.79993,34.21229],[-117.79963,34.21243],[-117.79946,34.21282],[-117.79964,34.2133],[-117.79948,34.21387],[-117.79925,34.21411],[-117.79873,34.21422],[-117.7986,34.21434],[-117.7986,34.21459],[-117.79879,34.21505],[-117.79866,34.21527],[-117.79817,34.21547],[-117.79813,34.21612],[-117.79792,34.21626],[-117.79681,34.21644],[-117.79671,34.21659],[-117.79662,34.21721],[-117.79589,34.21738],[-117.79559,34.21763],[-117.79555,34.2186],[-117.79477,34.21898],[-117.79426,34.21963],[-117.79401,34.21972],[-117.79366,34.21972],[-117.79343,34.21954],[-117.79317,34.21899],[-117.7924,34.21898],[-117.79212,34.21885],[-117.79206,34.21859],[-117.79235,34.21756],[-117.79196,34.21686],[-117.79167,34.21686],[-117.79133,34.21717],[-117.79109,34.21719],[-117.7907,34.2169],[-117.79024,34.21679],[-117.78994,34.21652],[-117.78911,34.21618],[-117.78874,34.21618],[-117.78851,34.21637],[-117.78847,34.21675],[-117.78931,34.2176],[-117.78946,34.21796],[-117.78934,34.21835],[-117.78894,34.21903],[-117.78889,34.21974],[-117.78852,34.22047],[-117.78856,34.22063],[-117.78889,34.22084],[-117.78894,34.22117],[-117.78877,34.22158],[-117.78845,34.22181],[-117.78766,34.22171],[-117.78733,34.22183],[-117.78712,34.22267],[-117.78719,34.22285],[-117.78783,34.2233],[-117.78808,34.22383],[-117.78776,34.22442],[-117.78714,34.22482],[-117.78712,34.2252],[-117.78767,34.22554],[-117.7885,34.22565],[-117.78877,34.22588],[-117.78863,34.22618],[-117.78786,34.22662],[-117.78773,34.22681],[-117.78777,34.22719],[-117.78763,34.22756],[-117.78804,34.22799],[-117.78794,34.22827],[-117.78659,34.22821],[-117.78595,34.22835],[-117.78525,34.22804],[-117.78471,34.2282],[-117.78288,34.22816],[-117.78242,34.22798],[-117.78201,34.22743],[-117.78144,34.22725],[-117.78113,34.22735],[-117.78074,34.22775],[-117.78028,34.22788],[-117.77951,34.22768],[-117.77866,34.22763],[-117.77836,34.22749],[-117.77761,34.22688],[-117.77593,34.22652],[-117.77555,34.22669],[-117.77549,34.22696],[-117.77561,34.22723],[-117.77613,34.22752],[-117.77626,34.22771],[-117.77624,34.22862],[-117.77639,34.22898],[-117.77626,34.22921],[-117.77422,34.22984],[-117.77312,34.22952],[-117.77217,34.2289],[-117.77198,34.22892],[-117.77198,34.22906]]]}}
