{"type":"Feature","properties":{"id":"grizzly","name":"Grizzly Peak Boulevard","difficulty":2,"character":"Low speed"},"geometry":{"type":"MultiLineString","coordinates":[[[-122.26952,37.90433],[-122.26959,37.90444],[-122.26953,37.90488],[-122.26947,37.90463],[-122.26956,37.90352],[-122.26728,37.9022],[-122.26712,37.9019],[-122.26671,37.90157],[-122.26642,37.90093],[-122.26542,37.89951],[-122.26511,37.89926],[-122.26401,37.89899],[-122.26331,37.89853],[-122.26256,37.89832],[-122.26217,37.8981],[-122.26193,37.89771],[-122.26182,37.89715],[-122.26148,37.89686],[-122.26095,37.89672],[-122.26065,37.89652],[-122.26032,37.89575],[-122.25963,37.89482],[-122.25918,37.89448],[-122.258,37.89392],[-122.25756,37.89279],[-122.25723,37.89262],[-122.25665,37.89259],[-122.25594,37.89241],[-122.25538,37.89187],[-122.25454,37.89127],[-122.25381,37.89093],[-122.25281,37.89068],[-122.2524,37.89041],[-122.25185,37.88916],[-122.25175,37.88791],[-122.2515,37.88728],[-122.25047,37.88626],[-122.24899,37.88565],[-122.24863,37.88501],[-122.24785,37.8844],[-122.24787,37.88408],[-122.24859,37.88366],[-122.24886,37.88309],[-122.2488,37.8827],[-122.24841,37.88238],[-122.24796,37.88223],[-122.24738,37.88237],[-122.24728,37.88252],[-122.2473,37.88298],[-122.24698,37.88322],[-122.24571,37.88298],[-122.24519,37.88283],[-122.244,37.8822],[-122.24373,37.88186],[-122.24384,37.88136],[-122.24379,37.88116],[-122.24359,37.88105],[-122.24313,37.88103],[-122.24288,37.88117],[-122.24256,37.88158],[-122.24195,37.88188],[-122.24154,37.8826],[-122.24041,37.88304],[-122.24025,37.88327],[-122.24017,37.8837],[-122.24023,37.88431],[-122.23993,37.88442],[-122.2394,37.88426],[-122.23913,37.88406],[-122.2391,37.8838],[-122.2394,37.8835],[-122.23945,37.88325],[-122.23915,37.88289],[-122.23865,37.88259],[-122.23821,37.88257],[-122.23794,37.88264],[-122.23705,37.88355],[-122.23652,37.88373],[-122.23628,37.88362],[-122.23612,37.88333],[-122.23602,37.88216],[-122.23573,37.88202],[-122.235,37.88207],[-122.23432,37.88148],[-122.23356,37.88144],[-122.23294,37.88125],[-122.23222,37.88148],[-122.23183,37.8815],[-122.23057,37.88096],[-122.23019,37.88067],[-122.2296,37.8804],[-122.22645,37.87962],[-122.2258,37.87964],[-122.22441,37.88032],[-122.22393,37.88041],[-122.22349,37.88031],[-122.22178,37.87958],[-122.22154,37.87921],[-122.22133,37.87849],[-122.22053,37.87782],[-122.22043,37.87709],[-122.22023,37.87668],[-122.22036,37.87633],[-122.22156,37.87555],[-122.22178,37.8753],[-122.22181,37.87505],[-122.2216,37.8744],[-122.22085,37.87384],[-122.22069,37.87267],[-122.22052,37.8724],[-122.22028,37.87228],[-122.21947,37.87241],[-122.21927,37.87233],[-122.21856,37.87156],[-122.21886,37.8709],[-122.21883,37.87069],[-122.21723,37.86927],[-122.21683,37.86861],[-122.21621,37.86828],[-122.21612,37.86809],[-122.21629,37.86786],[-122.21652,37.86784],[-122.21716,37.86828],[-122.21761,37.86839],[-122.21941,37.86808],[-122.21991,37.8678],[-122.2203,37.86703],[-122.22132,37.8663],[-122.22182,37.86627],[-122.22225,37.86649],[-122.22264,37.86649],[-122.22279,37.86628],[-122.22274,37.86573],[-122.22264,37.86553],[-122.22198,37.86522],[-122.22207,37.8645],[-122.222,37.86424],[-122.22183,37.86416],[-122.22157,37.86417],[-122.22128,37.8646],[-122.22112,37.86467],[-122.22085,37.86462],[-122.22034,37.86433],[-122.2196,37.8637],[-122.21934,37.86335],[-122.21868,37.86298],[-122.21746,37.86194],[-122.21714,37.86127],[-122.21639,37.86051],[-122.2163,37.8599],[-122.21613,37.8596],[-122.21448,37.85862],[-122.21392,37.85802],[-122.2131,37.85784],[-122.21263,37.85739],[-122.21196,37.85695],[-122.21172,37.85643],[-122.2117,37.85588],[-122.21115,37.85533],[-122.21107,37.85513],[-122.21104,37.85463],[-122.21122,37.85422],[-122.21119,37.85404],[-122.21091,37.85345],[-122.21038,37.85296],[-122.21034,37.85248],[-122.2102,37.85228],[-122.20893,37.8516],[-122.20792,37.85175],[-122.20711,37.85152],[-122.20545,37.85157],[-122.20447,37.85171],[-122.20268,37.85123],[-122.2023,37.85084],[-122.20228,37.8501],[-122.20162,37.84958],[-122.20137,37.84884],[-122.20073,37.84821],[-122.20064,37.84759]],[[-122.27114,37.90905],[-122.27097,37.90889],[-122.26971,37.90658],[-122.26953,37.90488]]]}}
