{"type":"Feature","properties":{"id":"hamilton","name":"Mount Hamilton Road","difficulty":3,"character":"Technical"},"geometry":{"type":"MultiLineString","coordinates":[[[-121.61485,37.34895],[-121.61509,37.34887],[-121.61554,37.34917],[-121.61604,37.34898],[-121.61615,37.34914],[-121.61616,37.34966],[-121.61635,37.34975],[-121.6172,37.34883],[-121.61743,37.34877],[-121.61862,37.34922],[-121.61907,37.34973],[-121.61953,37.34993],[-121.6198,37.34994],[-121.62009,37.34974],[-121.62029,37.34975],[-121.62054,37.35023],[-121.62068,37.35029],[-121.62076,37.35021],[-121.62062,37.34994],[-121.62062,37.34962],[-121.62041,37.34929],[-121.62051,37.34899],[-121.62066,37.34887],[-121.62081,37.3489],[-121.62094,37.34946],[-121.62136,37.34957],[-121.62181,37.34916],[-121.62197,37.34855],[-121.62335,37.34839],[-121.62355,37.34791],[-121.62335,37.34725],[-121.62376,37.34659],[-121.62436,37.34669],[-121.62503,37.34654],[-121.62571,37.34665],[-121.62591,37.34648],[-121.62599,37.34595],[-121.62684,37.34559],[-121.6272,37.34563],[-121.62767,37.3455],[-121.62852,37.346],[-121.62908,37.34596],[-121.63018,37.34604],[-121.63081,37.34583],[-121.63145,37.34524],[-121.63193,37.34545],[-121.63221,37.34547],[-121.63277,37.34497],[-121.63401,37.34445],[-121.63461,37.3439],[-121.63568,37.34335],[-121.63636,37.34323],[-121.63692,37.34279],[-121.63758,37.34253],[-121.63802,37.34221],[-121.6393,37.34244],[-121.63984,37.34235],[-121.64038,37.34211],[-121.64111,37.34194],[-121.64344,37.34233],[-121.6438,37.34195],[-121.64382,37.34159],[-121.64414,37.34082],[-121.64383,37.33896],[-121.64364,37.33846],[-121.64373,37.33781],[-121.64402,37.33726],[-121.64417,37.33728],[-121.64546,37.33851],[-121.64526,37.33957],[-121.64503,37.34019],[-121.64534,37.3417],[-121.64531,37.3423],[-121.64549,37.3424],[-121.64604,37.34238],[-121.6464,37.34205],[-121.6469,37.34177],[-121.64702,37.34185],[-121.64713,37.34228],[-121.64755,37.34249],[-121.64756,37.34241],[-121.64722,37.34215],[-121.64723,37.34194],[-121.64748,37.34148],[-121.64805,37.34096],[-121.64805,37.34053],[-121.64817,37.34046],[-121.64828,37.34054],[-121.64833,37.34101],[-121.64795,37.34141],[-121.64787,37.34164],[-121.64901,37.34163],[-121.64983,37.34225],[-121.65023,37.34225],[-121.65044,37.34193],[-121.65037,37.34101],[-121.6505,37.34093],[-121.65094,37.34095],[-121.65105,37.34064],[-121.65117,37.34058],[-121.65172,37.34091],[-121.65187,37.34084],[-121.65157,37.33987],[-121.65191,37.33927],[-121.65227,37.33918],[-121.65268,37.33935],[-121.65287,37.33935],[-121.65331,37.33889],[-121.65372,37.33893],[-121.65387,37.33912],[-121.65384,37.3395],[-121.65457,37.33978],[-121.65478,37.34007],[-121.65494,37.34011],[-121.65502,37.33999],[-121.65494,37.33976],[-121.65451,37.33952],[-121.65437,37.33931],[-121.65437,37.33839],[-121.65422,37.33833],[-121.6538,37.3384],[-121.65307,37.3381],[-121.65331,37.33749],[-121.65325,37.33688],[-121.65337,37.3368],[-121.6535,37.33684],[-121.65372,37.33745],[-121.65359,37.33782],[-121.65389,37.33791],[-121.65424,37.33775],[-121.65462,37.33714],[-121.65488,37.33698],[-121.65518,37.33706],[-121.65548,37.3374],[-121.6565,37.33734],[-121.65666,37.33716],[-121.65678,37.33658],[-121.65717,37.33628],[-121.65738,37.3364],[-121.65765,37.33694],[-121.65813,37.33714],[-121.65829,37.33814],[-121.65812,37.33848],[-121.65733,37.33858],[-121.65664,37.33899],[-121.65664,37.3391],[-121.6571,37.3393],[-121.65717,37.33944],[-121.65694,37.34037],[-121.657,37.34087],[-121.6572,37.34083],[-121.65748,37.34035],[-121.65811,37.34014],[-121.65873,37.3402],[-121.65913,37.3405],[-121.65978,37.34064],[-121.6603,37.34045],[-121.66104,37.34053],[-121.66158,37.34036],[-121.66198,37.34007],[-121.66298,37.33992],[-121.66356,37.33944],[-121.66401,37.33889],[-121.66432,37.33872],[-121.66477,37.3389],[-121.66482,37.33916],[-121.66448,37.33936],[-121.66403,37.33948],[-121.66332,37.34042],[-121.66322,37.34093],[-121.66246,37.34121],[-121.66249,37.34136],[-121.66299,37.34187],[-121.66318,37.34184],[-121.66295,37.34148],[-121.66304,37.34127],[-121.66389,37.34101],[-121.66442,37.34058],[-121.66516,37.34069],[-121.66562,37.34056],[-121.6663,37.34082],[-121.66657,37.34103],[-121.66682,37.34105],[-121.66705,37.34058],[-121.66762,37.34027],[-121.66781,37.33969],[-121.66757,37.3395],[-121.6666,37.33922],[-121.66673,37.33863],[-121.66614,37.3383],[-121.6659,37.3377],[-121.66655,37.33707],[-121.66718,37.3369],[-121.6671,37.33644],[-121.66726,37.33613],[-121.66695,37.33563],[-121.66762,37.33503],[-121.66754,37.33494],[-121.66703,37.33509],[-121.66692,37.33503],[-121.66725,37.33456],[-121.66754,37.33362],[-121.66803,37.33308],[-121.66797,37.33294],[-121.6675,37.33265],[-121.66726,37.33264],[-121.6669,37.33282],[-121.66674,37.33272],[-121.66667,37.33255],[-121.66692,37.33214],[-121.66704,37.33098],[-121.66674,37.33055],[-121.66655,37.33047],[-121.66612,37.33056],[-121.66579,37.33084],[-121.66546,37.33077],[-121.66489,37.32944],[-121.66505,37.32927],[-121.66556,37.32901],[-121.66619,37.32892],[-121.66636,37.32878],[-121.66633,37.32858],[-121.66603,37.32836],[-121.66594,37.32754],[-121.66658,37.32726],[-121.66744,37.32735],[-121.66778,37.3272],[-121.66789,37.32702],[-121.66786,37.3263],[-121.66796,37.3262],[-121.669,37.3263],[-121.6693,37.32688],[-121.66973,37.32728],[-121.67066,37.32766],[-121.67091,37.32767],[-121.6711,37.32759],[-121.67111,37.32735],[-121.66987,37.32599],[-121.66874,37.32441],[-121.6687,37.32413],[-121.66897,37.32361],[-121.66939,37.32343],[-121.66959,37.32351],[-121.67104,37.32478],[-121.67323,37.32562],[-121.6744,37.32784],[-121.67608,37.32897],[-121.67687,37.32903],[-121.67707,37.32943],[-121.67736,37.32949],[-121.67896,37.32913],[-121.68243,37.32864],[-121.68275,37.32867],[-121.68302,37.32881],[-121.68322,37.32946],[-121.68416,37.32958],[-121.68426,37.33001],[-121.68455,37.33027],[-121.68493,37.33039],[-121.68559,37.33029],[-121.68587,37.33042],[-121.68604,37.33077],[-121.68597,37.33094],[-121.68522,37.3311],[-121.68512,37.3312],[-121.68559,37.3316],[-121.68601,37.33178],[-121.68676,37.33185],[-121.68725,37.33203],[-121.68811,37.33178],[-121.68812,37.33129],[-121.68823,37.33112],[-121.68845,37.33103],[-121.689,37.33105],[-121.68951,37.33075],[-121.6896,37.33053],[-121.68926,37.32984],[-121.68943,37.32957],[-121.6899,37.32943],[-121.69044,37.32964],[-121.69063,37.32963],[-121.69109,37.32939],[-121.69117,37.32904],[-121.69129,37.32892],[-121.69206,37.32907],[-121.69221,37.32904],[-121.6924,37.3288],[-121.69296,37.32885],[-121.69309,37.329],[-121.69303,37.32927],[-121.69221,37.3297],[-121.69206,37.32992],[-121.69211,37.33002],[-121.69276,37.33022],[-121.69308,37.33068],[-121.69391,37.33062],[-121.69429,37.33073],[-121.69517,37.33078],[-121.69532,37.33104],[-121.6952,37.33152],[-121.69531,37.3316],[-121.69563,37.33157],[-121.69627,37.33132],[-121.69644,37.33135],[-121.69651,37.33155],[-121.6964,37.33197],[-121.69721,37.33234],[-121.69754,37.33305],[-121.69723,37.33329],[-121.6965,37.33346],[-121.69656,37.33385],[-121.69642,37.33421],[-121.69681,37.33422],[-121.69721,37.3341],[-121.6984,37.33466],[-121.69887,37.33445],[-121.69905,37.33445],[-121.69963,37.3356],[-121.69979,37.33569],[-121.7005,37.33544],[-121.70087,37.33497],[-121.70164,37.33447],[-121.70272,37.33515],[-121.70464,37.33568],[-121.70568,37.33636],[-121.70647,37.33652],[-121.70674,37.33667],[-121.70721,37.33722],[-121.70716,37.3378],[-121.70818,37.33801],[-121.70914,37.33856],[-121.70953,37.33929],[-121.70993,37.33967],[-121.71057,37.33998],[-121.71138,37.34012],[-121.7124,37.34065],[-121.71369,37.34099],[-121.71484,37.34195],[-121.71536,37.3422],[-121.71623,37.34229],[-121.7203,37.34143],[-121.72071,37.34141],[-121.72126,37.34154],[-121.72177,37.34188],[-121.72223,37.34255],[-121.72371,37.34348],[-121.72606,37.34621],[-121.72689,37.34667],[-121.72789,37.34803],[-121.72878,37.34844],[-121.72978,37.34906],[-121.73118,37.34952],[-121.73172,37.34983],[-121.7331,37.35108],[-121.73389,37.35166],[-121.73427,37.3521],[-121.73491,37.35222],[-121.73539,37.35264],[-121.73643,37.35296],[-121.73672,37.35287],[-121.73712,37.35251],[-121.73732,37.35249],[-121.73785,37.35277],[-121.73812,37.35348],[-121.73865,37.35376],[-121.73892,37.35378],[-121.73958,37.35363],[-121.74102,37.35377],[-121.74105,37.35393],[-121.74077,37.3542],[-121.74074,37.35438],[-121.7415,37.35509],[-121.74239,37.3555],[-121.74355,37.3555],[-121.744,37.35586],[-121.74495,37.35573],[-121.74521,37.35614],[-121.74501,37.35657],[-121.74503,37.3568],[-121.74551,37.35704],[-121.74569,37.35737],[-121.74657,37.3574],[-121.74727,37.35779],[-121.74786,37.3578],[-121.74791,37.35789],[-121.74773,37.35819],[-121.74796,37.35845],[-121.74829,37.35849],[-121.74886,37.35834],[-121.74943,37.35841],[-121.74993,37.35879],[-121.75065,37.35877],[-121.75126,37.35911],[-121.75216,37.35915],[-121.75257,37.35937],[-121.75321,37.35936],[-121.75407,37.35965],[-121.75423,37.35996],[-121.75417,37.36047],[-121.75494,37.36056],[-121.75521,37.36072],[-121.75517,37.36089],[-121.7546,37.36124],[-121.75439,37.36167],[-121.75481,37.36211],[-121.75496,37.36263],[-121.75551,37.36295],[-121.75688,37.36326],[-121.75796,37.36311],[-121.76029,37.3632],[-121.76094,37.36348],[-121.7612,37.36395],[-121.76271,37.36406],[-121.763,37.3642],[-121.76313,37.36449],[-121.76317,37.3648],[-121.76337,37.36504],[-121.76446,37.36552],[-121.76479,37.36575],[-121.76524,37.36628],[-121.76543,37.36684],[-121.76648,37.36763],[-121.76752,37.36821],[-121.76756,37.36837],[-121.7674,37.36883],[-121.76752,37.36929],[-121.76816,37.36952],[-121.76834,37.3699],[-121.76895,37.37021],[-121.769,37.37037],[-121.76878,37.37081],[-121.76964,37.37129],[-121.76959,37.37183],[-121.77001,37.37205],[-121.77091,37.37207],[-121.77146,37.37224],[-121.77202,37.37293],[-121.77213,37.37321],[-121.77203,37.3736],[-121.77164,37.37399],[-121.77166,37.37427],[-121.77208,37.37481],[-121.77332,37.3752],[-121.77349,37.37537],[-121.77345,37.3757],[-121.77313,37.37629],[-121.77317,37.37645],[-121.77459,37.37692],[-121.7754,37.37742],[-121.77569,37.37785],[-121.77613,37.37792],[-121.77661,37.37776],[-121.77741,37.37816],[-121.77842,37.37817],[-121.77901,37.3784],[-121.77955,37.37821],[-121.78007,37.37838],[-121.78086,37.37848],[-121.78298,37.37771],[-121.78336,37.37768],[-121.78392,37.3779],[-121.78514,37.37735],[-121.78586,37.37737],[-121.78665,37.37716],[-121.78714,37.37689],[-121.78851,37.37576],[-121.78902,37.37593],[-121.7893,37.37653],[-121.78962,37.37674],[-121.78976,37.3767],[-121.78997,37.37639],[-121.79038,37.37623],[-121.7908,37.37624],[-121.79139,37.37644],[-121.7918,37.37643],[-121.79231,37.3759],[-121.79327,37.3757],[-121.79612,37.37589],[-121.7971,37.37634],[-121.79736,37.37638],[-121.79853,37.3761],[-121.79888,37.3759],[-121.79891,37.37564],[-121.7987,37.37514],[-121.7982,37.37445],[-121.79827,37.37428],[-121.79848,37.37424],[-121.79907,37.37489],[-121.80035,37.3758],[-121.80183,37.37717],[-121.80232,37.37727],[-121.80319,37.37702],[-121.80411,37.37707],[-121.80612,37.37787],[-121.80745,37.37804],[-121.80889,37.37859],[-121.80982,37.37873],[-121.81036,37.37891],[-121.81091,37.37936],[-121.81174,37.38082],[-121.81282,37.38195],[-121.81318,37.38218],[-121.81397,37.38243],[-121.81435,37.38312],[-121.8146,37.38337],[-121.81568,37.38394],[-121.81606,37.38403]],[[-121.76313,37.36449],[-121.76308,37.36414],[-121.76271,37.36406]]]}}
