{"type":"Feature","properties":{"id":"hecker-pass","name":"Hecker Pass Highway \u00b7 Hwy 152","difficulty":2,"character":"Medium speed"},"geometry":{"type":"MultiLineString","coordinates":[[[-121.59969,37.01323],[-121.60147,37.01274],[-121.60796,37.01193],[-121.61674,37.01187],[-121.61745,37.01184],[-121.61789,37.01171],[-121.6183,37.01186],[-121.62004,37.01187],[-121.62825,37.01164],[-121.62901,37.01171],[-121.62968,37.01189],[-121.6329,37.01325],[-121.63431,37.01346],[-121.64492,37.01354],[-121.65034,37.01346],[-121.65328,37.01341],[-121.65433,37.01329],[-121.65669,37.01249],[-121.66026,37.01194],[-121.66252,37.01115],[-121.66375,37.0106],[-121.66536,37.00967],[-121.66628,37.00892],[-121.66892,37.00512],[-121.66934,37.00483],[-121.67201,37.00408],[-121.67266,37.00338],[-121.6729,37.00325],[-121.67499,37.00306],[-121.67639,37.00332],[-121.67976,37.00362],[-121.68077,37.00391],[-121.68127,37.00392],[-121.68216,37.00375],[-121.68337,37.00315],[-121.6845,37.00276],[-121.68502,37.00238],[-121.68531,37.00203],[-121.68568,37.00097],[-121.68633,36.99982],[-121.68673,36.9987],[-121.68669,36.99782],[-121.68679,36.99746],[-121.68704,36.99702],[-121.68746,36.99657],[-121.68834,36.99586],[-121.68836,36.9956],[-121.68817,36.99514],[-121.6882,36.99471],[-121.68886,36.99296],[-121.68933,36.99235],[-121.68971,36.99206],[-121.69045,36.99176],[-121.69099,36.99165],[-121.69336,36.9915],[-121.6938,36.99137],[-121.69415,36.99118],[-121.69511,36.99021],[-121.69642,36.98963],[-121.69739,36.98956],[-121.69849,36.98975],[-121.69994,36.99035],[-121.70263,36.99185],[-121.70438,36.99197],[-121.70619,36.99226],[-121.70644,36.99244],[-121.70666,36.99308],[-121.70675,36.99377],[-121.70654,36.99425],[-121.70658,36.9945],[-121.70689,36.99475],[-121.70726,36.99489],[-121.70824,36.99504],[-121.71099,36.99459],[-121.71396,36.99475],[-121.71434,36.99484],[-121.71498,36.99542],[-121.71519,36.9959],[-121.71484,36.99662],[-121.71439,36.99709],[-121.71442,36.99727],[-121.71454,36.99734],[-121.71474,36.99731],[-121.71506,36.99712],[-121.7159,36.9963],[-121.71712,36.99601],[-121.71785,36.99565]]]}}
