{"type":"Feature","properties":{"id":"hicks","name":"Hicks Road","difficulty":3,"character":"Technical"},"geometry":{"type":"MultiLineString","coordinates":[[[-121.90385,37.22656],[-121.90545,37.22593],[-121.90629,37.22544],[-121.90633,37.22516],[-121.90598,37.2247],[-121.90596,37.22408],[-121.907,37.22217],[-121.90723,37.22194],[-121.90825,37.22171],[-121.90845,37.22159],[-121.90863,37.22137],[-121.90882,37.22078],[-121.9095,37.22024],[-121.9097,37.21994],[-121.90958,37.21936],[-121.90901,37.21853],[-121.90917,37.2182],[-121.90955,37.21791],[-121.90998,37.21775],[-121.91235,37.21723],[-121.91268,37.2171],[-121.91301,37.21674],[-121.91347,37.21592],[-121.9135,37.21545],[-121.91303,37.2149],[-121.91278,37.21417],[-121.91241,37.21356],[-121.91152,37.21319],[-121.91015,37.21316],[-121.90968,37.21306],[-121.9095,37.21289],[-121.90936,37.21212],[-121.90828,37.21162],[-121.90691,37.21066],[-121.90658,37.21064],[-121.90586,37.21099],[-121.9051,37.21103],[-121.90468,37.21091],[-121.90408,37.21047],[-121.90368,37.20972],[-121.90253,37.20911],[-121.90215,37.20882],[-121.90188,37.20794],[-121.90156,37.2076],[-121.90047,37.20723],[-121.89939,37.20642],[-121.89849,37.20629],[-121.89759,37.20638],[-121.89715,37.20624],[-121.89688,37.20593],[-121.89676,37.20506],[-121.89628,37.20449],[-121.89359,37.2037],[-121.89226,37.20358],[-121.89081,37.20299],[-121.88966,37.20292],[-121.88812,37.20214],[-121.88742,37.20224],[-121.88672,37.20215],[-121.88553,37.20146],[-121.88444,37.20141],[-121.8832,37.20095],[-121.88234,37.19929],[-121.88154,37.1984],[-121.88131,37.1983],[-121.88057,37.19834],[-121.87993,37.19805],[-121.87968,37.19778],[-121.87962,37.19733],[-121.87878,37.19706],[-121.87839,37.19683],[-121.8781,37.19625],[-121.87771,37.19586],[-121.87678,37.19573],[-121.87562,37.19524],[-121.87513,37.19481],[-121.87438,37.19455],[-121.8743,37.19429],[-121.87474,37.19352],[-121.87462,37.19286],[-121.87497,37.19242],[-121.87508,37.19199],[-121.87498,37.19182],[-121.87457,37.19156],[-121.87438,37.19125],[-121.87394,37.19109],[-121.87373,37.1909],[-121.87351,37.19019],[-121.8735,37.18962],[-121.87321,37.18905],[-121.87323,37.18877],[-121.87288,37.1883],[-121.87295,37.1874],[-121.87262,37.18671],[-121.87197,37.18606],[-121.87172,37.18554],[-121.87212,37.18385],[-121.87268,37.18323],[-121.87357,37.18244],[-121.87371,37.1812],[-121.87354,37.18112],[-121.87328,37.18122],[-121.87282,37.18196],[-121.87168,37.18201],[-121.87096,37.18214],[-121.87006,37.18264],[-121.86962,37.18272],[-121.86872,37.18222],[-121.86736,37.18211],[-121.86647,37.18175],[-121.86596,37.1814],[-121.86533,37.18019],[-121.86501,37.17996],[-121.86455,37.17983],[-121.86374,37.17996],[-121.86347,37.17986],[-121.86337,37.17963],[-121.86343,37.17951],[-121.86496,37.17901],[-121.86541,37.17865],[-121.86606,37.17844],[-121.86623,37.17815],[-121.86597,37.17795],[-121.8649,37.17799],[-121.86464,37.17786],[-121.86431,37.17755],[-121.8641,37.17702],[-121.86342,37.17627],[-121.86333,37.17596],[-121.8636,37.17535],[-121.86355,37.17516],[-121.8627,37.17414],[-121.86242,37.17302],[-121.86203,37.17211],[-121.86142,37.17156],[-121.86097,37.17093],[-121.86097,37.17032],[-121.86081,37.16966],[-121.86058,37.16936],[-121.86023,37.1691],[-121.85964,37.16888],[-121.85899,37.16843],[-121.85823,37.16732],[-121.8576,37.16702],[-121.85692,37.1664],[-121.85634,37.16629],[-121.85567,37.16575],[-121.85433,37.16533],[-121.85389,37.1653],[-121.85315,37.16551],[-121.85245,37.16554],[-121.85076,37.16502],[-121.85018,37.1647],[-121.84968,37.1642],[-121.84708,37.16309],[-121.84661,37.16273],[-121.8449,37.1622],[-121.84454,37.16167],[-121.84355,37.16144],[-121.84307,37.16102],[-121.84277,37.16089]]]}}
