{"type":"Feature","properties":{"id":"highway-128","name":"Highway 128 \u00b7 Lake Berryessa","difficulty":2,"character":"Medium speed"},"geometry":{"type":"MultiLineString","coordinates":[[[-122.00108,38.51401],[-122.01691,38.5083],[-122.01784,38.50778],[-122.01829,38.50738],[-122.01866,38.50685],[-122.01892,38.50571],[-122.01767,38.49898],[-122.01775,38.49824],[-122.01818,38.49747],[-122.02072,38.49559],[-122.0216,38.49517],[-122.02232,38.49505],[-122.02425,38.49509],[-122.02846,38.49465],[-122.02999,38.49481],[-122.03125,38.49532],[-122.03307,38.49632],[-122.03446,38.4975],[-122.03702,38.49889],[-122.03901,38.50111],[-122.03962,38.50195],[-122.04037,38.5036],[-122.04152,38.50684],[-122.04304,38.50849],[-122.04491,38.51005],[-122.04668,38.5107],[-122.04821,38.51104],[-122.04931,38.51194],[-122.05061,38.51257],[-122.05136,38.51305],[-122.05367,38.51501],[-122.0553,38.51688],[-122.05591,38.51739],[-122.05655,38.51764],[-122.05754,38.51773],[-122.05897,38.5175],[-122.0603,38.51676],[-122.06085,38.51664],[-122.06218,38.51655],[-122.06371,38.51597],[-122.06519,38.51584],[-122.06768,38.51485],[-122.07004,38.51453],[-122.07271,38.51459],[-122.07417,38.51424],[-122.07747,38.5149],[-122.07906,38.51496],[-122.0804,38.51539],[-122.08103,38.51546],[-122.08288,38.51537],[-122.08525,38.51492],[-122.08652,38.51489],[-122.08754,38.51516],[-122.08881,38.51592],[-122.08948,38.5162],[-122.09084,38.51644],[-122.09147,38.51643],[-122.09266,38.51583],[-122.09524,38.51343],[-122.09576,38.51266],[-122.0964,38.51118],[-122.09664,38.50934],[-122.09679,38.50912],[-122.09714,38.50897],[-122.09753,38.509],[-122.09785,38.5092],[-122.09807,38.51009],[-122.09916,38.51121],[-122.09963,38.51147],[-122.10072,38.51176],[-122.10211,38.51173],[-122.10357,38.51217],[-122.10472,38.51197],[-122.10608,38.5122],[-122.10886,38.51153],[-122.10963,38.51083],[-122.11054,38.51047],[-122.11113,38.50958],[-122.11209,38.5092],[-122.11324,38.50787],[-122.11324,38.50742],[-122.113,38.50709],[-122.1127,38.50691],[-122.11174,38.50661],[-122.11138,38.5063],[-122.1113,38.50583],[-122.11152,38.50547],[-122.11216,38.50522],[-122.11457,38.50528],[-122.11496,38.50518],[-122.11851,38.50234],[-122.11888,38.50194],[-122.1213,38.49823],[-122.1255,38.49311],[-122.12602,38.49205],[-122.12664,38.48976],[-122.127,38.48907],[-122.12765,38.48845],[-122.13017,38.48691],[-122.13063,38.48626],[-122.13114,38.48497],[-122.13141,38.48454],[-122.13351,38.48295],[-122.13415,38.48152],[-122.13519,38.48061],[-122.13528,38.48034],[-122.13512,38.47957],[-122.13517,38.47911],[-122.1355,38.47872],[-122.13615,38.4783],[-122.1364,38.47745],[-122.13662,38.47713],[-122.13723,38.47679],[-122.13784,38.47672],[-122.13979,38.47716],[-122.14023,38.47716],[-122.14083,38.4768],[-122.14127,38.47599],[-122.14158,38.47572],[-122.14193,38.4756],[-122.14295,38.4755],[-122.14338,38.47523],[-122.14362,38.47475],[-122.14357,38.47441],[-122.1416,38.47128],[-122.1416,38.47016],[-122.14179,38.46974],[-122.14215,38.46953],[-122.14264,38.46944],[-122.14432,38.46971],[-122.14514,38.47001],[-122.14573,38.47001],[-122.14618,38.46983],[-122.14657,38.46936],[-122.14707,38.46634],[-122.14735,38.46597],[-122.14772,38.4658],[-122.14853,38.46585],[-122.14953,38.46664],[-122.15066,38.46691],[-122.15154,38.46724],[-122.15202,38.46719],[-122.15252,38.46682],[-122.15264,38.46647],[-122.15256,38.46459],[-122.15319,38.46329],[-122.15304,38.46266],[-122.15305,38.46191],[-122.15265,38.45819],[-122.15283,38.45548],[-122.15268,38.45481],[-122.15205,38.45356],[-122.15188,38.45281],[-122.15196,38.45023],[-122.15183,38.44521],[-122.15208,38.44088],[-122.15238,38.44005],[-122.1536,38.43823],[-122.1539,38.4374],[-122.15391,38.43676],[-122.15372,38.43571],[-122.15311,38.43419],[-122.15321,38.4333],[-122.15448,38.43152],[-122.15586,38.43032],[-122.15656,38.43006],[-122.15712,38.43011],[-122.15759,38.43034],[-122.15892,38.43145],[-122.16151,38.4343],[-122.16279,38.43519],[-122.16347,38.43551],[-122.1647,38.43574],[-122.17147,38.43623],[-122.17235,38.43654],[-122.17367,38.43742],[-122.17466,38.4377],[-122.17549,38.43764],[-122.17788,38.43714],[-122.17889,38.43722],[-122.18216,38.43842],[-122.18455,38.43879],[-122.18538,38.43902],[-122.1871,38.43975],[-122.18893,38.44093],[-122.19307,38.44265],[-122.19391,38.44312],[-122.19473,38.44382],[-122.19577,38.44515],[-122.19652,38.44555],[-122.19656,38.44617],[-122.19687,38.44661],[-122.19736,38.44704],[-122.19805,38.44747],[-122.20229,38.44946],[-122.20277,38.44981],[-122.20329,38.45052],[-122.20378,38.45193],[-122.20453,38.45272],[-122.20546,38.45319],[-122.20816,38.45395],[-122.20931,38.4545],[-122.22234,38.46293],[-122.22331,38.46369],[-122.22421,38.4649],[-122.22644,38.47006],[-122.22727,38.47128],[-122.22799,38.47193],[-122.22869,38.47237],[-122.23328,38.47464],[-122.23437,38.47529],[-122.23486,38.47571],[-122.23551,38.4765],[-122.23705,38.47955],[-122.23826,38.48113],[-122.24169,38.48391],[-122.2438,38.48516],[-122.24468,38.48602],[-122.24517,38.48685],[-122.24718,38.49183],[-122.24717,38.49238],[-122.24677,38.49373],[-122.24689,38.49416],[-122.24728,38.49461],[-122.24782,38.49491],[-122.24934,38.49538],[-122.25127,38.49657],[-122.25319,38.49686],[-122.25414,38.49731],[-122.25456,38.49762],[-122.25509,38.49833],[-122.25618,38.49888],[-122.25644,38.49929],[-122.25651,38.49988],[-122.25706,38.50067],[-122.25746,38.501],[-122.25822,38.50145],[-122.2594,38.50195],[-122.25982,38.50224],[-122.26184,38.50299],[-122.26367,38.50465],[-122.26555,38.50525],[-122.26592,38.50558],[-122.26612,38.5063],[-122.26654,38.50673],[-122.26692,38.50688],[-122.26789,38.50705],[-122.26868,38.50758],[-122.27106,38.5087],[-122.27164,38.50884],[-122.27253,38.50873],[-122.27345,38.50821],[-122.27397,38.50802],[-122.27522,38.50804],[-122.27616,38.50772],[-122.27672,38.50727],[-122.27751,38.50575],[-122.27805,38.50544],[-122.27854,38.50538],[-122.28055,38.50545],[-122.28386,38.50511],[-122.28812,38.50285],[-122.2916,38.50399],[-122.29337,38.50487],[-122.29436,38.50499],[-122.29533,38.50455],[-122.29571,38.50405],[-122.29622,38.50378],[-122.29657,38.50319],[-122.29664,38.50272],[-122.29592,38.50202],[-122.2954,38.50174],[-122.29476,38.50102],[-122.29452,38.50039],[-122.29447,38.49996],[-122.29415,38.4996],[-122.29408,38.49907],[-122.29376,38.49879],[-122.29353,38.49834],[-122.29261,38.49738],[-122.29262,38.49668],[-122.29334,38.49404],[-122.29368,38.49323],[-122.29401,38.49281],[-122.29468,38.49239],[-122.29485,38.49206],[-122.29503,38.49105],[-122.29535,38.49073],[-122.29627,38.49021],[-122.29655,38.4896],[-122.29731,38.48897],[-122.29765,38.48807],[-122.29865,38.48694],[-122.29909,38.48673],[-122.30078,38.48671],[-122.30166,38.48647],[-122.3025,38.48666],[-122.30316,38.48662],[-122.30456,38.48733],[-122.30578,38.48727],[-122.30673,38.48755],[-122.30745,38.48749],[-122.30807,38.48768],[-122.30927,38.48785],[-122.31137,38.48742],[-122.31224,38.4869],[-122.31282,38.48666],[-122.31316,38.48664],[-122.31415,38.4869],[-122.31507,38.48686],[-122.3165,38.48746],[-122.31765,38.48753],[-122.31905,38.48799],[-122.31954,38.48832],[-122.32053,38.48935],[-122.3209,38.48954],[-122.32238,38.48994],[-122.32277,38.48994],[-122.32368,38.48973],[-122.32637,38.49032],[-122.32717,38.49025],[-122.32803,38.48992],[-122.32868,38.48987],[-122.32945,38.49019],[-122.33017,38.49073],[-122.33139,38.49117],[-122.33239,38.49133],[-122.33343,38.49117],[-122.3347,38.49136],[-122.33594,38.49225],[-122.33643,38.49241],[-122.33746,38.49254],[-122.33785,38.49252],[-122.33954,38.49192],[-122.33987,38.49197],[-122.3414,38.49259],[-122.34193,38.49263],[-122.34271,38.49245],[-122.34382,38.49177],[-122.34615,38.49143],[-122.34721,38.49065],[-122.34837,38.4904],[-122.34879,38.49003],[-122.34899,38.48886],[-122.34922,38.48859],[-122.35126,38.48785],[-122.353,38.48745],[-122.35329,38.4873],[-122.35386,38.48564],[-122.35414,38.48545],[-122.35483,38.48522],[-122.35514,38.4849],[-122.35552,38.48321],[-122.3558,38.48294],[-122.35628,38.48287],[-122.35714,38.48324],[-122.35777,38.48324],[-122.35821,38.48298],[-122.35898,38.48221],[-122.36036,38.48168],[-122.3608,38.48163],[-122.36187,38.48188],[-122.36294,38.48151],[-122.36335,38.48147],[-122.36422,38.48172],[-122.3645,38.48171],[-122.36637,38.48064],[-122.36684,38.48066],[-122.36902,38.48121],[-122.37006,38.48114],[-122.37042,38.48098],[-122.37057,38.4808],[-122.37077,38.4798],[-122.37158,38.47908],[-122.37197,38.47895],[-122.37216,38.47899],[-122.3723,38.47914],[-122.37213,38.47982],[-122.37221,38.48006],[-122.37248,38.48023],[-122.37476,38.48017],[-122.37663,38.48065],[-122.37987,38.48201],[-122.38173,38.48291],[-122.3844,38.48472],[-122.38625,38.48578],[-122.38716,38.48608],[-122.38808,38.48621],[-122.38893,38.48645],[-122.39188,38.48755],[-122.39283,38.48768],[-122.39367,38.48766],[-122.39764,38.48672],[-122.39859,38.48681],[-122.39904,38.48695],[-122.40067,38.48769],[-122.40215,38.4879],[-122.40282,38.48784],[-122.40391,38.4875],[-122.40443,38.48691],[-122.4061,38.48742],[-122.40631,38.48665],[-122.40582,38.4858],[-122.40571,38.48478],[-122.40544,38.48437],[-122.40457,38.48358],[-122.40438,38.48322],[-122.404,38.48145],[-122.40422,38.48041],[-122.40413,38.47985],[-122.40395,38.47959],[-122.40262,38.47849],[-122.40049,38.47571],[-122.40013,38.4747],[-122.39894,38.47007],[-122.39927,38.46975],[-122.41033,38.46582],[-122.4124,38.46451],[-122.41397,38.46393],[-122.4228,38.45876]]]}}
