{"type":"Feature","properties":{"id":"highway-193-cool-georgetown","name":"Highway 193 \u00b7 Cool\u2013Georgetown\u2013Placerville","difficulty":3,"character":"Technical"},"geometry":{"type":"MultiLineString","coordinates":[[[-121.01593,38.88698],[-121.00728,38.88796],[-121.0063,38.88815],[-121.00534,38.88846],[-121.00403,38.88909],[-121.00175,38.89066],[-120.99584,38.89374],[-120.99144,38.89675],[-120.99083,38.89698],[-120.98907,38.89736],[-120.9871,38.89829],[-120.98592,38.89863],[-120.98515,38.89871],[-120.97066,38.89851],[-120.96902,38.89812],[-120.96327,38.89608],[-120.96262,38.89593],[-120.96147,38.89585],[-120.96085,38.89586],[-120.95981,38.89603],[-120.95839,38.89655],[-120.95801,38.89677],[-120.95448,38.89957],[-120.95324,38.90014],[-120.9525,38.90029],[-120.95135,38.90031],[-120.9503,38.90009],[-120.94958,38.89982],[-120.94812,38.89908],[-120.9468,38.89878],[-120.94576,38.89881],[-120.94274,38.89928],[-120.94186,38.89922],[-120.93957,38.89878],[-120.93845,38.8989],[-120.93763,38.89923],[-120.93475,38.90127],[-120.93414,38.90179],[-120.93363,38.90273],[-120.93333,38.90476],[-120.9331,38.90543],[-120.93268,38.90598],[-120.93212,38.90646],[-120.92798,38.90816],[-120.9271,38.9086],[-120.92409,38.91057],[-120.92187,38.91178],[-120.92109,38.91199],[-120.92028,38.91199],[-120.91949,38.91179],[-120.91867,38.91127],[-120.91811,38.91053],[-120.91732,38.90763],[-120.91728,38.90688],[-120.91764,38.90406],[-120.91745,38.90296],[-120.91705,38.90229],[-120.91546,38.90017],[-120.91492,38.89968],[-120.91399,38.89909],[-120.91292,38.89872],[-120.91237,38.89862],[-120.91119,38.89861],[-120.91054,38.8987],[-120.90969,38.89895],[-120.90393,38.90134],[-120.90326,38.90154],[-120.90125,38.90161],[-120.89984,38.90152],[-120.89858,38.90124],[-120.89732,38.90084],[-120.89587,38.90034],[-120.8951,38.89996],[-120.89444,38.89954],[-120.89295,38.89833],[-120.8909,38.89727],[-120.89048,38.89681],[-120.88999,38.8959],[-120.88968,38.89554],[-120.88916,38.89516],[-120.88852,38.89488],[-120.88719,38.89438],[-120.88542,38.89406],[-120.88335,38.89342],[-120.88275,38.89335],[-120.88158,38.89354],[-120.8805,38.89305],[-120.88006,38.89296],[-120.87954,38.89309],[-120.87894,38.89373],[-120.87857,38.89396],[-120.87621,38.89446],[-120.87473,38.89412],[-120.87252,38.89442],[-120.87165,38.89426],[-120.87019,38.89371],[-120.86917,38.89307],[-120.86773,38.89268],[-120.86662,38.89209],[-120.86592,38.89211],[-120.86476,38.89266],[-120.86419,38.8928],[-120.86271,38.89275],[-120.86178,38.89303],[-120.86119,38.89355],[-120.85652,38.89905],[-120.85578,38.89957],[-120.85529,38.89978],[-120.85346,38.90038],[-120.85304,38.9007],[-120.85148,38.90245],[-120.85127,38.90297],[-120.85134,38.90359],[-120.85268,38.90655],[-120.85258,38.90717],[-120.85239,38.9075],[-120.85216,38.90776],[-120.85141,38.90816],[-120.84863,38.90828],[-120.84721,38.90821],[-120.84645,38.90808],[-120.84146,38.90632],[-120.83722,38.90362],[-120.8359,38.90259],[-120.8353,38.90191],[-120.83247,38.89716],[-120.83013,38.8942],[-120.82987,38.89364],[-120.82983,38.89322],[-120.83028,38.88798],[-120.82993,38.88604],[-120.82987,38.885],[-120.83052,38.88093],[-120.83176,38.87907],[-120.83197,38.87856],[-120.83228,38.87622],[-120.83316,38.87419],[-120.83326,38.87341],[-120.83321,38.86609],[-120.83332,38.86378],[-120.83375,38.86165],[-120.8338,38.86085],[-120.83341,38.85953],[-120.83249,38.8572],[-120.83154,38.85582],[-120.82993,38.85404],[-120.82538,38.85025],[-120.82427,38.84894],[-120.82394,38.84833],[-120.82247,38.84452],[-120.82211,38.84384],[-120.81809,38.83785],[-120.81766,38.83701],[-120.81709,38.83374],[-120.81728,38.83304],[-120.81838,38.83122],[-120.81858,38.82888],[-120.81824,38.82819],[-120.81747,38.82751],[-120.8175,38.82705],[-120.81782,38.8267],[-120.81954,38.82623],[-120.81994,38.82594],[-120.82002,38.82556],[-120.81958,38.82393],[-120.81991,38.82252],[-120.82027,38.82235],[-120.82154,38.82226],[-120.8219,38.82195],[-120.82192,38.82154],[-120.8213,38.8204],[-120.82109,38.81912],[-120.82133,38.81799],[-120.8221,38.81711],[-120.82227,38.81671],[-120.82216,38.81526],[-120.82258,38.81383],[-120.82243,38.81346],[-120.82161,38.81229],[-120.82137,38.81068],[-120.82024,38.80868],[-120.81942,38.80638],[-120.8185,38.80531],[-120.81876,38.8039],[-120.81873,38.80195],[-120.81888,38.8011],[-120.81969,38.7997],[-120.82008,38.79842],[-120.82009,38.79789],[-120.81943,38.79626],[-120.81821,38.79488],[-120.8179,38.79437],[-120.81735,38.79201],[-120.81714,38.7902],[-120.8166,38.78863],[-120.81716,38.78476],[-120.81718,38.78335],[-120.81785,38.78233],[-120.81831,38.78203],[-120.8186,38.78159],[-120.81915,38.78138],[-120.81943,38.78116],[-120.81981,38.78016],[-120.8208,38.77965],[-120.82073,38.77914],[-120.82119,38.77866],[-120.82089,38.77824],[-120.82089,38.77805],[-120.82134,38.7778],[-120.82205,38.77769],[-120.82194,38.77727],[-120.822,38.77713],[-120.823,38.7769],[-120.82492,38.7769],[-120.82624,38.77661],[-120.82667,38.77663],[-120.82686,38.77655],[-120.82673,38.77575],[-120.82562,38.77547],[-120.82533,38.77523],[-120.82526,38.77491],[-120.82557,38.77452],[-120.82635,38.77417],[-120.82705,38.7737],[-120.82717,38.77336],[-120.82697,38.77312],[-120.82669,38.77301],[-120.82458,38.7724],[-120.82392,38.77241],[-120.8235,38.77269],[-120.82311,38.77343],[-120.82241,38.77342],[-120.82208,38.77353],[-120.82166,38.77461],[-120.82146,38.77473],[-120.81989,38.77383],[-120.81906,38.77278],[-120.81862,38.77289],[-120.8183,38.77334],[-120.81808,38.77345],[-120.81737,38.77336],[-120.81643,38.77288],[-120.8161,38.7728],[-120.81524,38.77292],[-120.81459,38.77334],[-120.81383,38.77337],[-120.81366,38.77327],[-120.81365,38.77313],[-120.8138,38.77305],[-120.81454,38.77314],[-120.81505,38.77269],[-120.81585,38.77226],[-120.81621,38.77225],[-120.81724,38.7726],[-120.81746,38.7726],[-120.81761,38.77241],[-120.8177,38.77192],[-120.81801,38.77165],[-120.81818,38.77122],[-120.81862,38.77098],[-120.81913,38.77093],[-120.82006,38.77132],[-120.82024,38.77126],[-120.82022,38.77103],[-120.81917,38.76987],[-120.81899,38.76941],[-120.81896,38.76895],[-120.82142,38.76657],[-120.8218,38.76584],[-120.82188,38.76509],[-120.82146,38.76316],[-120.82111,38.76284],[-120.82096,38.76247],[-120.82047,38.76189],[-120.82068,38.76134],[-120.82054,38.76104],[-120.82062,38.7606],[-120.82007,38.76019],[-120.82003,38.75942],[-120.81956,38.75908],[-120.81963,38.75871],[-120.8195,38.75836],[-120.81952,38.75757],[-120.81908,38.757],[-120.81892,38.75617],[-120.81925,38.75574],[-120.81928,38.75553],[-120.81921,38.75538],[-120.81868,38.75498],[-120.81856,38.75404],[-120.81813,38.75348],[-120.81838,38.75277],[-120.81753,38.75232],[-120.81687,38.75147],[-120.81689,38.75089],[-120.81748,38.75014],[-120.81739,38.74997],[-120.8169,38.74963],[-120.8168,38.74941],[-120.81693,38.7486],[-120.81671,38.74785],[-120.81705,38.74707],[-120.81641,38.74657],[-120.81624,38.74572],[-120.81558,38.74508],[-120.81541,38.74444],[-120.81391,38.74218],[-120.81288,38.74018],[-120.81129,38.73834],[-120.81116,38.7379],[-120.81131,38.73762]]]}}
