{"type":"Feature","properties":{"id":"highway-66-green-springs","name":"Highway 66 \u00b7 Green Springs Highway","difficulty":3,"character":"Technical"},"geometry":{"type":"MultiLineString","coordinates":[[[-122.69186,42.18553],[-122.68221,42.18533],[-122.68014,42.18542],[-122.67874,42.18532],[-122.66494,42.18536],[-122.66424,42.18544],[-122.66182,42.18616],[-122.66112,42.18623],[-122.66038,42.18607],[-122.6584,42.18513],[-122.65559,42.18255],[-122.65455,42.18159],[-122.65298,42.1799],[-122.65127,42.1773],[-122.65091,42.17686],[-122.65043,42.17649],[-122.64664,42.17475],[-122.64308,42.17327],[-122.64244,42.17288],[-122.64182,42.17234],[-122.64124,42.17151],[-122.64102,42.17062],[-122.64121,42.16879],[-122.64125,42.16559],[-122.63977,42.16285],[-122.63878,42.16216],[-122.63636,42.1608],[-122.63286,42.15905],[-122.62827,42.15532],[-122.62714,42.15425],[-122.62652,42.15329],[-122.62608,42.15194],[-122.62567,42.14561],[-122.62533,42.14383],[-122.6239,42.14099],[-122.62183,42.13741],[-122.62121,42.13658],[-122.62044,42.136],[-122.61982,42.13572],[-122.61841,42.13546],[-122.61665,42.13527],[-122.61549,42.13485],[-122.61459,42.13413],[-122.61384,42.13291],[-122.61321,42.13211],[-122.61244,42.13163],[-122.61156,42.13136],[-122.61062,42.1313],[-122.6056,42.13168],[-122.6044,42.13196],[-122.60331,42.13247],[-122.60261,42.13308],[-122.60218,42.13372],[-122.60194,42.13442],[-122.60159,42.13696],[-122.60115,42.13798],[-122.60074,42.13854],[-122.59987,42.13923],[-122.59842,42.13989],[-122.59703,42.14015],[-122.59547,42.1401],[-122.59122,42.13909],[-122.58987,42.13892],[-122.58884,42.13899],[-122.58754,42.13921],[-122.58564,42.13979],[-122.58413,42.13986],[-122.57999,42.13918],[-122.57729,42.13856],[-122.57578,42.13808],[-122.57403,42.13731],[-122.56949,42.1348],[-122.56767,42.13303],[-122.56711,42.13282],[-122.56521,42.13241],[-122.56269,42.13148],[-122.56114,42.13157],[-122.55876,42.13122],[-122.55832,42.13123],[-122.55805,42.13133],[-122.55617,42.13281],[-122.55551,42.13305],[-122.55464,42.13313],[-122.55385,42.13362],[-122.55332,42.13364],[-122.55275,42.13343],[-122.55168,42.13249],[-122.55088,42.13219],[-122.55068,42.13163],[-122.55047,42.13138],[-122.55008,42.13118],[-122.54934,42.13099],[-122.54867,42.13015],[-122.54805,42.12991],[-122.54715,42.12981],[-122.54683,42.1299],[-122.54547,42.13074],[-122.54367,42.13116],[-122.54287,42.13143],[-122.54264,42.13181],[-122.54301,42.13244],[-122.54296,42.13269],[-122.54183,42.13289],[-122.54098,42.13376],[-122.53996,42.13383],[-122.53874,42.13431],[-122.53841,42.13435],[-122.53622,42.13412],[-122.53532,42.13382],[-122.53475,42.13386],[-122.53388,42.13419],[-122.53304,42.13417],[-122.53274,42.13387],[-122.53305,42.13315],[-122.53313,42.13251],[-122.53326,42.13238],[-122.53387,42.13229],[-122.53421,42.13214],[-122.53454,42.13182],[-122.53476,42.1314],[-122.5348,42.13018],[-122.53507,42.13002],[-122.53627,42.12992],[-122.53744,42.12914],[-122.53774,42.12808],[-122.53836,42.12744],[-122.5384,42.12698],[-122.53804,42.12668],[-122.53704,42.12636],[-122.53625,42.12593],[-122.53509,42.1256],[-122.53425,42.12512],[-122.53327,42.12399],[-122.53273,42.12361],[-122.53206,42.12342],[-122.53108,42.12338],[-122.53052,42.12311],[-122.52937,42.12277],[-122.52822,42.123],[-122.52786,42.1232],[-122.52775,42.12349],[-122.5278,42.12419],[-122.52722,42.12456],[-122.52698,42.12482],[-122.52655,42.12604],[-122.52654,42.12634],[-122.52685,42.12706],[-122.52678,42.1273],[-122.52655,42.1276],[-122.52551,42.12835],[-122.52519,42.12846],[-122.52438,42.12842],[-122.52374,42.12809],[-122.52255,42.12789],[-122.52137,42.12719],[-122.51968,42.12658],[-122.51909,42.12654],[-122.5184,42.12629],[-122.51791,42.12573],[-122.5174,42.12466],[-122.51697,42.12443],[-122.5165,42.12437],[-122.51462,42.12447],[-122.51375,42.12477],[-122.51322,42.12516],[-122.51179,42.12528],[-122.51088,42.12487],[-122.50977,42.12406],[-122.50855,42.12397],[-122.50615,42.12348],[-122.50575,42.12361],[-122.50548,42.12393],[-122.50486,42.12483],[-122.5041,42.12637],[-122.50096,42.1279],[-122.4992,42.12914],[-122.49882,42.1292],[-122.49695,42.12906],[-122.49652,42.12922],[-122.49614,42.12966],[-122.49624,42.13018],[-122.49693,42.13092],[-122.49746,42.13131],[-122.49765,42.13182],[-122.49743,42.13195],[-122.49717,42.13193],[-122.49629,42.13141],[-122.49601,42.13135],[-122.49546,42.1314],[-122.49472,42.13166],[-122.49453,42.13186],[-122.49444,42.13325],[-122.49426,42.13347],[-122.49399,42.13353],[-122.49304,42.13341],[-122.49213,42.13375],[-122.49065,42.13325],[-122.49011,42.13324],[-122.48941,42.13348],[-122.48903,42.13347],[-122.48839,42.13312],[-122.48697,42.13269],[-122.48613,42.13254],[-122.48473,42.13171],[-122.48414,42.13124],[-122.48372,42.13029],[-122.48339,42.13011],[-122.48297,42.13006],[-122.48177,42.13032],[-122.4796,42.13124],[-122.47895,42.13214],[-122.47855,42.13297],[-122.47818,42.1333],[-122.47746,42.13366],[-122.47736,42.13429],[-122.4772,42.13442],[-122.47694,42.13445],[-122.47672,42.13436],[-122.47637,42.13393],[-122.47624,42.13354],[-122.47698,42.13258],[-122.47741,42.13087],[-122.47712,42.12991],[-122.4772,42.12912],[-122.47695,42.12826],[-122.47656,42.12767],[-122.4761,42.12728],[-122.47527,42.12682],[-122.47206,42.12549],[-122.47098,42.12544],[-122.46962,42.12574],[-122.46896,42.12559],[-122.46861,42.12523],[-122.4677,42.12342],[-122.4674,42.12314],[-122.46699,42.12296],[-122.46658,42.12289],[-122.46301,42.12297],[-122.46197,42.12285],[-122.45304,42.12043],[-122.45256,42.12011],[-122.45216,42.11959],[-122.45058,42.11612],[-122.45024,42.11559],[-122.44915,42.11456],[-122.44772,42.11377],[-122.44687,42.11351],[-122.44474,42.11317],[-122.4438,42.11321],[-122.44335,42.11339],[-122.44288,42.11377],[-122.44245,42.11494],[-122.44225,42.11521],[-122.44178,42.11544],[-122.44114,42.11545],[-122.43791,42.11388],[-122.43679,42.11356],[-122.43503,42.11342],[-122.43317,42.11364],[-122.43258,42.11358],[-122.43202,42.11341],[-122.43146,42.11307],[-122.42949,42.11127],[-122.4288,42.11089],[-122.42769,42.11049],[-122.42628,42.11028],[-122.4215,42.11019],[-122.42057,42.11],[-122.41609,42.1086],[-122.41464,42.10847],[-122.41362,42.10855],[-122.4124,42.10883],[-122.41173,42.1091],[-122.41052,42.10986],[-122.40981,42.11004],[-122.40905,42.10999],[-122.4057,42.10882],[-122.4039,42.10862],[-122.40277,42.10871],[-122.3939,42.1099],[-122.3917,42.11028],[-122.39027,42.11064],[-122.37741,42.11443],[-122.37693,42.11472],[-122.37661,42.11506],[-122.37582,42.11672],[-122.37552,42.11715],[-122.37515,42.11745],[-122.37454,42.11772],[-122.37278,42.11795],[-122.37066,42.11786],[-122.3691,42.11747],[-122.36828,42.11737],[-122.36674,42.11771],[-122.36628,42.11793],[-122.366,42.11818],[-122.3654,42.11952],[-122.36399,42.12109],[-122.36353,42.12144],[-122.35895,42.12295],[-122.35828,42.12293],[-122.35612,42.12237],[-122.35519,42.12239],[-122.35459,42.12267],[-122.35392,42.12321],[-122.35378,42.12403],[-122.3536,42.12429],[-122.35297,42.12472],[-122.35248,42.12486],[-122.34657,42.12428],[-122.34587,42.12412],[-122.34391,42.12343],[-122.34319,42.12332],[-122.34258,42.12335],[-122.34013,42.12374],[-122.33729,42.12369],[-122.33145,42.12541],[-122.32474,42.12614],[-122.30985,42.12903],[-122.30747,42.12962],[-122.29514,42.1333],[-122.29373,42.13341],[-122.28758,42.1336],[-122.28662,42.13347],[-122.27827,42.13051],[-122.27326,42.12759],[-122.27222,42.12723],[-122.27034,42.12628],[-122.26917,42.12529],[-122.26872,42.12519],[-122.26671,42.12514],[-122.26617,42.12522],[-122.26575,42.12539],[-122.26363,42.127],[-122.26303,42.12698],[-122.26242,42.12659],[-122.26179,42.12652],[-122.2614,42.12677],[-122.26085,42.12752],[-122.26036,42.12775],[-122.25981,42.12776],[-122.25434,42.12637],[-122.25406,42.12637],[-122.25368,42.12652],[-122.25278,42.12713],[-122.25117,42.12761],[-122.25054,42.12766],[-122.23029,42.1253],[-122.22481,42.12406],[-122.21822,42.12302],[-122.20457,42.11796],[-122.20391,42.11779],[-122.18057,42.12094],[-122.17381,42.12245],[-122.17312,42.12251],[-122.17026,42.12225],[-122.16886,42.12224],[-122.16534,42.12163],[-122.15649,42.11725],[-122.15616,42.11716],[-122.15403,42.11724],[-122.15205,42.11693],[-122.15081,42.1166],[-122.14693,42.11522],[-122.14632,42.11517],[-122.14094,42.11536],[-122.13976,42.11532],[-122.12415,42.11155],[-122.12332,42.11159],[-122.11975,42.11258],[-122.11538,42.11546],[-122.10881,42.11711],[-122.10851,42.11722],[-122.10776,42.11805],[-122.10755,42.11811],[-122.10711,42.11798],[-122.10599,42.1171],[-122.10537,42.11683],[-122.10471,42.11682],[-122.10373,42.11713],[-122.10305,42.11724],[-122.10135,42.11728],[-122.09985,42.11691],[-122.09855,42.11708],[-122.09719,42.11637],[-122.09664,42.11618],[-122.09599,42.11608],[-122.09115,42.11596],[-122.08067,42.11486],[-122.08016,42.11495],[-122.07934,42.11575],[-122.07905,42.1159],[-122.07878,42.11591],[-122.07848,42.11582],[-122.07559,42.11414],[-122.07512,42.11407],[-122.07455,42.11412],[-122.07407,42.11394],[-122.07039,42.10966],[-122.06957,42.10899],[-122.06915,42.10887],[-122.06891,42.10896],[-122.06885,42.10916],[-122.06991,42.11054],[-122.07015,42.11253],[-122.07072,42.11399],[-122.07104,42.11594],[-122.07172,42.11713],[-122.07168,42.11738],[-122.07129,42.1175],[-122.06972,42.11739],[-122.0668,42.11859],[-122.06648,42.11863],[-122.06598,42.11852],[-122.06545,42.11787],[-122.06512,42.11774],[-122.0616,42.11756],[-122.06097,42.11776],[-122.05908,42.11999],[-122.05784,42.12202],[-122.05735,42.12335],[-122.05712,42.1262],[-122.05675,42.12679],[-122.05332,42.13027],[-122.05234,42.13088],[-122.04809,42.13313],[-122.04719,42.13377],[-122.04653,42.1345],[-122.04565,42.1358],[-122.04492,42.13634],[-122.04311,42.13707],[-122.04193,42.13717],[-122.03825,42.1369],[-122.03603,42.13626],[-122.0348,42.13604],[-122.03301,42.13607],[-122.02784,42.1364],[-122.02662,42.13671],[-122.00919,42.14211],[-122.00852,42.14207],[-122.00711,42.14124],[-122.00595,42.14076],[-122.00545,42.14066],[-122.00266,42.14073],[-121.9846,42.13982],[-121.9746,42.1394],[-121.97349,42.13923],[-121.97261,42.13875],[-121.97214,42.13817],[-121.9719,42.13767],[-121.97149,42.13731],[-121.96991,42.13644],[-121.96859,42.13589],[-121.96718,42.13423],[-121.96626,42.13357],[-121.96504,42.13091],[-121.96487,42.13006],[-121.96463,42.12968],[-121.96417,42.1295],[-121.9631,42.12939],[-121.96139,42.12903],[-121.95927,42.12813],[-121.95807,42.12806],[-121.95739,42.12791],[-121.95399,42.12511],[-121.95282,42.12387],[-121.94875,42.12239],[-121.94842,42.12205],[-121.94827,42.12126],[-121.94807,42.12089],[-121.94732,42.12054],[-121.94669,42.12053],[-121.94631,42.12064],[-121.93683,42.12506],[-121.93608,42.12532],[-121.9348,42.1255],[-121.93156,42.12555],[-121.93082,42.1257],[-121.93053,42.12586],[-121.92956,42.12694],[-121.92618,42.13107],[-121.92506,42.13189],[-121.92308,42.1331],[-121.92223,42.13341],[-121.92145,42.13332],[-121.91855,42.13166],[-121.91708,42.13056],[-121.91422,42.12802],[-121.91339,42.12747],[-121.91228,42.12712],[-121.91184,42.12705],[-121.91134,42.12711],[-121.91082,42.12748],[-121.91069,42.12792],[-121.91088,42.13158],[-121.91078,42.1321],[-121.91043,42.13258],[-121.90996,42.1329],[-121.90896,42.13328],[-121.90175,42.13548],[-121.89128,42.13787],[-121.88969,42.13832],[-121.88065,42.14179],[-121.87836,42.1425],[-121.87731,42.14295],[-121.87624,42.14379],[-121.86689,42.15268],[-121.86415,42.15455],[-121.85873,42.158],[-121.8551,42.1612],[-121.85179,42.16458],[-121.84996,42.16604],[-121.8321,42.17517],[-121.83064,42.17604],[-121.82526,42.18],[-121.82382,42.18143],[-121.81977,42.18717],[-121.81909,42.18775],[-121.81793,42.18816],[-121.80846,42.19035],[-121.80657,42.19077],[-121.80422,42.19116]]]}}
