{"type":"Feature","properties":{"id":"highway-29","name":"Highway 29 \u00b7 Mount St. Helena","difficulty":3,"character":"Technical"},"geometry":{"type":"MultiLineString","coordinates":[[[-122.56557,38.79294],[-122.56621,38.79315],[-122.56642,38.79334],[-122.56711,38.79477],[-122.56962,38.79834]],[[-122.57658,38.58519],[-122.57697,38.58787],[-122.57724,38.58866],[-122.57812,38.59043],[-122.57963,38.59287],[-122.58201,38.59564],[-122.58477,38.60033],[-122.58636,38.60119],[-122.58676,38.60161],[-122.58731,38.60262],[-122.5878,38.60297],[-122.59479,38.60522],[-122.59634,38.60612],[-122.59653,38.60634],[-122.59664,38.60676],[-122.59691,38.60696],[-122.59733,38.60696],[-122.59802,38.60661],[-122.59828,38.60668],[-122.59848,38.60687],[-122.59843,38.60711],[-122.59818,38.60727],[-122.59644,38.60754],[-122.59594,38.60773],[-122.59526,38.60824],[-122.59459,38.60824],[-122.59429,38.60836],[-122.59393,38.60883],[-122.59392,38.60912],[-122.59414,38.60933],[-122.59479,38.6095],[-122.59494,38.60976],[-122.59478,38.61003],[-122.59411,38.61038],[-122.594,38.6106],[-122.59432,38.61097],[-122.59547,38.61113],[-122.59623,38.61144],[-122.59663,38.61181],[-122.59724,38.61281],[-122.59722,38.61326],[-122.5965,38.61365],[-122.59637,38.61397],[-122.59646,38.61415],[-122.59703,38.6146],[-122.59702,38.61485],[-122.59652,38.61565],[-122.59654,38.6164],[-122.59734,38.61855],[-122.59741,38.61916],[-122.59787,38.61977],[-122.59775,38.62002],[-122.59721,38.62037],[-122.59713,38.62067],[-122.59781,38.62139],[-122.59791,38.62201],[-122.59808,38.62232],[-122.59903,38.62305],[-122.59935,38.62345],[-122.59938,38.62394],[-122.59903,38.62461],[-122.59911,38.625],[-122.59943,38.62523],[-122.60117,38.62591],[-122.60174,38.62635],[-122.60213,38.62682],[-122.60233,38.62735],[-122.60246,38.62906],[-122.60318,38.63018],[-122.6034,38.6309],[-122.60339,38.63127],[-122.60324,38.63157],[-122.6024,38.63228],[-122.6024,38.63247],[-122.60273,38.63294],[-122.60276,38.63319],[-122.60146,38.63531],[-122.60143,38.63557],[-122.60162,38.63628],[-122.60157,38.63654],[-122.60047,38.63782],[-122.59975,38.63943],[-122.59936,38.63974],[-122.59843,38.63993],[-122.59788,38.64095],[-122.59697,38.64161],[-122.59668,38.64172],[-122.59645,38.64164],[-122.59634,38.64145],[-122.59674,38.64079],[-122.59654,38.64046],[-122.59623,38.6404],[-122.59576,38.64049],[-122.5955,38.64043],[-122.59521,38.6398],[-122.59486,38.63957],[-122.59308,38.63934],[-122.59257,38.63945],[-122.5924,38.63978],[-122.59238,38.64081],[-122.5918,38.6413],[-122.59175,38.64157],[-122.59197,38.64178],[-122.59229,38.64181],[-122.59249,38.64171],[-122.59293,38.64125],[-122.59325,38.64119],[-122.59357,38.64129],[-122.59372,38.64166],[-122.59348,38.642],[-122.59302,38.64218],[-122.59237,38.64216],[-122.59213,38.6424],[-122.59221,38.6426],[-122.59244,38.64269],[-122.59299,38.64246],[-122.59324,38.64246],[-122.59345,38.64257],[-122.59353,38.64282],[-122.59337,38.64307],[-122.5931,38.64324],[-122.59163,38.64349],[-122.5914,38.64369],[-122.59135,38.64388],[-122.5915,38.64411],[-122.59183,38.64424],[-122.59259,38.64397],[-122.59288,38.64395],[-122.59316,38.64411],[-122.5932,38.64434],[-122.5926,38.64479],[-122.59238,38.6454],[-122.59217,38.64562],[-122.59182,38.64565],[-122.59061,38.6453],[-122.59023,38.6454],[-122.59,38.64561],[-122.59013,38.64595],[-122.59062,38.6463],[-122.59116,38.64648],[-122.59211,38.64652],[-122.59242,38.64679],[-122.59236,38.64719],[-122.59198,38.64753],[-122.5915,38.64764],[-122.59072,38.64754],[-122.59032,38.64775],[-122.59025,38.648],[-122.59039,38.64835],[-122.59101,38.64901],[-122.59146,38.64922],[-122.59197,38.64926],[-122.59232,38.6492],[-122.59312,38.6488],[-122.59361,38.64879],[-122.59404,38.64899],[-122.5945,38.64955],[-122.59501,38.64968],[-122.59547,38.64951],[-122.59601,38.64881],[-122.59626,38.64874],[-122.59652,38.64879],[-122.59744,38.64946],[-122.59829,38.65077],[-122.59856,38.6509],[-122.59925,38.65103],[-122.59957,38.65124],[-122.59987,38.65234],[-122.59978,38.65378],[-122.59907,38.65486],[-122.59865,38.65502],[-122.59786,38.65494],[-122.59699,38.65537],[-122.59595,38.65527],[-122.59545,38.65555],[-122.59532,38.65592],[-122.59548,38.65699],[-122.59518,38.65787],[-122.59533,38.65861],[-122.59514,38.65942],[-122.59516,38.65992],[-122.59546,38.66053],[-122.59595,38.66092],[-122.59637,38.66099],[-122.59709,38.66066],[-122.59761,38.65996],[-122.59786,38.65998],[-122.59846,38.66029],[-122.5986,38.66048],[-122.59847,38.66087],[-122.59852,38.66104],[-122.59913,38.66136],[-122.59924,38.66164],[-122.59906,38.66184],[-122.5977,38.66234],[-122.59763,38.66263],[-122.59792,38.6628],[-122.59859,38.66269],[-122.5994,38.66276],[-122.59974,38.66292],[-122.59992,38.66315],[-122.59994,38.66342],[-122.59972,38.66375],[-122.59945,38.66387],[-122.59864,38.66401],[-122.59839,38.66428],[-122.59844,38.66461],[-122.59886,38.66523],[-122.59872,38.66579],[-122.59892,38.66697],[-122.59884,38.66717],[-122.59848,38.6674],[-122.59803,38.66738],[-122.59733,38.66721],[-122.5948,38.66624],[-122.59301,38.66613],[-122.59236,38.6659],[-122.59186,38.66588],[-122.59118,38.66609],[-122.58962,38.66695],[-122.5886,38.6678],[-122.58811,38.66861],[-122.58809,38.66883],[-122.58822,38.66907],[-122.58896,38.66954],[-122.58929,38.66997],[-122.59014,38.67247],[-122.59055,38.67292],[-122.59128,38.67334],[-122.59151,38.67357],[-122.59155,38.67437],[-122.59211,38.67527],[-122.5921,38.67567],[-122.59158,38.67747],[-122.5909,38.67826],[-122.59058,38.67886],[-122.59049,38.67931],[-122.59059,38.67994],[-122.59281,38.68376],[-122.59441,38.68566],[-122.59501,38.68742],[-122.59667,38.6894],[-122.59718,38.69017],[-122.59759,38.69123],[-122.59791,38.69331],[-122.59823,38.69434],[-122.5997,38.69705],[-122.60041,38.69815],[-122.60912,38.70867],[-122.61032,38.70979],[-122.61649,38.71482],[-122.61736,38.71586],[-122.61782,38.71704],[-122.61867,38.72401],[-122.61917,38.72575],[-122.62,38.72732],[-122.62575,38.73597],[-122.62618,38.73691],[-122.62636,38.73808],[-122.6262,38.73889],[-122.62571,38.73976],[-122.62049,38.74585],[-122.61954,38.7467],[-122.61754,38.74794],[-122.61703,38.74843],[-122.61669,38.74904],[-122.61471,38.75362],[-122.61409,38.75434],[-122.6132,38.7548],[-122.60703,38.75692],[-122.60632,38.75727],[-122.60541,38.75796],[-122.60033,38.7624],[-122.59898,38.76326],[-122.59758,38.76384],[-122.59037,38.76608],[-122.58876,38.76683],[-122.58784,38.76752],[-122.58709,38.76835],[-122.58663,38.76912],[-122.58521,38.77231],[-122.58444,38.77327],[-122.58368,38.77394],[-122.58243,38.77471],[-122.57396,38.77851],[-122.5731,38.77903],[-122.57056,38.78105],[-122.56975,38.78194],[-122.56923,38.78289],[-122.56606,38.79168],[-122.56577,38.79237],[-122.56559,38.79254]],[[-122.56621,38.79315],[-122.56579,38.79283]],[[-122.56581,38.7927],[-122.56606,38.79168]],[[-122.5653,38.79273],[-122.56538,38.79288],[-122.56557,38.79294],[-122.56581,38.79274],[-122.56559,38.79254],[-122.5654,38.79259],[-122.5653,38.79273]]]}}
