{"type":"Feature","properties":{"id":"highway-168-west","name":"Highway 168 \u00b7 Shaver Lake to Huntington Lake","difficulty":2,"character":"Technical"},"geometry":{"type":"MultiLineString","coordinates":[[[-119.15014,37.25942],[-119.15291,37.25883],[-119.15414,37.25879],[-119.15719,37.25791],[-119.15867,37.25775],[-119.15956,37.25719],[-119.16017,37.25632],[-119.16113,37.25585],[-119.16144,37.25539],[-119.16228,37.25544],[-119.16384,37.25497],[-119.16415,37.25475],[-119.16461,37.25413],[-119.16532,37.25361],[-119.16665,37.25305],[-119.16764,37.25291],[-119.1694,37.25295],[-119.17015,37.25265],[-119.17092,37.25206],[-119.17127,37.25191],[-119.17289,37.25207],[-119.17494,37.25247],[-119.17536,37.25264],[-119.17576,37.25265],[-119.1773,37.25259],[-119.17916,37.25205],[-119.18014,37.25192],[-119.18076,37.25164],[-119.18104,37.25138],[-119.1811,37.25113],[-119.18094,37.25042],[-119.1811,37.2502],[-119.18133,37.25012],[-119.18176,37.25025],[-119.18245,37.25119],[-119.18385,37.25217],[-119.18395,37.25238],[-119.18394,37.25288],[-119.18422,37.25299],[-119.18439,37.25291],[-119.18449,37.25269],[-119.18493,37.2503],[-119.18521,37.24992],[-119.18558,37.24974],[-119.1862,37.24974],[-119.18847,37.25018],[-119.18996,37.25016],[-119.1923,37.24968],[-119.19341,37.24957],[-119.19458,37.24877],[-119.19524,37.24851],[-119.1977,37.24869],[-119.19916,37.24857],[-119.19968,37.24831],[-119.20019,37.24758],[-119.20055,37.24744],[-119.2014,37.2474],[-119.20165,37.24729],[-119.20198,37.24655],[-119.20265,37.24613],[-119.20391,37.24564],[-119.20503,37.24471],[-119.20596,37.24443],[-119.2073,37.24426],[-119.20946,37.24345],[-119.21078,37.24207],[-119.21107,37.24193],[-119.21226,37.24174],[-119.21264,37.2416],[-119.21491,37.23981],[-119.21651,37.23878],[-119.21738,37.23848],[-119.21821,37.23797],[-119.21904,37.23766],[-119.22012,37.23751],[-119.22327,37.23751],[-119.22373,37.23766],[-119.22432,37.23817],[-119.22462,37.23831],[-119.22515,37.23837],[-119.22936,37.23785],[-119.23064,37.23777],[-119.2313,37.23723],[-119.23327,37.2363],[-119.23408,37.23571],[-119.23437,37.23567],[-119.2348,37.23576],[-119.23531,37.23612],[-119.23602,37.23622],[-119.23645,37.23654],[-119.23832,37.23668],[-119.23844,37.23649],[-119.23826,37.23616],[-119.23676,37.23551],[-119.23586,37.23527],[-119.23512,37.23487],[-119.23454,37.23425],[-119.23461,37.23382],[-119.23542,37.23282],[-119.23561,37.23237],[-119.2355,37.23207],[-119.23466,37.23146],[-119.23485,37.23047],[-119.2346,37.23028],[-119.23414,37.23031],[-119.23393,37.23023],[-119.23382,37.23007],[-119.23386,37.22986],[-119.23478,37.2294],[-119.2362,37.22812],[-119.23827,37.22703],[-119.23874,37.22648],[-119.23886,37.22616],[-119.23875,37.22519],[-119.23888,37.22484],[-119.23879,37.22474],[-119.23864,37.22486],[-119.23841,37.22623],[-119.2383,37.22635],[-119.23817,37.22627],[-119.23826,37.22591],[-119.23822,37.22489],[-119.23861,37.22437],[-119.24035,37.22366],[-119.24174,37.22291],[-119.24364,37.22227],[-119.24414,37.22189],[-119.24432,37.22164],[-119.24517,37.22119],[-119.24574,37.22052],[-119.24715,37.21984],[-119.24744,37.21919],[-119.24775,37.21896],[-119.24847,37.2186],[-119.24957,37.21848],[-119.24992,37.21836],[-119.25181,37.21746],[-119.25273,37.21665],[-119.25302,37.21585],[-119.2532,37.21468],[-119.25417,37.21415],[-119.25516,37.21406],[-119.25576,37.21376],[-119.25611,37.21346],[-119.25608,37.21322],[-119.25492,37.21297],[-119.25478,37.21282],[-119.25482,37.2127],[-119.25568,37.21276],[-119.2566,37.21262],[-119.25712,37.2127],[-119.25752,37.21336],[-119.25749,37.21358],[-119.25706,37.21426],[-119.25714,37.21455],[-119.25733,37.21455],[-119.25745,37.21412],[-119.25836,37.21339],[-119.25891,37.21125],[-119.25876,37.21108],[-119.25779,37.211],[-119.2569,37.21072],[-119.25668,37.21009],[-119.25632,37.20968],[-119.256,37.20947],[-119.25562,37.20938],[-119.25432,37.20965],[-119.25254,37.21047],[-119.25196,37.2104],[-119.25131,37.21055],[-119.25102,37.2107],[-119.24958,37.21056],[-119.24903,37.21097],[-119.24854,37.21094],[-119.24817,37.21105],[-119.2476,37.21049],[-119.24768,37.20886],[-119.24725,37.20831],[-119.24675,37.20815],[-119.24633,37.20773],[-119.24548,37.20717],[-119.24611,37.20657],[-119.24608,37.20595],[-119.24619,37.20572],[-119.24696,37.20517],[-119.24706,37.20493],[-119.24684,37.20485],[-119.24592,37.20494],[-119.24535,37.20506],[-119.24444,37.20542],[-119.24339,37.2055],[-119.24236,37.20503],[-119.24169,37.20494],[-119.24128,37.20474],[-119.24097,37.20469],[-119.24051,37.20492],[-119.24029,37.20491],[-119.2399,37.20472],[-119.23882,37.20464],[-119.23708,37.20399],[-119.23652,37.20388],[-119.2363,37.20363],[-119.23639,37.20319],[-119.2369,37.20287],[-119.23862,37.20301],[-119.24104,37.20265],[-119.24159,37.20239],[-119.24176,37.20207],[-119.24169,37.20142],[-119.24203,37.20077],[-119.24169,37.19942],[-119.24174,37.19874],[-119.24186,37.19851],[-119.24256,37.198],[-119.2447,37.19768],[-119.24534,37.19728],[-119.24589,37.19669],[-119.24649,37.1965],[-119.24687,37.1962],[-119.24788,37.19584],[-119.24835,37.19551],[-119.24872,37.19505],[-119.24879,37.19482],[-119.24873,37.19411],[-119.24884,37.19346],[-119.24822,37.1928],[-119.24819,37.19235],[-119.24777,37.1917],[-119.24776,37.19141],[-119.24795,37.19124],[-119.24841,37.19117],[-119.2497,37.1915],[-119.25044,37.19158],[-119.25069,37.19125],[-119.25064,37.19028],[-119.25081,37.18995],[-119.25123,37.18996],[-119.25199,37.19029],[-119.25284,37.19093],[-119.25361,37.19102],[-119.25474,37.19051],[-119.25527,37.19047],[-119.25633,37.19015],[-119.2571,37.19004],[-119.258,37.18932],[-119.25882,37.18888],[-119.25925,37.18831],[-119.25977,37.18817],[-119.26009,37.18824],[-119.26075,37.18873],[-119.26124,37.18964],[-119.26187,37.18991],[-119.26236,37.18995],[-119.26363,37.18973],[-119.26422,37.19003],[-119.26482,37.19018],[-119.26593,37.1902],[-119.26651,37.19062],[-119.26677,37.19069],[-119.26701,37.19061],[-119.26753,37.18991],[-119.26772,37.18984],[-119.26823,37.18994],[-119.26984,37.19058],[-119.27107,37.19046],[-119.27193,37.19059],[-119.27238,37.1904],[-119.27264,37.1904],[-119.27299,37.19053],[-119.2733,37.19095],[-119.27388,37.19114],[-119.27469,37.19076],[-119.27478,37.1906],[-119.2747,37.19006],[-119.2748,37.18962],[-119.2746,37.18913],[-119.27536,37.1888],[-119.2754,37.18859],[-119.27514,37.18782],[-119.27554,37.18739],[-119.27501,37.18665],[-119.27513,37.18601],[-119.27525,37.18579],[-119.27548,37.18564],[-119.27575,37.18559],[-119.27617,37.18564],[-119.27639,37.18553],[-119.27648,37.18532],[-119.27637,37.18487],[-119.27642,37.18447],[-119.27668,37.18392],[-119.27693,37.18366],[-119.27762,37.18328],[-119.27781,37.18349],[-119.27764,37.18419],[-119.2779,37.18448],[-119.27823,37.18453],[-119.27916,37.18427],[-119.27929,37.18418],[-119.27948,37.18361],[-119.2797,37.18331],[-119.2797,37.18251],[-119.27991,37.18221],[-119.28074,37.18223],[-119.28149,37.18203],[-119.28219,37.18141],[-119.28298,37.18127],[-119.2835,37.18099],[-119.28425,37.18021],[-119.28454,37.18016],[-119.28522,37.18029],[-119.2856,37.18016],[-119.28597,37.17987],[-119.28718,37.17841],[-119.28706,37.17787],[-119.2871,37.17743],[-119.28786,37.17617],[-119.28773,37.17584],[-119.28644,37.17395],[-119.28651,37.17287],[-119.28696,37.17205],[-119.2871,37.17124],[-119.28707,37.17078],[-119.28767,37.17036],[-119.28824,37.16975],[-119.28928,37.16919],[-119.28995,37.16795],[-119.29058,37.16727],[-119.29092,37.16625],[-119.29138,37.16542],[-119.29314,37.16096],[-119.29385,37.1597],[-119.29426,37.1582],[-119.29484,37.15775],[-119.29519,37.15729],[-119.29583,37.15671],[-119.29599,37.15606]],[[-119.40968,37.05014],[-119.4094,37.05061],[-119.40886,37.05112],[-119.40828,37.05141],[-119.40754,37.0516],[-119.4047,37.05145],[-119.40047,37.05187],[-119.39848,37.05225],[-119.38893,37.05439],[-119.38747,37.05455],[-119.38492,37.05445],[-119.38375,37.05461],[-119.38279,37.05493],[-119.37993,37.05636],[-119.37937,37.05651],[-119.37753,37.05672],[-119.37396,37.05787],[-119.37089,37.05836],[-119.36966,37.05883],[-119.36744,37.06001],[-119.36646,37.06031],[-119.3638,37.0606],[-119.36259,37.06099],[-119.36132,37.06104],[-119.36113,37.06114],[-119.36064,37.06183],[-119.36027,37.06204],[-119.35985,37.06215],[-119.35919,37.06208],[-119.35761,37.06131],[-119.3571,37.06137],[-119.35686,37.06154],[-119.35676,37.06174],[-119.3568,37.06207],[-119.35732,37.06271],[-119.35805,37.06395],[-119.3581,37.06516],[-119.35771,37.06615],[-119.35723,37.06662],[-119.35695,37.06722],[-119.35684,37.06777],[-119.35634,37.06815],[-119.35623,37.06946],[-119.35591,37.06995],[-119.35551,37.07004],[-119.35495,37.06993],[-119.35378,37.06913],[-119.352,37.06872],[-119.35171,37.06879],[-119.35158,37.06891],[-119.35162,37.06937],[-119.35153,37.06961],[-119.3508,37.07028],[-119.35029,37.07055],[-119.34931,37.07066],[-119.34855,37.0706],[-119.34792,37.07017],[-119.34691,37.06976],[-119.34566,37.06995],[-119.34476,37.06994],[-119.34445,37.07008],[-119.34382,37.07118],[-119.34451,37.07249],[-119.34463,37.0731],[-119.34446,37.07373],[-119.34388,37.07429],[-119.34383,37.07453],[-119.34447,37.07583],[-119.34448,37.07605],[-119.34389,37.07647],[-119.34337,37.0767],[-119.34279,37.07671],[-119.34181,37.07639],[-119.34143,37.07643],[-119.3411,37.07664],[-119.34084,37.0773],[-119.34062,37.07755],[-119.33828,37.07842],[-119.3377,37.0789],[-119.33697,37.07904],[-119.33625,37.07945],[-119.33559,37.08008],[-119.33519,37.08001],[-119.3347,37.07961],[-119.33436,37.07971],[-119.33424,37.0799],[-119.33421,37.08045],[-119.33432,37.08192],[-119.33421,37.08261],[-119.33362,37.08422],[-119.3333,37.08449],[-119.33291,37.08459],[-119.33172,37.08468],[-119.3308,37.08512],[-119.33007,37.0852],[-119.32956,37.08508],[-119.32833,37.08441],[-119.32775,37.08422],[-119.32586,37.08394],[-119.3253,37.08398],[-119.32488,37.08415],[-119.3245,37.08452],[-119.32401,37.08564],[-119.32381,37.08641],[-119.3235,37.08675],[-119.32314,37.08685],[-119.32284,37.0868],[-119.32121,37.08604],[-119.32094,37.08603],[-119.32078,37.08615],[-119.3208,37.08653],[-119.32117,37.08712],[-119.3212,37.08738],[-119.3207,37.08857],[-119.32046,37.08885],[-119.31994,37.08896],[-119.31883,37.08886],[-119.31803,37.08868],[-119.31758,37.08882],[-119.31722,37.08914],[-119.31717,37.08958],[-119.31757,37.09062],[-119.31773,37.09172],[-119.31803,37.0924],[-119.31788,37.09301],[-119.31825,37.09468],[-119.3186,37.09535],[-119.31862,37.09613],[-119.31875,37.09644],[-119.31929,37.097],[-119.31941,37.09743],[-119.31921,37.09809],[-119.31851,37.09871],[-119.31857,37.09895],[-119.31898,37.09955],[-119.31899,37.09981],[-119.31881,37.10005],[-119.31821,37.10032],[-119.31806,37.10062],[-119.31859,37.10203],[-119.31973,37.10361],[-119.3197,37.10388],[-119.3192,37.10452],[-119.31956,37.10576],[-119.31905,37.10729],[-119.31904,37.10826],[-119.31975,37.11041],[-119.32083,37.11195],[-119.32076,37.113],[-119.32088,37.11392],[-119.3198,37.11546],[-119.31849,37.11788],[-119.317,37.11886],[-119.31672,37.11915],[-119.31642,37.12008],[-119.31482,37.12246],[-119.31437,37.1238],[-119.31422,37.12472],[-119.31365,37.12599],[-119.31331,37.12716],[-119.31299,37.12766],[-119.31233,37.12837],[-119.31168,37.12988],[-119.311,37.13041],[-119.31031,37.13183],[-119.31019,37.13241],[-119.31017,37.13447],[-119.31004,37.13559],[-119.30927,37.13783],[-119.30882,37.13859],[-119.30851,37.14015],[-119.30796,37.14144],[-119.30796,37.14185],[-119.30829,37.1426],[-119.30781,37.14351],[-119.30774,37.14455],[-119.3075,37.14487],[-119.30718,37.14497],[-119.30589,37.14439],[-119.3057,37.14439],[-119.30558,37.14451],[-119.30566,37.14467],[-119.30642,37.145],[-119.30724,37.14559],[-119.30776,37.1463],[-119.3078,37.14651],[-119.30768,37.14661],[-119.30752,37.1466],[-119.30731,37.14621],[-119.30712,37.1461],[-119.3065,37.14612],[-119.30579,37.14594],[-119.30551,37.14595],[-119.30468,37.14617],[-119.30412,37.14652],[-119.30272,37.14699],[-119.30179,37.14752],[-119.30157,37.14782],[-119.30136,37.14968],[-119.30115,37.15009],[-119.29982,37.15142],[-119.29876,37.15333],[-119.29599,37.15606],[-119.29542,37.15624],[-119.29459,37.15626],[-119.294,37.15604],[-119.29352,37.15564],[-119.29326,37.15487],[-119.29385,37.15322],[-119.29391,37.15257],[-119.29377,37.15184],[-119.29333,37.1511],[-119.29067,37.14801],[-119.29024,37.14766],[-119.28964,37.1474],[-119.28872,37.14734],[-119.28494,37.14802],[-119.2785,37.15108],[-119.27765,37.1513],[-119.27101,37.15032],[-119.26902,37.1495],[-119.26774,37.14862],[-119.26683,37.14843],[-119.26602,37.14859],[-119.26558,37.14887],[-119.26532,37.14916],[-119.26457,37.15052],[-119.26438,37.15105],[-119.26435,37.15152],[-119.26484,37.15329],[-119.26483,37.15365],[-119.26463,37.15409],[-119.26404,37.15453],[-119.26324,37.15467],[-119.26249,37.15449],[-119.26205,37.15416],[-119.26107,37.15297],[-119.26044,37.15253],[-119.25728,37.15136],[-119.25521,37.14987],[-119.25463,37.14969],[-119.25385,37.14972],[-119.25318,37.15002],[-119.24991,37.15276],[-119.24763,37.15394],[-119.24715,37.15427],[-119.24663,37.15484],[-119.24381,37.15861],[-119.24325,37.15906],[-119.24267,37.15924],[-119.24204,37.15924],[-119.24141,37.15904],[-119.23983,37.15768],[-119.23942,37.15741],[-119.23903,37.15729],[-119.23813,37.15727],[-119.23677,37.15783],[-119.23587,37.15794],[-119.2325,37.15746],[-119.22984,37.15661],[-119.2286,37.15649],[-119.22761,37.15669],[-119.22534,37.15779],[-119.22451,37.15801],[-119.22363,37.15796],[-119.22204,37.15751],[-119.22091,37.15738],[-119.21621,37.1577],[-119.21452,37.15747],[-119.21354,37.15754],[-119.21272,37.15782],[-119.20324,37.16187],[-119.20288,37.16218],[-119.20261,37.16258],[-119.20263,37.16335],[-119.20301,37.16388],[-119.20367,37.16446],[-119.20426,37.16515],[-119.20486,37.16662],[-119.20524,37.16712],[-119.20569,37.16749],[-119.20711,37.1683],[-119.20762,37.16879],[-119.20784,37.16913],[-119.208,37.16989],[-119.20787,37.17061],[-119.2077,37.17096],[-119.20627,37.17225],[-119.20585,37.17304],[-119.20575,37.17441],[-119.20544,37.17537],[-119.20415,37.17674],[-119.20363,37.17754],[-119.2033,37.17853],[-119.20329,37.17921],[-119.20379,37.18186],[-119.20374,37.18268],[-119.20308,37.1853],[-119.20305,37.18603],[-119.20333,37.18805],[-119.20325,37.18892],[-119.20315,37.18946],[-119.20248,37.1911],[-119.20239,37.19212],[-119.20272,37.19297],[-119.20388,37.19465],[-119.20478,37.19572],[-119.20547,37.19619],[-119.20613,37.19645],[-119.20845,37.19679],[-119.20918,37.19708],[-119.20957,37.19734],[-119.21021,37.19798],[-119.21064,37.19919],[-119.21104,37.19981],[-119.21392,37.20193],[-119.21419,37.20236],[-119.21422,37.20303],[-119.21366,37.20424],[-119.21336,37.20552],[-119.21272,37.20631],[-119.21083,37.20755],[-119.20914,37.20897],[-119.20364,37.21317],[-119.2014,37.21467],[-119.19993,37.21535],[-119.19824,37.21581],[-119.19683,37.21645],[-119.19557,37.21672],[-119.19358,37.2168],[-119.19264,37.21707],[-119.19203,37.2175],[-119.19165,37.21799],[-119.19152,37.21839],[-119.19149,37.21896],[-119.19171,37.22022],[-119.19163,37.22055],[-119.19134,37.22099],[-119.18956,37.22279],[-119.18913,37.2231],[-119.18849,37.22333],[-119.18693,37.22346],[-119.18616,37.22383],[-119.18576,37.22427],[-119.18519,37.22524],[-119.18506,37.22605],[-119.18559,37.22774],[-119.18654,37.2289],[-119.1867,37.22928],[-119.18651,37.23],[-119.18603,37.23042],[-119.18532,37.23057],[-119.18293,37.2306],[-119.17971,37.23085],[-119.17857,37.23079],[-119.1765,37.23046],[-119.1752,37.23058],[-119.17385,37.23105],[-119.17243,37.23129],[-119.17176,37.23154],[-119.1715,37.23173],[-119.17025,37.23352],[-119.16917,37.23414],[-119.16844,37.23431],[-119.16743,37.23427],[-119.1635,37.23346],[-119.16294,37.23343],[-119.16044,37.2338],[-119.15967,37.23416],[-119.15932,37.23475],[-119.15939,37.23524],[-119.15976,37.23568],[-119.16073,37.23644],[-119.16098,37.23697],[-119.16087,37.23758],[-119.16019,37.23855],[-119.16006,37.23895],[-119.16004,37.23932],[-119.16021,37.23983],[-119.16047,37.24019],[-119.16171,37.2412],[-119.16354,37.24197],[-119.16392,37.24238],[-119.16403,37.24281],[-119.16388,37.24332],[-119.16356,37.24366],[-119.16213,37.24428],[-119.16164,37.24475],[-119.16129,37.24615],[-119.16102,37.24672],[-119.15954,37.24857],[-119.15893,37.25076],[-119.15893,37.25152],[-119.15913,37.25209],[-119.16062,37.25473],[-119.16091,37.25511],[-119.16144,37.25539]],[[-119.37571,37.05],[-119.37392,37.05097],[-119.37254,37.05233],[-119.37221,37.0532],[-119.37247,37.05415],[-119.37242,37.05438],[-119.37205,37.05468],[-119.37074,37.05529],[-119.37044,37.05564],[-119.37048,37.05612],[-119.3709,37.05689],[-119.37078,37.0573],[-119.36978,37.05804],[-119.36865,37.0581],[-119.36767,37.05881],[-119.36725,37.05926],[-119.36646,37.0593],[-119.36623,37.05964],[-119.36646,37.06031]],[[-119.15059,37.26265],[-119.15164,37.26286],[-119.15206,37.26305],[-119.15275,37.26352],[-119.15323,37.2641],[-119.15382,37.26439],[-119.15534,37.2644],[-119.15591,37.26454],[-119.15676,37.26522],[-119.15685,37.26551],[-119.1568,37.26594],[-119.15655,37.26621],[-119.15617,37.26639],[-119.15582,37.26644],[-119.1548,37.26631],[-119.15445,37.26634],[-119.154,37.26652],[-119.15318,37.26707],[-119.15246,37.2671],[-119.15133,37.2666],[-119.15102,37.26626],[-119.15054,37.26548],[-119.15067,37.26428],[-119.15032,37.2639]]]}}
