{"type":"Feature","properties":{"id":"highway-9-back","name":"Highway 9 \u00b7 Back Side","difficulty":2,"character":"Medium speed"},"geometry":{"type":"MultiLineString","coordinates":[[[-122.02982,36.9843],[-122.03008,36.98597],[-122.03039,36.98821],[-122.0314,36.99002],[-122.03311,36.99176],[-122.03381,36.99195],[-122.03408,36.99212],[-122.03496,36.99434],[-122.03649,36.99598],[-122.03737,36.99662],[-122.03741,36.99685],[-122.03715,36.99764],[-122.0371,36.99846],[-122.03746,37.00005],[-122.03763,37.00028],[-122.0384,37.00093],[-122.03854,37.00168],[-122.03894,37.0027],[-122.03943,37.00335],[-122.03998,37.00377],[-122.04187,37.00484],[-122.04269,37.00571],[-122.04335,37.0067],[-122.04406,37.00689],[-122.04564,37.00774],[-122.04753,37.00799],[-122.04799,37.00798],[-122.04893,37.00852],[-122.04953,37.00954],[-122.04965,37.01001],[-122.04965,37.01056],[-122.04992,37.01096],[-122.05039,37.01107],[-122.05109,37.01102],[-122.05162,37.01117],[-122.05256,37.01124],[-122.053,37.01159],[-122.05418,37.01196],[-122.05481,37.0124],[-122.05551,37.0126],[-122.0564,37.0132],[-122.05747,37.01326],[-122.05815,37.0135],[-122.05911,37.01346],[-122.06018,37.01365],[-122.0614,37.01458],[-122.06191,37.01475],[-122.06211,37.01491],[-122.06213,37.01537],[-122.06284,37.01628],[-122.06299,37.01693],[-122.06333,37.01762],[-122.06343,37.01921],[-122.06263,37.02009],[-122.06214,37.02046],[-122.06146,37.02139],[-122.06136,37.02242],[-122.06141,37.02301],[-122.06101,37.02358],[-122.0609,37.02389],[-122.05973,37.02427],[-122.0595,37.02443],[-122.05924,37.02558],[-122.05886,37.02625],[-122.05899,37.02693],[-122.05897,37.02786],[-122.05912,37.02832],[-122.05887,37.02881],[-122.05883,37.02985],[-122.05907,37.03024],[-122.0596,37.03051],[-122.06162,37.03085],[-122.0622,37.03083],[-122.06287,37.03062],[-122.06308,37.03071],[-122.06348,37.03117],[-122.06471,37.03127],[-122.06512,37.0314],[-122.06522,37.03164],[-122.06507,37.03184],[-122.06383,37.0321],[-122.06297,37.03249],[-122.06276,37.03281],[-122.06287,37.03311],[-122.06382,37.03395],[-122.06432,37.03494],[-122.06504,37.03557],[-122.06571,37.03664],[-122.06666,37.03761],[-122.06765,37.03833],[-122.0694,37.03896],[-122.07034,37.03965],[-122.07158,37.04037],[-122.07204,37.04084],[-122.07262,37.04186],[-122.07282,37.04356],[-122.07343,37.04528],[-122.07321,37.05248],[-122.07328,37.05308],[-122.07368,37.05396],[-122.07642,37.05758],[-122.07693,37.05797],[-122.07869,37.05879],[-122.07911,37.05916],[-122.07936,37.05956],[-122.08006,37.0616],[-122.08003,37.06289],[-122.0796,37.06458],[-122.07961,37.06527],[-122.07985,37.06672],[-122.08038,37.06721],[-122.08166,37.06762],[-122.0827,37.06808],[-122.08369,37.06903],[-122.08409,37.06963],[-122.08427,37.07053],[-122.08415,37.07166],[-122.08452,37.07396],[-122.08426,37.07636],[-122.08436,37.07693],[-122.08398,37.0776],[-122.08331,37.07807],[-122.08316,37.07861],[-122.0843,37.08102],[-122.0849,37.0815],[-122.08551,37.08183],[-122.08656,37.0821],[-122.08736,37.08272],[-122.08813,37.08338],[-122.08847,37.08396],[-122.08908,37.08451],[-122.08959,37.08547],[-122.08961,37.08588],[-122.08888,37.08685],[-122.08876,37.08715],[-122.0885,37.08862],[-122.08863,37.08919],[-122.08898,37.08954],[-122.08966,37.08977],[-122.09037,37.0897],[-122.09204,37.08936],[-122.09283,37.08946],[-122.0934,37.08972],[-122.09521,37.09137],[-122.09593,37.09188],[-122.09608,37.09209],[-122.09739,37.09589],[-122.09779,37.09815],[-122.09861,37.09881],[-122.09926,37.0991],[-122.09982,37.09951],[-122.10105,37.09984],[-122.10129,37.10061],[-122.1018,37.10106],[-122.10324,37.10137],[-122.10386,37.10179],[-122.10434,37.10259],[-122.1044,37.10402],[-122.10453,37.10435],[-122.1051,37.1048],[-122.10534,37.10531],[-122.10573,37.10577],[-122.10774,37.10763],[-122.10803,37.10776],[-122.10856,37.10783],[-122.10964,37.1078],[-122.11034,37.10764],[-122.1113,37.10781],[-122.11183,37.1076],[-122.11217,37.10758],[-122.11332,37.10783],[-122.11444,37.10855],[-122.11483,37.10925],[-122.11437,37.11067],[-122.11438,37.1116],[-122.11449,37.11196],[-122.11482,37.11239],[-122.11508,37.11264],[-122.1156,37.11289],[-122.11679,37.11311],[-122.1176,37.11315],[-122.11807,37.11332],[-122.11847,37.11367],[-122.11894,37.11453],[-122.11997,37.11525],[-122.12026,37.11566],[-122.121,37.12112],[-122.1223,37.12537],[-122.12291,37.12726],[-122.12302,37.12848],[-122.12318,37.12944],[-122.12357,37.13016],[-122.12457,37.13096],[-122.12503,37.13257],[-122.12744,37.13531],[-122.12785,37.13632],[-122.12862,37.13749],[-122.13142,37.14061],[-122.13172,37.14121],[-122.1321,37.14445],[-122.13241,37.1451],[-122.13366,37.14665],[-122.13601,37.1489],[-122.13664,37.15037],[-122.13663,37.15077],[-122.1362,37.15138],[-122.13584,37.15162],[-122.13508,37.1518],[-122.1341,37.15277],[-122.1338,37.15328],[-122.13331,37.15541],[-122.13343,37.15583],[-122.13404,37.15669],[-122.13414,37.15696],[-122.13408,37.1584],[-122.13431,37.15991],[-122.1347,37.1613],[-122.13463,37.16409],[-122.13584,37.16767],[-122.13585,37.16977],[-122.13774,37.1713],[-122.13801,37.17157],[-122.13818,37.17193],[-122.1384,37.17474],[-122.13919,37.17708],[-122.13949,37.17947],[-122.13978,37.18001],[-122.14069,37.18069],[-122.14105,37.18131],[-122.14107,37.18385],[-122.14125,37.18465],[-122.1421,37.18614],[-122.14226,37.18695],[-122.14304,37.18785],[-122.14312,37.18872],[-122.1439,37.18939],[-122.14401,37.19032],[-122.1447,37.19104],[-122.14572,37.19314],[-122.14577,37.19341],[-122.14557,37.19395],[-122.14554,37.1947],[-122.14574,37.1952],[-122.14575,37.19588],[-122.14603,37.19655],[-122.14606,37.19727],[-122.14634,37.19799],[-122.14627,37.19883],[-122.14706,37.20034],[-122.14698,37.20085],[-122.14678,37.20118],[-122.14606,37.2018],[-122.14584,37.20271],[-122.14513,37.20331],[-122.14495,37.20365],[-122.14488,37.20448],[-122.14511,37.20517],[-122.14492,37.20606],[-122.14523,37.20669],[-122.14524,37.20706],[-122.14505,37.20738],[-122.14425,37.20783],[-122.14349,37.2087],[-122.14337,37.20913],[-122.14351,37.21012],[-122.14376,37.21042],[-122.14458,37.211],[-122.14563,37.21155],[-122.14601,37.21201],[-122.14647,37.21233],[-122.1467,37.21293],[-122.14699,37.21329],[-122.14699,37.21352],[-122.14656,37.21372],[-122.14594,37.21362],[-122.14586,37.21383],[-122.14644,37.21399],[-122.14734,37.21439],[-122.14808,37.21432],[-122.14851,37.21405],[-122.14852,37.21375],[-122.14828,37.21312],[-122.14872,37.21178],[-122.14866,37.21119],[-122.14909,37.21084],[-122.14954,37.21013],[-122.14979,37.2101],[-122.15005,37.21019],[-122.15055,37.21079],[-122.15132,37.21102],[-122.15189,37.21156],[-122.15242,37.21152],[-122.15342,37.21175],[-122.15431,37.21181],[-122.15505,37.21179],[-122.15611,37.21153],[-122.15668,37.21157],[-122.15624,37.21259],[-122.15531,37.21398],[-122.15517,37.21526],[-122.15498,37.21554],[-122.15444,37.21582],[-122.15311,37.21599],[-122.15273,37.21617],[-122.15221,37.21667],[-122.15211,37.21702],[-122.15216,37.2174],[-122.15255,37.21838],[-122.15268,37.21976],[-122.15343,37.22051],[-122.15384,37.2213],[-122.15382,37.22234],[-122.15369,37.22273],[-122.15357,37.22296],[-122.153,37.22347],[-122.15222,37.22507],[-122.15184,37.2253],[-122.15079,37.22534],[-122.14995,37.22505],[-122.14901,37.22503],[-122.14809,37.22439],[-122.1478,37.22436],[-122.14752,37.22447],[-122.1473,37.22468],[-122.14726,37.22555],[-122.14774,37.22636],[-122.14815,37.22665],[-122.14908,37.22691],[-122.14932,37.22722],[-122.14938,37.22794],[-122.14922,37.22837],[-122.14889,37.22855],[-122.14808,37.22874],[-122.14783,37.2291],[-122.14791,37.22942],[-122.14841,37.22977],[-122.14872,37.23014],[-122.14901,37.23085],[-122.14903,37.23125],[-122.14822,37.23312],[-122.14787,37.23357],[-122.1472,37.23406],[-122.14571,37.2348],[-122.14546,37.23519],[-122.14556,37.23555],[-122.14624,37.23632],[-122.14718,37.23671],[-122.14757,37.23708],[-122.14968,37.23978],[-122.15042,37.24026],[-122.15203,37.24088],[-122.15366,37.24133],[-122.15403,37.24158],[-122.15449,37.24298],[-122.15436,37.24343],[-122.15409,37.24364],[-122.15312,37.24396],[-122.15226,37.24455],[-122.15147,37.24485],[-122.15125,37.24503],[-122.15117,37.24541],[-122.15138,37.24584],[-122.15306,37.24768],[-122.1541,37.24834],[-122.15414,37.24883],[-122.15403,37.24901],[-122.15358,37.24915],[-122.15315,37.24907],[-122.15135,37.24831],[-122.15011,37.2474],[-122.14901,37.24708],[-122.14795,37.24647],[-122.14659,37.24605],[-122.14373,37.24461],[-122.14288,37.24456],[-122.14196,37.24469],[-122.14081,37.24526],[-122.13983,37.24589],[-122.13838,37.24772],[-122.13803,37.24865],[-122.13766,37.249],[-122.13693,37.24937],[-122.13666,37.24988],[-122.13661,37.25126],[-122.13647,37.2517],[-122.13608,37.25225],[-122.13478,37.25331],[-122.13468,37.25349],[-122.13465,37.254],[-122.13445,37.25438],[-122.13262,37.25538],[-122.12807,37.25527],[-122.12646,37.25545],[-122.12599,37.25573],[-122.12561,37.25633],[-122.12539,37.25651],[-122.12511,37.25659],[-122.12438,37.25659],[-122.12409,37.25671],[-122.12271,37.25809],[-122.12197,37.25852]],[[-122.02969,36.98436],[-122.02972,36.98456],[-122.03008,36.98597]]]}}
