{"type":"Feature","properties":{"id":"highway-49-auburn-cool","name":"Highway 49 \u00b7 Auburn to Cool","difficulty":2,"character":"Medium speed"},"geometry":{"type":"MultiLineString","coordinates":[[[-121.06553,38.90386],[-121.06304,38.90371],[-121.06167,38.90328],[-121.06149,38.90307],[-121.06148,38.90255],[-121.06102,38.90207],[-121.06108,38.90155],[-121.06084,38.90124],[-121.05997,38.90061],[-121.05939,38.9005],[-121.05901,38.90026],[-121.05851,38.90022],[-121.05765,38.89991],[-121.05724,38.89997],[-121.05599,38.90124],[-121.05592,38.90148],[-121.05601,38.90204],[-121.05554,38.90309],[-121.0549,38.90385],[-121.05448,38.90478],[-121.05342,38.9056],[-121.05311,38.9064],[-121.05274,38.90677],[-121.05266,38.90713],[-121.05246,38.90735],[-121.05182,38.90772],[-121.05072,38.90767],[-121.05056,38.90782],[-121.05042,38.90824],[-121.05014,38.90844],[-121.04997,38.90838],[-121.04979,38.90795],[-121.0495,38.90774],[-121.04852,38.90736],[-121.04763,38.90739],[-121.04626,38.9083],[-121.04522,38.90881],[-121.04514,38.90905],[-121.04532,38.90947],[-121.04529,38.90975],[-121.04408,38.91066],[-121.04349,38.91128],[-121.04333,38.91182],[-121.04297,38.91225],[-121.04259,38.91376],[-121.04157,38.91546],[-121.04103,38.91588],[-121.04001,38.9151],[-121.03899,38.91479],[-121.03738,38.91363],[-121.03673,38.91289],[-121.0357,38.91209],[-121.03497,38.91096],[-121.03431,38.91052],[-121.03415,38.90998],[-121.03391,38.90978],[-121.03328,38.90975],[-121.0329,38.90994],[-121.03252,38.91042],[-121.03255,38.91096],[-121.03243,38.91112],[-121.03089,38.91139],[-121.02932,38.91083],[-121.02863,38.91045],[-121.02799,38.90957],[-121.02777,38.90942],[-121.02756,38.90939],[-121.02744,38.90952],[-121.02756,38.91018],[-121.02722,38.91095],[-121.02723,38.91148],[-121.027,38.91169],[-121.02636,38.91188],[-121.02575,38.91177],[-121.02509,38.9113],[-121.02387,38.91127],[-121.02326,38.91089],[-121.02199,38.91052],[-121.02169,38.91055],[-121.0215,38.91092],[-121.02123,38.91096],[-121.02081,38.91072],[-121.02057,38.91029],[-121.02037,38.91033],[-121.01979,38.91093],[-121.01943,38.91101],[-121.01912,38.91097],[-121.01892,38.91081],[-121.01784,38.90878],[-121.01741,38.90852],[-121.01641,38.90821],[-121.01576,38.90759],[-121.01412,38.90631],[-121.014,38.90605],[-121.0139,38.90522],[-121.01347,38.90448],[-121.01357,38.90422],[-121.01566,38.90142],[-121.01631,38.90073],[-121.01659,38.90007],[-121.01656,38.89961],[-121.01607,38.89899],[-121.01597,38.8987],[-121.01625,38.89649],[-121.01586,38.89469],[-121.0162,38.8938],[-121.01626,38.89319],[-121.01581,38.8918],[-121.01614,38.88858],[-121.01593,38.88698]]]}}
