{"type":"Feature","properties":{"id":"highway-1-coast","name":"Highway 1 \u00b7 Coastside","difficulty":1,"character":"High speed"},"geometry":{"type":"MultiLineString","coordinates":[[[-122.51536,37.56954],[-122.51569,37.56995],[-122.51593,37.57059],[-122.51593,37.57128],[-122.51573,37.57187],[-122.5092,37.58382],[-122.50878,37.58429],[-122.50831,37.58463],[-122.50766,37.58491],[-122.50698,37.58505],[-122.50811,37.58458],[-122.50886,37.58385],[-122.51556,37.57163],[-122.51578,37.57105],[-122.51578,37.57048],[-122.51562,37.56997],[-122.51389,37.56768],[-122.5126,37.56455],[-122.51266,37.56363],[-122.51342,37.56258],[-122.51363,37.56204],[-122.51355,37.56163],[-122.51311,37.5607],[-122.51313,37.56018],[-122.51339,37.55977],[-122.51446,37.55898],[-122.51463,37.55846],[-122.51439,37.55785],[-122.51344,37.55709],[-122.51298,37.55636],[-122.51213,37.55184],[-122.51189,37.54999],[-122.51209,37.54876],[-122.51248,37.54784],[-122.51596,37.54259],[-122.51771,37.53657],[-122.51791,37.5353],[-122.5178,37.53371],[-122.51742,37.53241],[-122.51646,37.53068],[-122.51551,37.52961],[-122.50911,37.52314],[-122.50705,37.52141],[-122.5056,37.52048],[-122.49447,37.51449],[-122.48423,37.50697],[-122.48275,37.50601],[-122.48121,37.50522],[-122.47807,37.50389],[-122.45568,37.49524],[-122.45488,37.4948],[-122.45393,37.4941],[-122.453,37.49305],[-122.44535,37.48202],[-122.43629,37.4733],[-122.43425,37.47087],[-122.43376,37.46971],[-122.43359,37.46848],[-122.43437,37.46316],[-122.43457,37.46031],[-122.4345,37.45944],[-122.43408,37.4582],[-122.43127,37.45316],[-122.43046,37.45131],[-122.42934,37.44929],[-122.4288,37.44774],[-122.42895,37.44874],[-122.42925,37.44954],[-122.43127,37.45316]],[[-122.4288,37.44774],[-122.42674,37.43238],[-122.42634,37.42411],[-122.42608,37.4227],[-122.42553,37.42086],[-122.41916,37.40131],[-122.41852,37.39989],[-122.41792,37.399],[-122.41696,37.39796],[-122.40716,37.38925],[-122.40624,37.3882],[-122.40562,37.38709],[-122.40487,37.38457],[-122.40453,37.38298],[-122.40432,37.37965],[-122.40376,37.37434],[-122.40389,37.37346],[-122.40464,37.37173],[-122.40488,37.37071],[-122.40483,37.36739],[-122.40472,37.3664],[-122.40415,37.36505],[-122.40347,37.36416],[-122.39957,37.36034],[-122.39786,37.35905],[-122.39716,37.358],[-122.39697,37.35707],[-122.39713,37.35614],[-122.39836,37.35422],[-122.39867,37.35345],[-122.39873,37.35289],[-122.39862,37.35114],[-122.39835,37.35041],[-122.39748,37.34894],[-122.39696,37.34703],[-122.39669,37.34641],[-122.39617,37.34563],[-122.39508,37.34441],[-122.39475,37.34382],[-122.39457,37.34277],[-122.39494,37.34112],[-122.39488,37.34003],[-122.39283,37.33308],[-122.39243,37.33246],[-122.39143,37.33134],[-122.39121,37.33078],[-122.39126,37.33018],[-122.39149,37.32973],[-122.39186,37.32935],[-122.39236,37.32907],[-122.39329,37.32887],[-122.39494,37.32907],[-122.39558,37.32904],[-122.39661,37.32871],[-122.39732,37.32818],[-122.40007,37.32428],[-122.40091,37.32294],[-122.4018,37.32127],[-122.4028,37.31866],[-122.40332,37.31632],[-122.40457,37.30703],[-122.40471,37.29866],[-122.40507,37.29748],[-122.40609,37.2956],[-122.40639,37.29439],[-122.4064,37.29377],[-122.40622,37.29292],[-122.40477,37.28901],[-122.40465,37.28813],[-122.40472,37.28708],[-122.40518,37.28581],[-122.40731,37.28264],[-122.40797,37.28108],[-122.40823,37.27967],[-122.40813,37.27687],[-122.40822,37.2758],[-122.4097,37.26991],[-122.41021,37.2685],[-122.41119,37.26684],[-122.412,37.26507],[-122.41405,37.25584],[-122.41446,37.25446],[-122.417,37.24903],[-122.41734,37.24808],[-122.41767,37.24649],[-122.41802,37.24216],[-122.41791,37.24119],[-122.41755,37.2402],[-122.41712,37.23947],[-122.41597,37.23798],[-122.41559,37.23725],[-122.41503,37.23441],[-122.41429,37.23277],[-122.40731,37.2244],[-122.40683,37.2237],[-122.40649,37.22297],[-122.40615,37.22137],[-122.4063,37.21574],[-122.40604,37.21382],[-122.40555,37.21244],[-122.40109,37.20282],[-122.40087,37.20184],[-122.40057,37.19811],[-122.40005,37.19638],[-122.39941,37.19525],[-122.39834,37.19378],[-122.39229,37.1859],[-122.39169,37.18532],[-122.39102,37.18486],[-122.38958,37.18431],[-122.38858,37.18415],[-122.38304,37.18361],[-122.38138,37.18325],[-122.37964,37.18268],[-122.37828,37.18205],[-122.37206,37.17867],[-122.36599,37.17533],[-122.36512,37.17477],[-122.36424,37.1739],[-122.36359,37.17289],[-122.36047,37.16504],[-122.3595,37.1632],[-122.35584,37.15785],[-122.35472,37.15642],[-122.34988,37.1512],[-122.34825,37.14986],[-122.34661,37.14901],[-122.34448,37.14823],[-122.32322,37.1412],[-122.32214,37.1407],[-122.32115,37.13999],[-122.31973,37.13855],[-122.3132,37.13146],[-122.31051,37.12831],[-122.30612,37.12138],[-122.30352,37.11639],[-122.3028,37.11539],[-122.30226,37.11487],[-122.30144,37.11427],[-122.29829,37.11253],[-122.29669,37.1115],[-122.29427,37.10899],[-122.29357,37.10838],[-122.29023,37.10588],[-122.28558,37.10273],[-122.28447,37.10157],[-122.28344,37.1],[-122.28206,37.09865],[-122.28065,37.09763],[-122.27844,37.09654],[-122.2776,37.09602],[-122.27523,37.09379],[-122.27466,37.09305],[-122.27424,37.09225],[-122.27362,37.08969],[-122.27289,37.08834],[-122.27207,37.08746],[-122.2696,37.0856],[-122.26839,37.08453],[-122.26376,37.0791],[-122.26316,37.07819],[-122.26143,37.07497],[-122.25861,37.07147],[-122.25598,37.06799],[-122.25238,37.06258],[-122.25168,37.06168],[-122.25061,37.0606],[-122.24689,37.05733],[-122.24246,37.05251],[-122.22807,37.03974],[-122.22754,37.0391],[-122.227,37.0382],[-122.22638,37.0362],[-122.226,37.03536],[-122.22553,37.03468],[-122.22495,37.03405],[-122.22401,37.03334],[-122.21619,37.02846],[-122.21444,37.0272],[-122.21315,37.02601],[-122.20792,37.02067],[-122.20049,37.01414],[-122.1959,37.01157],[-122.18954,37.00858],[-122.18786,37.00763],[-122.18557,37.00587],[-122.17959,37.00019],[-122.17783,36.99869],[-122.1761,36.99758],[-122.168,36.99302],[-122.16393,36.99095],[-122.15032,36.98471],[-122.14916,36.98435],[-122.14669,36.984],[-122.14565,36.98372],[-122.14065,36.98132],[-122.1353,36.97827],[-122.13198,36.97575],[-122.12624,36.97165],[-122.125,36.97095],[-122.12339,36.97051],[-122.12002,36.97031],[-122.11834,36.96996],[-122.11213,36.96733],[-122.10617,36.96525],[-122.10349,36.9637],[-122.10227,36.96316],[-122.10131,36.96288],[-122.09544,36.96157],[-122.09368,36.96135],[-122.09176,36.96139],[-122.08777,36.96193],[-122.08385,36.96219],[-122.07332,36.9621],[-122.07082,36.96199],[-122.05074,36.96041],[-122.04939,36.96065],[-122.04503,36.96211],[-122.04387,36.96259],[-122.04041,36.96656],[-122.03844,36.96792],[-122.03394,36.97484],[-122.0318,36.97682],[-122.03172,36.97856],[-122.0323,36.98085],[-122.03224,36.98188],[-122.03198,36.9825],[-122.03147,36.98315],[-122.03063,36.98384],[-122.02969,36.98436]],[[-122.50698,37.58505],[-122.50479,37.58555],[-122.5044,37.58585],[-122.50422,37.58622],[-122.50432,37.58672],[-122.50521,37.58773],[-122.50537,37.58832],[-122.50515,37.58881],[-122.50408,37.58985],[-122.5039,37.59051],[-122.50413,37.591],[-122.50576,37.59296],[-122.50589,37.59351],[-122.50576,37.59403],[-122.50549,37.59438],[-122.50103,37.5986],[-122.49876,37.60099],[-122.49841,37.60172],[-122.49829,37.60236],[-122.4986,37.60442],[-122.49859,37.60519],[-122.49833,37.60607],[-122.49784,37.60689],[-122.4968,37.60786],[-122.4937,37.60982]],[[-122.43442,37.4619],[-122.43342,37.46797],[-122.43342,37.46916],[-122.43374,37.47029],[-122.43432,37.47131],[-122.43629,37.4733]],[[-122.03228,36.97662],[-122.03268,36.97627],[-122.03316,36.97562]],[[-122.50103,37.5986],[-122.49896,37.60054],[-122.49833,37.60158],[-122.49817,37.60272],[-122.49846,37.60424],[-122.49848,37.60501],[-122.49827,37.60591],[-122.49789,37.60663],[-122.4969,37.60765],[-122.49338,37.60992]],[[-122.05074,36.96041],[-122.05022,36.96037],[-122.04951,36.96049],[-122.04745,36.96126]],[[-122.02972,36.98456],[-122.03069,36.98401],[-122.03139,36.98345],[-122.03203,36.9827],[-122.03238,36.98197],[-122.03245,36.9808],[-122.03186,36.9785],[-122.03194,36.97684]]]}}
