{"type":"Feature","properties":{"id":"highway-1-marin","name":"Highway 1 \u00b7 Marin coast","difficulty":2,"character":"Medium speed"},"geometry":{"type":"MultiLineString","coordinates":[[[-123.12991,38.45318],[-123.1288,38.45294],[-123.12742,38.45209],[-123.12613,38.45161],[-123.12512,38.45152],[-123.12497,38.45136],[-123.12475,38.45071],[-123.1243,38.45042],[-123.12302,38.45034],[-123.12149,38.45075],[-123.12038,38.4508],[-123.11591,38.44996],[-123.11517,38.44969],[-123.11487,38.44937],[-123.11446,38.44842],[-123.11308,38.44714],[-123.11224,38.44598],[-123.11104,38.4446],[-123.10673,38.43797],[-123.10625,38.43756],[-123.10565,38.43726],[-123.10496,38.43707],[-123.10424,38.43702],[-123.10385,38.43687],[-123.10239,38.43547],[-123.10103,38.43385],[-123.10057,38.43312],[-123.10041,38.43256],[-123.10059,38.43219],[-123.10116,38.43182],[-123.10367,38.43179],[-123.10399,38.43188],[-123.10453,38.43233],[-123.10495,38.43241],[-123.10566,38.43204],[-123.10644,38.43178],[-123.10722,38.43196],[-123.10837,38.43188],[-123.10867,38.43171],[-123.10873,38.43129],[-123.10817,38.42887],[-123.1075,38.42793],[-123.10638,38.42677],[-123.10604,38.42579],[-123.10452,38.42361],[-123.10421,38.42238],[-123.10112,38.41751],[-123.10074,38.41582],[-123.10055,38.41563],[-123.10016,38.41555],[-123.09892,38.41591],[-123.09859,38.41584],[-123.09842,38.41566],[-123.09845,38.41536],[-123.09897,38.41464],[-123.09912,38.41386],[-123.09817,38.4108],[-123.09793,38.41052],[-123.09712,38.41022],[-123.09685,38.41001],[-123.09652,38.4087],[-123.0955,38.40714],[-123.09548,38.40682],[-123.09567,38.40598],[-123.09511,38.40441],[-123.09492,38.40341],[-123.09498,38.40254],[-123.09489,38.40217],[-123.09457,38.40155],[-123.09426,38.40127],[-123.09293,38.40091],[-123.09267,38.40073],[-123.09271,38.40049],[-123.09316,38.40018],[-123.09332,38.39992],[-123.09349,38.39834],[-123.09343,38.39775],[-123.09286,38.39579],[-123.09228,38.39523],[-123.09069,38.39425],[-123.09015,38.3943],[-123.08892,38.39492],[-123.08863,38.39492],[-123.08846,38.3947],[-123.08849,38.39305],[-123.08824,38.39263],[-123.08592,38.39137],[-123.0841,38.3907],[-123.08367,38.39043],[-123.08317,38.38994],[-123.08289,38.38945],[-123.08274,38.38878],[-123.08311,38.38667],[-123.08308,38.38601],[-123.08202,38.38448],[-123.08195,38.38349],[-123.08182,38.38319],[-123.08049,38.38151],[-123.08019,38.38097],[-123.08,38.38018],[-123.07988,38.37802],[-123.0795,38.37764],[-123.07852,38.37738],[-123.07816,38.37712],[-123.07779,38.37619],[-123.07756,38.37438],[-123.07609,38.3724],[-123.07469,38.37124],[-123.07446,38.3704],[-123.07405,38.37017],[-123.07318,38.37033],[-123.07291,38.37018],[-123.07301,38.36933],[-123.07271,38.36848],[-123.07245,38.36802],[-123.07194,38.36752],[-123.07159,38.36661],[-123.07016,38.36437],[-123.06977,38.36319],[-123.06893,38.36228],[-123.0688,38.36118],[-123.06818,38.36029],[-123.06791,38.3593],[-123.06708,38.35798],[-123.06709,38.35697],[-123.06691,38.3564],[-123.06524,38.35506],[-123.06233,38.35306],[-123.0605,38.3513],[-123.05985,38.3502],[-123.05928,38.34952],[-123.05473,38.34759],[-123.05315,38.34652],[-123.05281,38.34607],[-123.0521,38.34434],[-123.0503,38.34201],[-123.04774,38.34044],[-123.04743,38.34035],[-123.04684,38.34034],[-123.04658,38.34022],[-123.04648,38.34003],[-123.04653,38.33974],[-123.048,38.33763],[-123.04806,38.33734],[-123.04783,38.33705],[-123.04598,38.33606],[-123.04565,38.33578],[-123.0456,38.33555],[-123.04587,38.33539],[-123.0465,38.33541],[-123.04729,38.33519],[-123.04843,38.33513],[-123.04877,38.33493],[-123.04888,38.33471],[-123.0478,38.33264],[-123.04702,38.33181],[-123.04693,38.33111],[-123.04607,38.3301],[-123.04464,38.32942],[-123.04351,38.32872],[-123.04309,38.32839],[-123.0426,38.32776],[-123.04195,38.32715],[-123.04068,38.32653],[-123.04008,38.32612],[-123.03404,38.31986],[-123.03239,38.31872],[-123.03057,38.31771],[-123.0298,38.31749],[-123.02922,38.31744],[-123.0281,38.31761],[-123.02474,38.31876],[-123.02351,38.31899],[-123.02213,38.31897],[-123.01801,38.31832],[-123.01683,38.31837],[-123.0158,38.31862],[-123.01473,38.31913],[-123.01351,38.32012],[-123.01315,38.32083],[-123.0132,38.32194],[-123.01296,38.32263],[-123.01087,38.32451],[-123.00762,38.32652],[-123.00705,38.32677],[-123.00654,38.32685],[-123.00404,38.32666],[-123.00298,38.32672],[-123.00178,38.32702],[-122.99934,38.32785],[-122.99878,38.32825],[-122.99805,38.32897],[-122.99556,38.33068],[-122.99514,38.33127],[-122.99392,38.33387],[-122.99352,38.33432],[-122.99296,38.33472],[-122.99227,38.33502],[-122.99005,38.33563],[-122.9882,38.33656],[-122.98727,38.33685],[-122.98019,38.33739],[-122.97653,38.33704],[-122.97556,38.33679],[-122.97455,38.33618],[-122.97338,38.33472],[-122.97232,38.33406],[-122.96755,38.33266],[-122.95561,38.3282],[-122.95424,38.32754],[-122.95323,38.3272],[-122.94474,38.32565],[-122.94387,38.32563],[-122.94255,38.32587],[-122.94196,38.32589],[-122.92971,38.32494],[-122.92903,38.32479],[-122.92841,38.32444],[-122.92794,38.32382],[-122.92784,38.32336],[-122.92792,38.32081],[-122.92773,38.32038],[-122.92666,38.31894],[-122.92628,38.31861],[-122.92578,38.31836],[-122.92442,38.31802],[-122.92243,38.31728],[-122.92189,38.31728],[-122.92146,38.31743],[-122.91913,38.31889],[-122.91839,38.31949],[-122.91737,38.32059],[-122.91675,38.32096],[-122.91434,38.32136],[-122.91205,38.32145],[-122.91006,38.32126],[-122.90808,38.3209],[-122.89894,38.31761],[-122.89653,38.31643],[-122.89756,38.31212],[-122.8976,38.3061],[-122.89697,38.30445],[-122.89548,38.29751],[-122.89545,38.29703],[-122.89603,38.29548],[-122.8968,38.29446],[-122.89752,38.2938],[-122.89875,38.29169],[-122.8989,38.2912],[-122.89941,38.28644],[-122.90031,38.28029],[-122.89999,38.27674],[-122.90026,38.27495],[-122.90026,38.27416],[-122.90052,38.27337],[-122.90126,38.27232],[-122.90217,38.27056],[-122.90255,38.26913],[-122.90253,38.26818],[-122.90222,38.26646],[-122.90104,38.26345],[-122.901,38.26179],[-122.90136,38.26074],[-122.90267,38.25934],[-122.90301,38.25883],[-122.90398,38.25661],[-122.90423,38.25246],[-122.90488,38.24568],[-122.90525,38.23983],[-122.9054,38.23958],[-122.906,38.23921],[-122.9069,38.23835],[-122.90767,38.23803],[-122.90812,38.23748],[-122.90866,38.2371],[-122.90924,38.23653],[-122.90942,38.23622],[-122.90937,38.23522],[-122.90951,38.23488],[-122.91005,38.23458],[-122.91075,38.23398],[-122.91226,38.23319],[-122.91317,38.23245],[-122.91369,38.23183],[-122.91427,38.2308],[-122.91502,38.23003],[-122.91593,38.22884],[-122.91631,38.22803],[-122.91606,38.22532],[-122.91625,38.22479],[-122.91652,38.22439],[-122.9183,38.22318],[-122.91931,38.2228],[-122.92002,38.2223],[-122.92193,38.22149],[-122.92222,38.22125],[-122.92261,38.22008],[-122.92299,38.21945],[-122.92297,38.21845],[-122.92346,38.21796],[-122.92345,38.21752],[-122.92318,38.21692],[-122.92332,38.21677],[-122.92417,38.21639],[-122.92441,38.21613],[-122.92459,38.21516],[-122.92454,38.21469],[-122.92495,38.214],[-122.92497,38.21297],[-122.92471,38.21263],[-122.92457,38.21225],[-122.92373,38.21119],[-122.92369,38.21093],[-122.92387,38.21068],[-122.92412,38.21058],[-122.92491,38.21069],[-122.92517,38.21061],[-122.92542,38.21035],[-122.92546,38.21012],[-122.92511,38.20828],[-122.92403,38.20601],[-122.92362,38.20562],[-122.9232,38.20549],[-122.92246,38.20544],[-122.92219,38.20528],[-122.92219,38.20509],[-122.92251,38.20457],[-122.92253,38.20401],[-122.92199,38.20227],[-122.92099,38.20138],[-122.92078,38.2001],[-122.92023,38.1991],[-122.92017,38.19877],[-122.92031,38.1972],[-122.91977,38.19658],[-122.91965,38.19582],[-122.91926,38.19494],[-122.91853,38.19424],[-122.91809,38.19354],[-122.91778,38.19233],[-122.91254,38.18829],[-122.91238,38.18792],[-122.91239,38.18646],[-122.91225,38.18584],[-122.91134,38.18426],[-122.91024,38.18366],[-122.90976,38.18324],[-122.90965,38.18294],[-122.90967,38.18173],[-122.90953,38.18109],[-122.90872,38.17999],[-122.90761,38.17883],[-122.90699,38.17846],[-122.90466,38.17826],[-122.90302,38.17735],[-122.90151,38.17667],[-122.90057,38.17565],[-122.89992,38.17473],[-122.89947,38.17352],[-122.89803,38.17217],[-122.89821,38.17104],[-122.89811,38.17077],[-122.89704,38.16989],[-122.89636,38.16896],[-122.8956,38.1682],[-122.89474,38.16769],[-122.89305,38.16702],[-122.89292,38.16687],[-122.89275,38.16611],[-122.89238,38.16551],[-122.89208,38.16522],[-122.89133,38.16485],[-122.89123,38.16467],[-122.89141,38.16428],[-122.89265,38.16316],[-122.89327,38.16247],[-122.89365,38.16131],[-122.89442,38.15997],[-122.89449,38.15941],[-122.89435,38.15901],[-122.89337,38.15769],[-122.89266,38.15641],[-122.89078,38.15385],[-122.89029,38.15342],[-122.88823,38.15201],[-122.88641,38.14943],[-122.88587,38.14914],[-122.88411,38.14885],[-122.88353,38.14856],[-122.8832,38.14808],[-122.88235,38.14565],[-122.88115,38.14405],[-122.88046,38.14377],[-122.87702,38.14303],[-122.87376,38.14117],[-122.87236,38.14065],[-122.87186,38.14036],[-122.8716,38.14002],[-122.87146,38.13956],[-122.87177,38.13783],[-122.87175,38.13734],[-122.87096,38.13594],[-122.87061,38.13392],[-122.87029,38.13335],[-122.8684,38.13208],[-122.86611,38.13014],[-122.86295,38.1282],[-122.85999,38.12664],[-122.85914,38.12627],[-122.85774,38.12585],[-122.85727,38.12553],[-122.85702,38.12506],[-122.85715,38.12389],[-122.85708,38.12349],[-122.85352,38.11734],[-122.85296,38.11601],[-122.85186,38.11507],[-122.84601,38.1093],[-122.84557,38.10909],[-122.84233,38.10873],[-122.84129,38.10889],[-122.84021,38.10933],[-122.83986,38.10929],[-122.83935,38.10898],[-122.83917,38.10866],[-122.8395,38.10763],[-122.8396,38.10592],[-122.83971,38.10566],[-122.84006,38.10534],[-122.84003,38.10503],[-122.83977,38.10484],[-122.83899,38.10452],[-122.83834,38.10363],[-122.83802,38.10353],[-122.83743,38.10354],[-122.83707,38.10332],[-122.83698,38.10301],[-122.83718,38.102],[-122.83647,38.10108],[-122.83592,38.10069],[-122.83507,38.10059],[-122.83481,38.10049],[-122.83396,38.0992],[-122.83285,38.09847],[-122.83234,38.09791],[-122.83148,38.09761],[-122.8298,38.09735],[-122.82921,38.09713],[-122.82905,38.09692],[-122.82902,38.09651],[-122.8292,38.09623],[-122.82969,38.09583],[-122.82964,38.09528],[-122.82882,38.09399],[-122.82791,38.09335],[-122.82744,38.09275],[-122.8271,38.09248],[-122.82656,38.09234],[-122.82601,38.09255],[-122.82581,38.09253],[-122.82567,38.09243],[-122.82555,38.09209],[-122.82509,38.09178],[-122.82479,38.09138],[-122.8225,38.09041],[-122.82218,38.0905],[-122.82146,38.0911],[-122.82079,38.09145],[-122.81905,38.09164],[-122.81686,38.09251],[-122.81647,38.09246],[-122.81603,38.09208],[-122.81469,38.09172],[-122.81428,38.09138],[-122.81369,38.09048],[-122.81177,38.0851],[-122.8085,38.07993],[-122.80832,38.07979],[-122.80801,38.07972],[-122.80651,38.08],[-122.80598,38.07977],[-122.80585,38.07956],[-122.8057,38.07879],[-122.80449,38.07777],[-122.80144,38.0735],[-122.8015,38.07322],[-122.80228,38.07232],[-122.80679,38.06879],[-122.80536,38.0676],[-122.80422,38.06707],[-122.80509,38.06581],[-122.80514,38.06415],[-122.80489,38.06349],[-122.80185,38.06032],[-122.80087,38.05846],[-122.8004,38.05811],[-122.79935,38.05769],[-122.79891,38.05729],[-122.79871,38.05692],[-122.79823,38.05523],[-122.79778,38.05454],[-122.79689,38.05382],[-122.79475,38.05256],[-122.79444,38.05227],[-122.79392,38.05114],[-122.79266,38.04905],[-122.79242,38.04756],[-122.79226,38.04717],[-122.79148,38.04646],[-122.79015,38.04487],[-122.78903,38.0439],[-122.78888,38.04346],[-122.78887,38.04221],[-122.78816,38.04075],[-122.78786,38.04053],[-122.78498,38.03928],[-122.7843,38.03865],[-122.78407,38.03769],[-122.78316,38.03534],[-122.78099,38.03111],[-122.77846,38.02716],[-122.77808,38.02679],[-122.77687,38.02624],[-122.77614,38.02511],[-122.77589,38.02495],[-122.77518,38.02478],[-122.77497,38.02462],[-122.77453,38.0234],[-122.77316,38.02123],[-122.77186,38.01957],[-122.77134,38.01845],[-122.76993,38.01694],[-122.76936,38.01609],[-122.76821,38.01519],[-122.76727,38.0142],[-122.76712,38.01361],[-122.76728,38.01244],[-122.76707,38.01202],[-122.7659,38.01121],[-122.76477,38.01068],[-122.7635,38.00883],[-122.76173,38.00745],[-122.76126,38.00695],[-122.75968,38.00465],[-122.75916,38.00373],[-122.75887,38.00307],[-122.75869,38.00192],[-122.75851,38.00155],[-122.75801,38.00102],[-122.75611,37.99976],[-122.75586,37.99948],[-122.75573,37.99875],[-122.7548,37.99735],[-122.75431,37.9955],[-122.75278,37.99326],[-122.75084,37.99153],[-122.74872,37.99041],[-122.74638,37.9885],[-122.7451,37.98793],[-122.74423,37.98711],[-122.74272,37.98592],[-122.74211,37.9851],[-122.74122,37.98445],[-122.74078,37.98335],[-122.73913,37.98127],[-122.73682,37.97944],[-122.73506,37.97856],[-122.73394,37.97749],[-122.73242,37.97532],[-122.7304,37.97279],[-122.7293,37.97118],[-122.72641,37.9693],[-122.72612,37.96903],[-122.72298,37.96442],[-122.7225,37.96343],[-122.72187,37.96303],[-122.7208,37.9626],[-122.71969,37.96172],[-122.71958,37.96127],[-122.71991,37.95992],[-122.71979,37.95954],[-122.7187,37.95883],[-122.71782,37.9588],[-122.71649,37.95861],[-122.71621,37.95843],[-122.716,37.958],[-122.71564,37.9577],[-122.71562,37.95726],[-122.71488,37.95701],[-122.71441,37.9564],[-122.71442,37.95612],[-122.71412,37.95543],[-122.71389,37.9539],[-122.7134,37.95286],[-122.71292,37.95141],[-122.71233,37.95019],[-122.71102,37.94799],[-122.71037,37.94744],[-122.7088,37.94683],[-122.70772,37.94608],[-122.70661,37.94579],[-122.70641,37.94561],[-122.70575,37.94357],[-122.70485,37.94131],[-122.70484,37.941],[-122.70515,37.94053],[-122.70523,37.94019],[-122.70505,37.93943],[-122.70371,37.93852],[-122.70288,37.93814],[-122.70201,37.93715],[-122.70084,37.93617],[-122.7,37.93562],[-122.69915,37.93523],[-122.69579,37.93414],[-122.69441,37.93342],[-122.69392,37.93338],[-122.6923,37.93352],[-122.69151,37.93312],[-122.691,37.93261],[-122.68986,37.93265],[-122.68899,37.93239],[-122.68868,37.93221],[-122.68855,37.93201],[-122.68862,37.9313],[-122.68853,37.93093],[-122.68829,37.93067],[-122.68793,37.9305],[-122.68607,37.93033],[-122.68422,37.93054],[-122.68368,37.93041],[-122.68271,37.92996],[-122.68238,37.9297],[-122.68215,37.92932],[-122.68214,37.92784],[-122.68065,37.9265],[-122.6804,37.92593],[-122.67899,37.92519],[-122.67836,37.92513],[-122.67653,37.92524],[-122.67601,37.92511],[-122.67556,37.92486],[-122.67517,37.92443],[-122.67436,37.92296],[-122.67403,37.92257],[-122.67346,37.92228],[-122.6727,37.92155],[-122.67177,37.92128],[-122.67144,37.92105],[-122.67102,37.92048],[-122.66997,37.91847],[-122.66792,37.91769],[-122.66753,37.9172],[-122.66632,37.91626],[-122.66494,37.91426],[-122.66363,37.91309],[-122.66304,37.9128],[-122.66224,37.91281],[-122.66182,37.91271],[-122.65994,37.91111],[-122.65686,37.90992],[-122.65585,37.90926],[-122.65481,37.90897],[-122.6544,37.90856],[-122.65376,37.90755],[-122.65348,37.90732],[-122.65176,37.9071],[-122.65131,37.90694],[-122.6509,37.90648],[-122.65015,37.9059],[-122.64972,37.90481],[-122.64888,37.90423],[-122.64812,37.90396],[-122.64759,37.90364],[-122.64678,37.90268],[-122.64545,37.90177],[-122.64434,37.90039],[-122.6431,37.89971],[-122.64249,37.89914],[-122.63989,37.89852],[-122.63789,37.89848],[-122.63754,37.89839],[-122.63707,37.89748],[-122.63694,37.89656],[-122.63671,37.89625],[-122.63628,37.89579],[-122.63608,37.89514],[-122.63568,37.89476],[-122.635,37.8932],[-122.63478,37.8931],[-122.63411,37.89315],[-122.63376,37.89298],[-122.63351,37.89273],[-122.63362,37.89137],[-122.63342,37.89093],[-122.63267,37.8903],[-122.63212,37.8901],[-122.631,37.8895],[-122.63,37.88926],[-122.62933,37.88884],[-122.62924,37.88839],[-122.62959,37.88779],[-122.62954,37.88741],[-122.6293,37.88731],[-122.62874,37.88732],[-122.62722,37.88668],[-122.62677,37.88677],[-122.62617,37.88664],[-122.62399,37.88676],[-122.62318,37.8865],[-122.62266,37.8859],[-122.62248,37.88495],[-122.62233,37.88469],[-122.62238,37.8843],[-122.6219,37.88408],[-122.6219,37.88357],[-122.62123,37.88312],[-122.62125,37.88269],[-122.62109,37.88237],[-122.6204,37.88194],[-122.62022,37.88159],[-122.61997,37.88141],[-122.61927,37.8814],[-122.61905,37.88132],[-122.61871,37.881],[-122.61853,37.88064],[-122.61662,37.87934],[-122.61637,37.87927],[-122.61618,37.87933],[-122.61585,37.87978],[-122.61563,37.87993],[-122.61502,37.87982],[-122.6143,37.88001],[-122.61381,37.88046],[-122.61316,37.88136],[-122.61288,37.88177],[-122.6128,37.88209],[-122.61205,37.88224],[-122.61164,37.88265],[-122.61092,37.88302],[-122.61086,37.88288],[-122.61116,37.88258],[-122.61211,37.88093],[-122.61208,37.88028],[-122.61219,37.87989],[-122.61205,37.87921],[-122.61182,37.87917],[-122.61032,37.87952],[-122.60993,37.87947],[-122.60961,37.87929],[-122.60883,37.87857],[-122.60703,37.87833],[-122.60658,37.87799],[-122.60603,37.87786],[-122.60528,37.87732],[-122.60477,37.87757],[-122.60434,37.87844],[-122.60413,37.87844],[-122.60339,37.8781],[-122.60316,37.8781],[-122.60229,37.87837],[-122.60145,37.87918],[-122.60121,37.87921],[-122.6011,37.87911],[-122.60103,37.87869],[-122.60031,37.87858],[-122.60019,37.87836],[-122.60034,37.87822],[-122.60134,37.87777],[-122.60172,37.87747],[-122.6019,37.87714],[-122.60174,37.87681],[-122.60061,37.8766],[-122.59992,37.87635],[-122.59927,37.87568],[-122.59905,37.87508],[-122.59868,37.87485],[-122.59763,37.87472],[-122.59692,37.87496],[-122.59547,37.87511],[-122.59477,37.87529],[-122.594,37.87503],[-122.59337,37.87445],[-122.59284,37.87371],[-122.59236,37.87335],[-122.59148,37.87219],[-122.59061,37.87138],[-122.58992,37.87005]],[[-122.51625,37.87867],[-122.51678,37.87905],[-122.51739,37.87983],[-122.51798,37.88016],[-122.51804,37.88042],[-122.51878,37.88058],[-122.51981,37.88096],[-122.52036,37.88097],[-122.52105,37.88069],[-122.52162,37.87999],[-122.52195,37.87975],[-122.52248,37.87958],[-122.52301,37.87961],[-122.52338,37.87977],[-122.52366,37.88005],[-122.52479,37.88177],[-122.52492,37.88212],[-122.52566,37.88175],[-122.5265,37.88116],[-122.52718,37.88036],[-122.52793,37.87984],[-122.52834,37.87928],[-122.52873,37.87908],[-122.53237,37.879],[-122.53517,37.87959],[-122.53735,37.87992],[-122.53781,37.88014],[-122.53819,37.88048],[-122.53839,37.88103],[-122.53834,37.88301],[-122.53815,37.88374],[-122.53806,37.88508],[-122.53745,37.88617],[-122.5377,37.88631],[-122.53878,37.88605],[-122.53912,37.88613],[-122.53966,37.88644],[-122.54007,37.8868],[-122.54037,37.8875],[-122.54079,37.88762],[-122.54131,37.88806],[-122.54149,37.88797],[-122.54145,37.88744],[-122.54164,37.88703],[-122.5416,37.8869],[-122.54132,37.88672],[-122.54129,37.88656],[-122.54189,37.88611],[-122.54214,37.88604],[-122.54256,37.88618],[-122.54356,37.88725],[-122.54427,37.88749],[-122.54465,37.88795],[-122.54479,37.88799],[-122.54507,37.88771],[-122.54534,37.8876],[-122.54556,37.88761],[-122.54607,37.88785],[-122.54655,37.88772],[-122.5471,37.88778],[-122.5475,37.88724],[-122.54825,37.88687],[-122.54865,37.88689],[-122.54918,37.88709],[-122.54993,37.88711],[-122.55058,37.88735],[-122.55132,37.88723],[-122.55167,37.88662],[-122.55155,37.8861],[-122.55164,37.88587],[-122.55185,37.88567],[-122.55254,37.88533],[-122.55286,37.88494],[-122.55357,37.88441],[-122.55373,37.88415],[-122.55413,37.88388],[-122.55411,37.88337],[-122.55433,37.88293],[-122.55376,37.88242],[-122.5539,37.88136],[-122.55423,37.88044],[-122.55371,37.87958],[-122.55373,37.87938],[-122.55405,37.87921],[-122.55452,37.87942],[-122.5547,37.87938],[-122.55478,37.87871],[-122.55499,37.87853],[-122.55547,37.87834],[-122.55579,37.87747],[-122.55655,37.87694],[-122.55767,37.87687],[-122.55773,37.87669],[-122.5575,37.87618],[-122.55752,37.87599],[-122.5578,37.87575],[-122.55888,37.8753],[-122.55919,37.87495],[-122.56025,37.87467],[-122.56096,37.87479],[-122.5615,37.875],[-122.56172,37.87496],[-122.56175,37.87481],[-122.56141,37.87406],[-122.5614,37.87385],[-122.56157,37.87365],[-122.56201,37.87347],[-122.56217,37.87306],[-122.56255,37.87284],[-122.56266,37.87232],[-122.5631,37.8719],[-122.56356,37.87172],[-122.56356,37.87159],[-122.56319,37.87115],[-122.56305,37.87073],[-122.56318,37.87043],[-122.56351,37.87007]],[[-122.51445,37.87903],[-122.51558,37.87986],[-122.51613,37.88014],[-122.51692,37.88034],[-122.51804,37.88042]]]}}
