{"type":"Feature","properties":{"id":"highland-valley","name":"Highland Valley Road","difficulty":2,"character":"Medium speed"},"geometry":{"type":"MultiLineString","coordinates":[[[-117.0672,33.05287],[-117.06685,33.05301],[-117.06566,33.05305],[-117.0647,33.05368],[-117.06408,33.05386],[-117.06157,33.05394],[-117.05924,33.05365],[-117.05805,33.05341],[-117.05627,33.05263],[-117.05447,33.0524],[-117.0528,33.05201],[-117.05127,33.05139],[-117.04999,33.05136],[-117.04768,33.05157],[-117.04602,33.05126],[-117.04538,33.05125],[-117.04276,33.05239],[-117.04144,33.05236],[-117.03998,33.05254],[-117.03943,33.0527],[-117.03772,33.05388],[-117.03586,33.05551],[-117.03505,33.05642],[-117.03434,33.05662],[-117.03297,33.05669],[-117.03118,33.05771],[-117.03071,33.05817],[-117.0304,33.05871],[-117.0301,33.06161],[-117.02998,33.0619],[-117.02956,33.06214],[-117.02811,33.06203],[-117.02773,33.06212],[-117.02749,33.06234],[-117.02742,33.06285],[-117.02719,33.06318],[-117.02714,33.06348],[-117.02699,33.06361],[-117.02681,33.0636],[-117.02444,33.06254],[-117.02326,33.06255],[-117.02258,33.06306],[-117.02235,33.06343],[-117.02222,33.06349],[-117.02197,33.06345],[-117.02154,33.06316],[-117.02078,33.06283],[-117.0206,33.06294],[-117.02035,33.06359],[-117.0202,33.06374],[-117.01797,33.06507],[-117.01674,33.06531],[-117.01486,33.06547],[-117.01458,33.06567],[-117.01438,33.06618],[-117.01401,33.06639],[-117.00047,33.06623],[-117.00026,33.06635],[-116.99985,33.06717],[-116.99966,33.06734],[-116.99926,33.06747],[-116.99828,33.0676],[-116.99677,33.06824],[-116.99467,33.06787],[-116.99397,33.06739],[-116.99321,33.06718],[-116.9922,33.06736],[-116.99132,33.06711],[-116.98379,33.067],[-116.98344,33.06679],[-116.98287,33.0658],[-116.98235,33.06538],[-116.98229,33.06448],[-116.98209,33.06381],[-116.98152,33.06351],[-116.9808,33.0634],[-116.98059,33.06327],[-116.98025,33.0627],[-116.98001,33.06254],[-116.97889,33.06251],[-116.97861,33.0624],[-116.97748,33.06136],[-116.97655,33.06099],[-116.9761,33.06043],[-116.97367,33.05896],[-116.97346,33.05873],[-116.97307,33.05795],[-116.97263,33.0576],[-116.9715,33.05708],[-116.97121,33.05679],[-116.97083,33.05606],[-116.97086,33.05526],[-116.97039,33.05437],[-116.97042,33.05378],[-116.97011,33.05183],[-116.97017,33.0512],[-116.97054,33.05042],[-116.97066,33.04869],[-116.97106,33.04743],[-116.97124,33.04716],[-116.97146,33.04695],[-116.97194,33.04671],[-116.97243,33.046],[-116.9737,33.04516],[-116.97413,33.04443],[-116.97398,33.04418],[-116.97314,33.04394],[-116.97256,33.04337],[-116.97168,33.04305],[-116.97148,33.04287],[-116.97123,33.04222],[-116.97136,33.04166],[-116.97197,33.04108],[-116.97239,33.04038],[-116.9723,33.04024],[-116.9718,33.04007],[-116.97109,33.03962],[-116.97094,33.0394],[-116.97133,33.03874],[-116.97101,33.03846],[-116.97154,33.03765],[-116.97154,33.03744],[-116.97135,33.03713],[-116.97149,33.03702],[-116.97213,33.03695],[-116.97298,33.03641],[-116.97352,33.03644],[-116.97361,33.03631],[-116.97362,33.03573],[-116.97392,33.03512],[-116.97374,33.03432],[-116.97408,33.03253],[-116.97403,33.03194],[-116.97371,33.03135],[-116.97286,33.03054],[-116.97213,33.03011],[-116.97154,33.02991],[-116.9709,33.02981],[-116.96969,33.02979],[-116.96892,33.03],[-116.96741,33.03077],[-116.96597,33.03111],[-116.96489,33.03186],[-116.96448,33.03205],[-116.96311,33.03218],[-116.96164,33.03268],[-116.95959,33.03308],[-116.95583,33.0332],[-116.95525,33.03304],[-116.95488,33.03276],[-116.9539,33.03311],[-116.95321,33.03316],[-116.93616,33.03291],[-116.93607,33.02774],[-116.93587,33.02733],[-116.93485,33.02696],[-116.92667,33.02274],[-116.92137,33.01826],[-116.92094,33.01807],[-116.91914,33.01769],[-116.91529,33.01761],[-116.91436,33.01738],[-116.91101,33.01556],[-116.91024,33.01505],[-116.90857,33.01317]]]}}
