{"type":"Feature","properties":{"id":"highway-9-front","name":"Highway 9 \u00b7 Front Side","difficulty":3,"character":"Technical"},"geometry":{"type":"MultiLineString","coordinates":[[[-122.12197,37.25852],[-122.1214,37.25859],[-122.12104,37.25852],[-122.12077,37.25832],[-122.12049,37.25771],[-122.12027,37.25757],[-122.11927,37.25714],[-122.11846,37.25701],[-122.11714,37.25634],[-122.11666,37.25619],[-122.11623,37.25619],[-122.11586,37.25635],[-122.11565,37.25657],[-122.11568,37.2576],[-122.11548,37.25794],[-122.11522,37.25814],[-122.11436,37.2585],[-122.11388,37.25894],[-122.11317,37.25908],[-122.11261,37.25931],[-122.11249,37.25945],[-122.11243,37.25967],[-122.11284,37.26019],[-122.1128,37.26039],[-122.11253,37.26047],[-122.11159,37.2601],[-122.11134,37.26009],[-122.11006,37.26067],[-122.10968,37.26069],[-122.10923,37.26042],[-122.10915,37.25985],[-122.10923,37.25963],[-122.10964,37.25927],[-122.10957,37.25863],[-122.10978,37.25843],[-122.11069,37.25799],[-122.11082,37.25763],[-122.11057,37.25729],[-122.10973,37.25697],[-122.10961,37.2567],[-122.10977,37.25621],[-122.10971,37.25604],[-122.10939,37.25588],[-122.10918,37.25588],[-122.10894,37.25606],[-122.10823,37.25722],[-122.10733,37.2577],[-122.10685,37.25832],[-122.10646,37.25864],[-122.10573,37.25896],[-122.10505,37.25897],[-122.10456,37.25908],[-122.10332,37.25988],[-122.10277,37.26003],[-122.10099,37.25999],[-122.10057,37.25988],[-122.09985,37.25937],[-122.09956,37.25935],[-122.09914,37.25951],[-122.099,37.2597],[-122.09902,37.2599],[-122.09935,37.26025],[-122.10133,37.26081],[-122.10258,37.2614],[-122.10269,37.26163],[-122.10265,37.26183],[-122.10239,37.26203],[-122.10207,37.26206],[-122.10185,37.26196],[-122.1013,37.26137],[-122.10094,37.26114],[-122.09979,37.26131],[-122.09906,37.26107],[-122.09831,37.26094],[-122.0973,37.26051],[-122.09606,37.25981],[-122.09587,37.25951],[-122.0961,37.259],[-122.0961,37.25879],[-122.09556,37.25815],[-122.09538,37.25806],[-122.09472,37.25793],[-122.09322,37.25789],[-122.09274,37.25776],[-122.09229,37.25751],[-122.09056,37.25592],[-122.09004,37.25494],[-122.08956,37.25445],[-122.08812,37.25352],[-122.08753,37.253],[-122.08595,37.25197],[-122.0851,37.25121],[-122.0835,37.25012],[-122.08239,37.24961],[-122.08069,37.24944],[-122.07983,37.24917],[-122.0791,37.24879],[-122.07703,37.24853],[-122.07596,37.24831],[-122.07484,37.24768],[-122.07427,37.24752],[-122.07216,37.248],[-122.07029,37.24819],[-122.06957,37.24815],[-122.06847,37.24856],[-122.06811,37.24884],[-122.06806,37.24989],[-122.06758,37.25126],[-122.06737,37.2515],[-122.06698,37.25168],[-122.0668,37.25168],[-122.0664,37.25145],[-122.06574,37.25123],[-122.06478,37.25114],[-122.06435,37.25128],[-122.06339,37.25185],[-122.06201,37.25186],[-122.06133,37.25241],[-122.06108,37.25249],[-122.06019,37.2525],[-122.05937,37.25211],[-122.05841,37.2524],[-122.05766,37.25246],[-122.05703,37.25235],[-122.05587,37.25188],[-122.05451,37.25175],[-122.05427,37.25163],[-122.05385,37.25122],[-122.05314,37.25101],[-122.0529,37.25112],[-122.05271,37.25139],[-122.05217,37.25167],[-122.05189,37.25204],[-122.05174,37.2521],[-122.05007,37.25204],[-122.04921,37.25213],[-122.04807,37.25189],[-122.04735,37.25212],[-122.04633,37.25266],[-122.04538,37.25262],[-122.04329,37.25288],[-122.04293,37.25306],[-122.04262,37.25373],[-122.04245,37.25384],[-122.04133,37.25367],[-122.04041,37.25413],[-122.03843,37.25437],[-122.03822,37.25459],[-122.03819,37.25523],[-122.03805,37.25547],[-122.03558,37.25601],[-122.03307,37.25819],[-122.03244,37.25904],[-122.03215,37.25925],[-122.03187,37.25932],[-122.03159,37.25856],[-122.03126,37.25817],[-122.03157,37.25838]],[[-122.0201,37.25036],[-122.02235,37.25214],[-122.02725,37.25491],[-122.03126,37.25817]]]}}
