{"type":"Feature","properties":{"id":"historic-columbia-river-highway","name":"Historic Columbia River Highway \u00b7 US 30 Historic","difficulty":2,"character":"Medium speed"},"geometry":{"type":"MultiLineString","coordinates":[[[-122.41167,45.54129],[-122.41146,45.54156],[-122.4111,45.54179],[-122.40861,45.54271],[-122.40582,45.54289],[-122.4038,45.54257],[-122.40102,45.54138],[-122.39821,45.5408],[-122.39267,45.54076],[-122.39224,45.54063],[-122.39192,45.54077],[-122.38446,45.54071],[-122.38414,45.54051],[-122.38378,45.53974],[-122.38349,45.53938],[-122.38102,45.53728],[-122.38056,45.53709],[-122.38013,45.53714],[-122.37608,45.53863],[-122.37582,45.53881],[-122.37518,45.53847],[-122.37407,45.53729],[-122.37294,45.53663],[-122.37214,45.5359],[-122.37155,45.53523],[-122.37116,45.53453],[-122.37118,45.5341],[-122.37183,45.53304],[-122.37192,45.53229],[-122.37106,45.52917],[-122.37096,45.52492],[-122.3707,45.52447],[-122.3694,45.52354],[-122.36862,45.52275],[-122.3678,45.521],[-122.3677,45.52028],[-122.36779,45.51939],[-122.36888,45.51682],[-122.3693,45.51624],[-122.37059,45.51498],[-122.3708,45.51461],[-122.37083,45.51427],[-122.3706,45.51372],[-122.3701,45.51325],[-122.3686,45.51262],[-122.36762,45.51243],[-122.36663,45.51243],[-122.36587,45.51265],[-122.36407,45.51414],[-122.36218,45.51542],[-122.36015,45.51646],[-122.35637,45.51767],[-122.354,45.51785],[-122.35021,45.51845],[-122.34777,45.51845],[-122.34662,45.51821],[-122.34581,45.51791],[-122.34509,45.51753],[-122.34425,45.51647],[-122.34384,45.51629],[-122.3433,45.51621],[-122.34205,45.51637],[-122.34094,45.51673],[-122.33789,45.51857],[-122.33687,45.51894],[-122.33613,45.51901],[-122.32988,45.51898],[-122.32954,45.5189],[-122.32923,45.51869],[-122.32816,45.51763],[-122.32582,45.51681],[-122.32472,45.51627],[-122.32422,45.51619],[-122.32357,45.51625],[-122.32115,45.51703],[-122.31865,45.51873],[-122.31822,45.51891],[-122.31435,45.51895],[-122.31361,45.51917],[-122.31335,45.51943],[-122.31326,45.51975],[-122.31317,45.52261],[-122.3119,45.52412],[-122.31176,45.52469],[-122.31175,45.52568],[-122.31124,45.52627],[-122.30999,45.52659],[-122.30812,45.52663],[-122.30569,45.52707],[-122.30489,45.52736],[-122.30105,45.52926],[-122.29697,45.53026],[-122.28877,45.5325],[-122.28779,45.5325],[-122.28334,45.53196],[-122.28292,45.53178],[-122.28081,45.53029],[-122.27763,45.52975],[-122.2752,45.5298],[-122.2739,45.53033],[-122.27198,45.53068],[-122.26855,45.53247],[-122.26794,45.5327],[-122.26554,45.53329],[-122.26056,45.53322],[-122.26005,45.53302],[-122.25873,45.53223],[-122.25776,45.53186],[-122.25487,45.53137],[-122.25365,45.53148],[-122.25098,45.53205],[-122.25039,45.5323],[-122.24976,45.53271],[-122.2494,45.53313],[-122.2488,45.53455],[-122.24866,45.5355],[-122.24803,45.53583],[-122.24748,45.53648],[-122.24746,45.53749],[-122.24653,45.53822],[-122.24538,45.53827],[-122.24473,45.53857],[-122.2444,45.53907],[-122.24474,45.53952],[-122.24473,45.53971],[-122.24441,45.5399],[-122.24404,45.53981],[-122.24392,45.53967],[-122.24401,45.53857],[-122.24395,45.53843],[-122.24373,45.53831],[-122.24331,45.5384],[-122.24284,45.5389],[-122.24217,45.53893],[-122.2415,45.53923],[-122.24094,45.53908],[-122.24075,45.53888],[-122.24059,45.53813],[-122.24038,45.53787],[-122.24002,45.53777],[-122.23939,45.53779],[-122.23898,45.5376],[-122.23892,45.53722],[-122.23917,45.53668],[-122.23909,45.53633],[-122.23779,45.53529],[-122.23754,45.53461],[-122.23671,45.53403],[-122.23536,45.53359],[-122.23485,45.53289],[-122.23452,45.53279],[-122.23425,45.53291],[-122.23398,45.53356],[-122.23377,45.53377],[-122.23296,45.53408],[-122.23012,45.53393],[-122.22985,45.53408],[-122.22985,45.53432],[-122.23,45.53442],[-122.23121,45.5345],[-122.23136,45.53472],[-122.23128,45.53487],[-122.23103,45.53496],[-122.23015,45.53479],[-122.22988,45.53502],[-122.23002,45.53528],[-122.23046,45.53539],[-122.23201,45.53533],[-122.23277,45.53549],[-122.23295,45.53574],[-122.23275,45.53593],[-122.23153,45.53581],[-122.23019,45.53592],[-122.22913,45.5365],[-122.22772,45.53704],[-122.22613,45.5376],[-122.22559,45.53766],[-122.2249,45.53761],[-122.22414,45.53815],[-122.22311,45.53843],[-122.22062,45.53869],[-122.21953,45.53854],[-122.21735,45.53902],[-122.21183,45.54077],[-122.21114,45.54117],[-122.21077,45.54128],[-122.20863,45.541],[-122.20653,45.5412],[-122.2058,45.54145],[-122.20386,45.54245],[-122.20154,45.5442],[-122.2006,45.5446],[-122.19876,45.54575],[-122.19837,45.54622],[-122.19803,45.54639],[-122.19709,45.54718],[-122.19686,45.54767],[-122.19628,45.548],[-122.19453,45.54866],[-122.19231,45.5491],[-122.19103,45.54966],[-122.18981,45.54991],[-122.18914,45.55027],[-122.18748,45.55142],[-122.18538,45.55244],[-122.18086,45.55391],[-122.17946,45.55452],[-122.17923,45.5548],[-122.17933,45.55518],[-122.17914,45.55561],[-122.17755,45.55653],[-122.17264,45.56033],[-122.17206,45.56059],[-122.17167,45.56115],[-122.16223,45.56697],[-122.16163,45.56751],[-122.1612,45.56769],[-122.16043,45.56781],[-122.15972,45.56811],[-122.15697,45.57099],[-122.15666,45.57122],[-122.15621,45.5714],[-122.15368,45.57181],[-122.15128,45.57232],[-122.15053,45.57257],[-122.14533,45.57481],[-122.14391,45.57487],[-122.14259,45.57534],[-122.14188,45.57543],[-122.13985,45.57542],[-122.13677,45.57516],[-122.13427,45.57541],[-122.13321,45.57565],[-122.13223,45.57564],[-122.13095,45.57596],[-122.1305,45.57591],[-122.12938,45.57552],[-122.12874,45.5754],[-122.12722,45.57548],[-122.12673,45.57561],[-122.12547,45.57619],[-122.1218,45.57699],[-122.11722,45.57775],[-122.11453,45.57852],[-122.11165,45.57915],[-122.10267,45.58077],[-122.1012,45.58151],[-122.09995,45.58185],[-122.09915,45.58217],[-122.09826,45.58233],[-122.09751,45.58268],[-122.09487,45.58343],[-122.09284,45.58372],[-122.09084,45.58431],[-122.08728,45.58627],[-122.08631,45.58661],[-122.08532,45.58685],[-122.0833,45.58707],[-122.08282,45.58733],[-122.07931,45.58828],[-122.07727,45.58918],[-122.0763,45.58948],[-122.07498,45.58976],[-122.07053,45.59027],[-122.06815,45.59029],[-122.06619,45.59085],[-122.06521,45.59098],[-122.06387,45.59101],[-122.06317,45.59115],[-122.05934,45.59249],[-122.05532,45.59496],[-122.05129,45.59642],[-122.05049,45.59708],[-122.04841,45.59935],[-122.04782,45.59967],[-122.04715,45.59994],[-122.04454,45.60036],[-122.0439,45.60055]]]}}
