{"type":"Feature","properties":{"id":"hopland-grade","name":"Hopland Grade \u00b7 Hwy 175","difficulty":3,"character":"Technical"},"geometry":{"type":"MultiLineString","coordinates":[[[-123.11662,38.97124],[-123.10876,38.97116],[-123.10509,38.97162],[-123.10352,38.97195],[-123.10313,38.97213],[-123.10274,38.97246],[-123.10211,38.97373],[-123.09922,38.97718],[-123.09899,38.97729],[-123.0984,38.97718],[-123.09556,38.97579],[-123.0914,38.97498],[-123.089,38.97395],[-123.08805,38.97366],[-123.0866,38.97345],[-123.08224,38.97322],[-123.08087,38.97329],[-123.07983,38.97351],[-123.07053,38.97648],[-123.0697,38.97693],[-123.06908,38.97747],[-123.06883,38.97785],[-123.06868,38.97851],[-123.0685,38.97878],[-123.06803,38.97903],[-123.06766,38.97906],[-123.06662,38.97901],[-123.06543,38.97865],[-123.06439,38.97847],[-123.06365,38.9781],[-123.06255,38.97725],[-123.06126,38.97698],[-123.06053,38.9771],[-123.05872,38.97792],[-123.05817,38.97809],[-123.05701,38.97815],[-123.05598,38.97795],[-123.05197,38.97678],[-123.04315,38.97476],[-123.04169,38.97405],[-123.03898,38.97374],[-123.03738,38.97306],[-123.03527,38.97121],[-123.03483,38.97105],[-123.03216,38.9709],[-123.03035,38.97098],[-123.02843,38.9714],[-123.02643,38.97166],[-123.02542,38.97157],[-123.02437,38.97161],[-123.02181,38.97241],[-123.02133,38.97245],[-123.02114,38.97234],[-123.0212,38.97213],[-123.02229,38.97147],[-123.02296,38.97119],[-123.02356,38.97061],[-123.02502,38.97014],[-123.02575,38.96975],[-123.02678,38.96972],[-123.02714,38.96963],[-123.02731,38.96942],[-123.0273,38.96897],[-123.02747,38.9688],[-123.02831,38.96871],[-123.02918,38.96892],[-123.02941,38.96876],[-123.02933,38.96858],[-123.02887,38.96829],[-123.02805,38.96823],[-123.02468,38.96889],[-123.02288,38.96886],[-123.02091,38.96961],[-123.02044,38.97024],[-123.02003,38.97042],[-123.01924,38.97102],[-123.01877,38.97172],[-123.01846,38.97197],[-123.01706,38.9725],[-123.01615,38.9726],[-123.01492,38.97296],[-123.01449,38.97357],[-123.01455,38.97432],[-123.0138,38.97457],[-123.0136,38.9748],[-123.01358,38.97495],[-123.01381,38.97539],[-123.01362,38.97586],[-123.01377,38.97659],[-123.01362,38.97722],[-123.01257,38.97818],[-123.01156,38.97814],[-123.01149,38.97825],[-123.01158,38.97869],[-123.01124,38.97899],[-123.01072,38.97907],[-123.01025,38.97926],[-123.00929,38.9793],[-123.00885,38.97948],[-123.00889,38.97967],[-123.00918,38.97988],[-123.01025,38.98037],[-123.01035,38.98064],[-123.01016,38.98089],[-123.0098,38.981],[-123.00908,38.98082],[-123.00808,38.98097],[-123.00768,38.98077],[-123.007,38.9806],[-123.00641,38.98074],[-123.00593,38.98073],[-123.00558,38.98089],[-123.00535,38.9813],[-123.00498,38.98146],[-123.00438,38.9821],[-123.00428,38.98245],[-123.00413,38.98253],[-123.00254,38.98276],[-123.00162,38.98263],[-123.00017,38.98306],[-123.00001,38.98305],[-122.99937,38.98268],[-122.99899,38.9827],[-122.99845,38.98349],[-122.99792,38.98375],[-122.99754,38.98405],[-122.99697,38.98425],[-122.99667,38.98446],[-122.99632,38.98496],[-122.99559,38.98527],[-122.99543,38.98577],[-122.99549,38.9865],[-122.99515,38.98692],[-122.9946,38.98728],[-122.99372,38.98749],[-122.99278,38.98784],[-122.99219,38.98787],[-122.99166,38.98775],[-122.99119,38.98783],[-122.99017,38.98846],[-122.98898,38.98835],[-122.98851,38.9886],[-122.98792,38.98924],[-122.98754,38.98936],[-122.98717,38.98929],[-122.9867,38.98889],[-122.98636,38.98875],[-122.9842,38.98911],[-122.98367,38.9891],[-122.98338,38.98899],[-122.98306,38.98873],[-122.98294,38.98839],[-122.98349,38.98698],[-122.98346,38.98667],[-122.9833,38.98647],[-122.98188,38.98585],[-122.98145,38.98541],[-122.98023,38.98546],[-122.97993,38.98534],[-122.97958,38.98498],[-122.97907,38.98481],[-122.97796,38.98483],[-122.9775,38.9847],[-122.97732,38.98447],[-122.97723,38.9839],[-122.9774,38.98299],[-122.97716,38.9828],[-122.97616,38.98254],[-122.9756,38.98284],[-122.97466,38.98302],[-122.97396,38.98293],[-122.97345,38.98277],[-122.97262,38.98232],[-122.97234,38.98207],[-122.97251,38.98172],[-122.97242,38.98149],[-122.97128,38.98105],[-122.97099,38.98077],[-122.97034,38.98069],[-122.9698,38.98049],[-122.96962,38.98053],[-122.96927,38.98084],[-122.9687,38.98086],[-122.96841,38.98075],[-122.96834,38.98043],[-122.96822,38.98033],[-122.96704,38.98034],[-122.96589,38.98101],[-122.96499,38.98115],[-122.9649,38.98133],[-122.96515,38.98178],[-122.96531,38.98186],[-122.96568,38.98182],[-122.96611,38.98143],[-122.96669,38.98148],[-122.96712,38.98089],[-122.96743,38.98084],[-122.96787,38.98114],[-122.96803,38.98156],[-122.96847,38.98222],[-122.96898,38.98256],[-122.96941,38.98262],[-122.96988,38.98235],[-122.97027,38.98251],[-122.97033,38.98267],[-122.97016,38.98304],[-122.97026,38.9834],[-122.97009,38.9835],[-122.96936,38.98362],[-122.96926,38.98387],[-122.96943,38.98412],[-122.96992,38.98442],[-122.97004,38.98476],[-122.97036,38.98503],[-122.97047,38.98539],[-122.97118,38.98567],[-122.9717,38.98563],[-122.97212,38.98577],[-122.97259,38.98577],[-122.97271,38.98594],[-122.97223,38.98678],[-122.97262,38.98737],[-122.97256,38.98772],[-122.97228,38.98774],[-122.97189,38.98743],[-122.97135,38.98735],[-122.97056,38.98761],[-122.96932,38.9883],[-122.96863,38.9885],[-122.96825,38.98882],[-122.9677,38.98998],[-122.96751,38.99099],[-122.9672,38.99158],[-122.9671,38.99453],[-122.96701,38.9948],[-122.96686,38.99488],[-122.96641,38.99482],[-122.96553,38.99437],[-122.96439,38.99431],[-122.96292,38.99401],[-122.9615,38.99331],[-122.96044,38.99318],[-122.95986,38.99328],[-122.95791,38.9939],[-122.95661,38.99384],[-122.9555,38.99407],[-122.95423,38.99405],[-122.95392,38.99419],[-122.9537,38.9945],[-122.95335,38.99477],[-122.9527,38.99499],[-122.95243,38.99541],[-122.95178,38.99581],[-122.95086,38.99605],[-122.94949,38.99606],[-122.94909,38.99655],[-122.94849,38.99663],[-122.94664,38.99558],[-122.94622,38.99515],[-122.94581,38.99506],[-122.94469,38.9952],[-122.94401,38.99517],[-122.94319,38.99542],[-122.94267,38.99547],[-122.94069,38.99503],[-122.94017,38.99502],[-122.93975,38.99523],[-122.93918,38.99587],[-122.9388,38.99606],[-122.93811,38.99599],[-122.93697,38.99609],[-122.93388,38.99536],[-122.93317,38.99536],[-122.93117,38.99567],[-122.93067,38.99563],[-122.93015,38.99529],[-122.92977,38.9943],[-122.92938,38.99388],[-122.92839,38.99334],[-122.92795,38.99323],[-122.92742,38.99354],[-122.927,38.99424],[-122.92628,38.99446],[-122.92537,38.99522],[-122.92453,38.9955],[-122.92352,38.996],[-122.92248,38.9958],[-122.92202,38.99586],[-122.91964,38.99745],[-122.91899,38.99809],[-122.91847,38.99843],[-122.91621,38.99904],[-122.91359,38.9996],[-122.91303,38.99987],[-122.9127,39.00021],[-122.91255,39.00076],[-122.91256,39.01141],[-122.91382,39.0134],[-122.91395,39.01389],[-122.91339,39.01649],[-122.91327,39.01671],[-122.9129,39.01689]]]}}
