{"type":"Feature","properties":{"id":"horseshoe-meadow","name":"Horseshoe Meadow Road","difficulty":3,"character":"Technical"},"geometry":{"type":"MultiLineString","coordinates":[[[-118.16491,36.44961],[-118.16308,36.45027],[-118.16099,36.45083],[-118.16062,36.45117],[-118.16045,36.45159],[-118.16049,36.45205],[-118.16144,36.4544],[-118.16184,36.45593],[-118.16358,36.45809],[-118.16379,36.45851],[-118.16381,36.459],[-118.16371,36.45932],[-118.16315,36.45989],[-118.16241,36.46014],[-118.16008,36.46045],[-118.15873,36.46084],[-118.15666,36.46094],[-118.15605,36.46104],[-118.15175,36.46276],[-118.15081,36.46301],[-118.14963,36.46317],[-118.14348,36.46511],[-118.14227,36.46538],[-118.14073,36.46554],[-118.13946,36.46592],[-118.13812,36.46654],[-118.13702,36.46675],[-118.13583,36.46717],[-118.13526,36.46713],[-118.13411,36.46683],[-118.13316,36.46687],[-118.13245,36.46702],[-118.1318,36.46736],[-118.13083,36.46857],[-118.1305,36.46872],[-118.1297,36.46882],[-118.12897,36.46916],[-118.12708,36.47079],[-118.12651,36.47089],[-118.12578,36.47066],[-118.12538,36.47065],[-118.12444,36.47104],[-118.12357,36.47111],[-118.12275,36.47141],[-118.12193,36.47154],[-118.12139,36.47198],[-118.12059,36.47308],[-118.12009,36.47334],[-118.11977,36.47337],[-118.11886,36.47317],[-118.11791,36.47329],[-118.1158,36.47278],[-118.11516,36.47284],[-118.11487,36.47311],[-118.11463,36.47358],[-118.11424,36.47396],[-118.11395,36.47448],[-118.1134,36.47493],[-118.11247,36.47657],[-118.11126,36.47725],[-118.1112,36.47747],[-118.11136,36.47817],[-118.11126,36.47883],[-118.11113,36.47937],[-118.11085,36.47965],[-118.10886,36.47995],[-118.10676,36.48011],[-118.10509,36.48078],[-118.1026,36.48105],[-118.1016,36.48152],[-118.10137,36.48135],[-118.10144,36.48114],[-118.10212,36.48072],[-118.10357,36.48009],[-118.10353,36.47982],[-118.10326,36.47976],[-118.10235,36.48014],[-118.10162,36.48032],[-118.10044,36.48032],[-118.09967,36.48093],[-118.09891,36.48122],[-118.09883,36.4814],[-118.0989,36.48216],[-118.09947,36.48304],[-118.0998,36.48322],[-118.10053,36.48334],[-118.10097,36.48394],[-118.10149,36.48425],[-118.10192,36.48468],[-118.10262,36.48486],[-118.10336,36.48526],[-118.10411,36.48527],[-118.10421,36.48538],[-118.10411,36.48557],[-118.10332,36.4856],[-118.10258,36.4853],[-118.10131,36.48514],[-118.09972,36.48422],[-118.09856,36.48423],[-118.09817,36.48397],[-118.09794,36.48351],[-118.09736,36.48322],[-118.09671,36.48256],[-118.09586,36.48225],[-118.09524,36.48226],[-118.09458,36.48178],[-118.09369,36.48166],[-118.09317,36.48138],[-118.09243,36.48124],[-118.0922,36.48112],[-118.09197,36.48078],[-118.0919,36.47963],[-118.09213,36.47928],[-118.09335,36.47859],[-118.09337,36.47834],[-118.09319,36.47816],[-118.09277,36.47818],[-118.09204,36.47869],[-118.09112,36.47868],[-118.09063,36.47884],[-118.0902,36.47939],[-118.0902,36.47995],[-118.08996,36.48048],[-118.0901,36.48085],[-118.09052,36.48121],[-118.09078,36.48161],[-118.09134,36.48191],[-118.09179,36.48236],[-118.09245,36.48258],[-118.09351,36.48352],[-118.09448,36.48385],[-118.09463,36.48407],[-118.09478,36.48471],[-118.09496,36.4849],[-118.09543,36.48516],[-118.09609,36.48617],[-118.09702,36.48659],[-118.09743,36.48696],[-118.09792,36.48774],[-118.09941,36.48845],[-118.10011,36.48917],[-118.10033,36.48981],[-118.10036,36.49177],[-118.10032,36.49406],[-118.10009,36.49431],[-118.0999,36.49427],[-118.09983,36.49408],[-118.0999,36.49323],[-118.0996,36.49193],[-118.09885,36.49071],[-118.09827,36.49008],[-118.09582,36.48847],[-118.09403,36.48787],[-118.09304,36.48735],[-118.09168,36.48617],[-118.08919,36.48505],[-118.08823,36.48419],[-118.08637,36.48307],[-118.08601,36.48271],[-118.08551,36.48177],[-118.08519,36.48141],[-118.08241,36.4794],[-118.08213,36.4789],[-118.08189,36.47696],[-118.08164,36.47682],[-118.08139,36.47699],[-118.08131,36.47953],[-118.08174,36.4807],[-118.08381,36.48303],[-118.08477,36.48438],[-118.08741,36.48904],[-118.08855,36.49028],[-118.08921,36.49122],[-118.08961,36.492],[-118.08981,36.49292],[-118.09045,36.49459],[-118.09141,36.49599],[-118.09188,36.49656],[-118.09486,36.49944],[-118.09623,36.50182],[-118.09699,36.50262],[-118.09945,36.50409],[-118.10122,36.50464],[-118.10201,36.50466],[-118.10232,36.50481],[-118.10247,36.50505],[-118.10243,36.5054],[-118.10159,36.50659],[-118.1012,36.50679],[-118.1003,36.50694],[-118.09929,36.50742],[-118.09899,36.50772],[-118.09891,36.50813],[-118.10072,36.51696],[-118.10119,36.52021],[-118.10147,36.52088],[-118.10527,36.5269],[-118.10569,36.52803],[-118.10649,36.53192],[-118.10332,36.56614],[-118.10329,36.56718],[-118.10355,36.56794],[-118.10405,36.56853],[-118.10576,36.56959],[-118.10812,36.57141],[-118.11029,36.57316],[-118.11192,36.57464],[-118.11554,36.58161],[-118.11593,36.58284],[-118.11607,36.58411],[-118.11593,36.58642],[-118.11581,36.59452]]]}}
