{"type":"Feature","properties":{"id":"hyatt-prairie-road","name":"Hyatt Prairie Road","difficulty":2,"character":"Technical"},"geometry":{"type":"MultiLineString","coordinates":[[[-122.47012,42.17427],[-122.47018,42.17507],[-122.47,42.17555],[-122.46862,42.17748],[-122.46805,42.17788],[-122.46687,42.17833],[-122.46656,42.17859],[-122.46645,42.17904],[-122.46658,42.17959],[-122.46635,42.17998],[-122.46599,42.18032],[-122.46561,42.18052],[-122.46384,42.18079],[-122.46343,42.18111],[-122.46326,42.18138],[-122.46285,42.18252],[-122.46229,42.18303],[-122.45839,42.18545],[-122.45632,42.18742],[-122.45611,42.18787],[-122.456,42.18823],[-122.45571,42.19241],[-122.45591,42.19285],[-122.45982,42.1962],[-122.46017,42.19674],[-122.46023,42.19719],[-122.45992,42.19829],[-122.45879,42.20123],[-122.45787,42.20158],[-122.45706,42.20155],[-122.45321,42.19979],[-122.45252,42.19963],[-122.45181,42.19971],[-122.45104,42.2],[-122.448,42.20245],[-122.44668,42.20346],[-122.44612,42.20374],[-122.43281,42.20867],[-122.43228,42.20898],[-122.43088,42.21135],[-122.43039,42.21175],[-122.42599,42.21244],[-122.42152,42.21367],[-122.41825,42.2147],[-122.4168,42.21601],[-122.41654,42.21644],[-122.41611,42.2186],[-122.41664,42.22013],[-122.41664,42.22077],[-122.41618,42.22282],[-122.41646,42.22394],[-122.41641,42.22669],[-122.41585,42.22973],[-122.41589,42.23029],[-122.41656,42.23144],[-122.41675,42.23245],[-122.4153,42.2377],[-122.41569,42.23911],[-122.41484,42.2404],[-122.41485,42.24072],[-122.41587,42.24305],[-122.4168,42.24368],[-122.41701,42.2441],[-122.41683,42.24473],[-122.4163,42.24558],[-122.41607,42.2462],[-122.41603,42.24679],[-122.41612,42.24734],[-122.41682,42.24844],[-122.41737,42.24921],[-122.4178,42.24959],[-122.41968,42.25076],[-122.42038,42.25108],[-122.42159,42.25135],[-122.42309,42.25205],[-122.42428,42.25322],[-122.42632,42.25566],[-122.42658,42.25588],[-122.42723,42.25612],[-122.43051,42.25703],[-122.43263,42.25702],[-122.43479,42.25736],[-122.43603,42.2574],[-122.43994,42.25648],[-122.4412,42.25642],[-122.44343,42.25698],[-122.44662,42.25741],[-122.44701,42.25763],[-122.44738,42.25808],[-122.44714,42.26041],[-122.44727,42.26082],[-122.44771,42.2614],[-122.44908,42.26239],[-122.44921,42.26273],[-122.44924,42.2656],[-122.44934,42.26592]]]}}
