{"type":"Feature","properties":{"id":"independence-pass","name":"Independence Pass \u00b7 CO 82","difficulty":3,"character":"Technical"},"geometry":{"type":"MultiLineString","coordinates":[[[-106.81794,39.19042],[-106.81529,39.18986],[-106.81476,39.18958],[-106.81467,39.18928],[-106.81534,39.18733],[-106.8105,39.18635],[-106.80934,39.18582],[-106.80846,39.1852],[-106.80752,39.18369],[-106.80659,39.18251],[-106.80591,39.18214],[-106.80537,39.18198],[-106.80374,39.18191],[-106.80301,39.18171],[-106.80145,39.18058],[-106.80106,39.18017],[-106.80085,39.17976],[-106.80064,39.17888],[-106.80029,39.17857],[-106.79917,39.17814],[-106.79683,39.17746],[-106.79553,39.17659],[-106.79531,39.17623],[-106.79518,39.17517],[-106.7948,39.17452],[-106.7944,39.17416],[-106.79238,39.17291],[-106.79187,39.17108],[-106.79158,39.17078],[-106.79043,39.17005],[-106.78991,39.16924],[-106.7897,39.16815],[-106.78923,39.16719],[-106.78876,39.1633],[-106.78851,39.16242],[-106.78804,39.16179],[-106.78647,39.16045],[-106.78609,39.15999],[-106.78545,39.15797],[-106.78559,39.15663],[-106.78551,39.15618],[-106.78518,39.15575],[-106.78407,39.155],[-106.78372,39.15436],[-106.7836,39.15364],[-106.78385,39.15244],[-106.78384,39.15089],[-106.78357,39.15013],[-106.78271,39.14938],[-106.78156,39.14889],[-106.78086,39.14878],[-106.779,39.14882],[-106.77821,39.14861],[-106.77779,39.14839],[-106.77478,39.14554],[-106.77006,39.14237],[-106.76862,39.14097],[-106.76638,39.13857],[-106.76613,39.13795],[-106.76589,39.13542],[-106.76564,39.13496],[-106.76524,39.13458],[-106.76474,39.13427],[-106.7638,39.13403],[-106.75739,39.13403],[-106.75664,39.13396],[-106.75566,39.13372],[-106.75145,39.13165],[-106.75004,39.13031],[-106.74936,39.12986],[-106.74721,39.12914],[-106.74583,39.12883],[-106.74458,39.12824],[-106.74316,39.12723],[-106.7421,39.12606],[-106.73926,39.12589],[-106.7375,39.1256],[-106.73616,39.12521],[-106.73544,39.12487],[-106.7337,39.12454],[-106.73242,39.12396],[-106.73066,39.12286],[-106.7301,39.12188],[-106.72937,39.12148],[-106.7286,39.12074],[-106.72759,39.12015],[-106.727,39.1201],[-106.72665,39.12046],[-106.7258,39.12074],[-106.72537,39.12076],[-106.72419,39.12007],[-106.72358,39.11999],[-106.72273,39.11965],[-106.7224,39.11975],[-106.72165,39.12042],[-106.72063,39.12069],[-106.71965,39.12082],[-106.71874,39.12047],[-106.71702,39.12048],[-106.71424,39.11987],[-106.71141,39.11999],[-106.71011,39.12024],[-106.7093,39.12012],[-106.70861,39.11973],[-106.70818,39.11963],[-106.7076,39.11974],[-106.70682,39.11961],[-106.70543,39.11954],[-106.70264,39.11956],[-106.70114,39.11915],[-106.70077,39.11884],[-106.70045,39.11873],[-106.7001,39.1188],[-106.69999,39.11891],[-106.69998,39.11934],[-106.69967,39.1195],[-106.69892,39.11921],[-106.69823,39.11906],[-106.69765,39.11869],[-106.69671,39.11872],[-106.69593,39.11852],[-106.69444,39.11847],[-106.69334,39.1186],[-106.69184,39.11902],[-106.6893,39.11942],[-106.68735,39.11996],[-106.68648,39.12036],[-106.68572,39.12165],[-106.68526,39.12213],[-106.6844,39.12237],[-106.68394,39.12271],[-106.68373,39.1231],[-106.68332,39.12337],[-106.68275,39.12363],[-106.68169,39.12369],[-106.68098,39.12386],[-106.68058,39.12406],[-106.6798,39.12471],[-106.67868,39.1251],[-106.6779,39.12507],[-106.67718,39.12458],[-106.67661,39.12464],[-106.67493,39.12571],[-106.67379,39.1263],[-106.6732,39.12646],[-106.67214,39.1264],[-106.66997,39.12558],[-106.66842,39.1252],[-106.66788,39.12515],[-106.6658,39.12541],[-106.66445,39.12583],[-106.66234,39.12574],[-106.66064,39.12596],[-106.65939,39.12586],[-106.65834,39.12587],[-106.65751,39.12612],[-106.65614,39.12625],[-106.65449,39.12655],[-106.6532,39.12642],[-106.65216,39.12658],[-106.65133,39.12635],[-106.65055,39.12628],[-106.64888,39.12592],[-106.64697,39.12604],[-106.6447,39.12591],[-106.64145,39.12612],[-106.64078,39.12609],[-106.63375,39.12499],[-106.6322,39.12443],[-106.63134,39.123],[-106.63106,39.12285],[-106.62762,39.12268],[-106.62454,39.12167],[-106.62398,39.12167],[-106.62347,39.12182],[-106.62244,39.12264],[-106.62196,39.12318],[-106.62158,39.12319],[-106.62145,39.123],[-106.62199,39.12222],[-106.62216,39.12158],[-106.62217,39.12094],[-106.62241,39.12026],[-106.62204,39.11966],[-106.62146,39.11914],[-106.62123,39.11791],[-106.6205,39.11683],[-106.62042,39.11532],[-106.6202,39.11471],[-106.61851,39.11232],[-106.61666,39.11046],[-106.61354,39.10864],[-106.61104,39.10788],[-106.60758,39.1075],[-106.60338,39.10686],[-106.59989,39.10685],[-106.59578,39.10734],[-106.59427,39.10772],[-106.5933,39.10817],[-106.59224,39.10899],[-106.59071,39.1098],[-106.58851,39.11058],[-106.58734,39.11085],[-106.58649,39.11125],[-106.58467,39.11184],[-106.5823,39.11356],[-106.58144,39.11434],[-106.58054,39.11565],[-106.57997,39.11799],[-106.58001,39.11846],[-106.58041,39.11966],[-106.58134,39.12146],[-106.58156,39.12243],[-106.58168,39.12441],[-106.58144,39.12462],[-106.58112,39.12467],[-106.58045,39.12435],[-106.57947,39.12406],[-106.57852,39.12354],[-106.57659,39.12269],[-106.57515,39.12239],[-106.57496,39.1219],[-106.57403,39.12058],[-106.57336,39.11905],[-106.573,39.11858],[-106.57299,39.11801],[-106.57283,39.11745],[-106.5722,39.11662],[-106.57262,39.11586],[-106.57288,39.11465],[-106.57342,39.11337],[-106.57361,39.11234],[-106.57428,39.11066],[-106.57421,39.11022],[-106.57391,39.10982],[-106.57235,39.10912],[-106.56849,39.10831],[-106.56741,39.10818],[-106.56527,39.10822],[-106.5643,39.10846],[-106.56378,39.1087],[-106.56264,39.10966],[-106.56163,39.11082],[-106.56108,39.11101],[-106.56044,39.11096],[-106.5601,39.11084],[-106.55981,39.1106],[-106.55881,39.10933],[-106.55598,39.10716],[-106.55431,39.10596],[-106.55406,39.10585],[-106.55326,39.10574],[-106.55342,39.10558],[-106.55405,39.10566],[-106.55561,39.10628],[-106.55818,39.10753],[-106.55854,39.10757],[-106.55901,39.10749],[-106.55934,39.10724],[-106.55951,39.10693],[-106.55959,39.10533],[-106.55972,39.10515],[-106.5608,39.1044],[-106.56243,39.10369],[-106.56408,39.10257],[-106.56498,39.10224],[-106.56851,39.10021],[-106.57142,39.09934],[-106.57152,39.09916],[-106.57131,39.09906],[-106.56991,39.09944],[-106.56696,39.10005],[-106.56615,39.10037],[-106.56411,39.10092],[-106.5629,39.10149],[-106.56189,39.10175],[-106.55803,39.10225],[-106.55542,39.10244],[-106.55433,39.10245],[-106.55237,39.10229],[-106.55153,39.10244],[-106.55067,39.10314],[-106.55052,39.10335],[-106.54926,39.10578],[-106.54727,39.10912],[-106.54582,39.11043],[-106.54489,39.11171],[-106.54338,39.11298],[-106.54232,39.1137],[-106.5405,39.11568],[-106.53867,39.1161],[-106.53857,39.11595],[-106.53869,39.1158],[-106.53966,39.11535],[-106.54005,39.115],[-106.541,39.1129],[-106.54252,39.11162],[-106.54308,39.11015],[-106.54412,39.10913],[-106.54472,39.10801],[-106.54486,39.10749],[-106.54384,39.10021],[-106.54231,39.09476],[-106.54106,39.09285],[-106.5409,39.09232],[-106.5409,39.09176],[-106.54151,39.0887],[-106.54156,39.0877],[-106.5412,39.08658],[-106.54064,39.08574],[-106.53848,39.08285],[-106.53774,39.08215],[-106.53563,39.08113],[-106.5289,39.07755],[-106.5259,39.07523],[-106.5251,39.07474],[-106.52057,39.07275],[-106.51716,39.07075],[-106.51621,39.07038],[-106.51134,39.06907],[-106.51043,39.06893],[-106.5086,39.06882],[-106.50538,39.06803],[-106.50012,39.06745],[-106.49932,39.06748],[-106.49864,39.06765],[-106.49362,39.06955],[-106.47984,39.07168],[-106.47544,39.07148],[-106.47226,39.0704],[-106.47166,39.07035],[-106.47075,39.07064],[-106.46838,39.07184],[-106.46695,39.072],[-106.46605,39.07203],[-106.46511,39.07181],[-106.4644,39.07176],[-106.46165,39.07205],[-106.45781,39.0719],[-106.45139,39.07094],[-106.44952,39.071],[-106.44751,39.07167],[-106.44586,39.07171],[-106.44519,39.07157],[-106.4442,39.07088],[-106.44273,39.07059],[-106.44238,39.07039],[-106.44172,39.06971],[-106.44101,39.06941],[-106.44015,39.0694],[-106.43859,39.06981],[-106.43795,39.06983],[-106.43345,39.06885],[-106.42768,39.06874],[-106.42652,39.06848],[-106.425,39.0679],[-106.42318,39.06772],[-106.41501,39.0672],[-106.41443,39.06734],[-106.41409,39.06752],[-106.41289,39.06837],[-106.41239,39.0686],[-106.41047,39.06908],[-106.40975,39.06908],[-106.40886,39.06871],[-106.40853,39.06823],[-106.40862,39.06781],[-106.40938,39.06713],[-106.40964,39.0667],[-106.40981,39.06566],[-106.4098,39.06511],[-106.40967,39.06482],[-106.40943,39.06457],[-106.40811,39.0638],[-106.40711,39.06295],[-106.40671,39.06275],[-106.40614,39.06266],[-106.40559,39.06288],[-106.40361,39.06417],[-106.40272,39.06442],[-106.40102,39.06459],[-106.40051,39.06479],[-106.40017,39.06506],[-106.39998,39.0655],[-106.40001,39.06586],[-106.40094,39.06721],[-106.40149,39.0685],[-106.40172,39.06998],[-106.40159,39.07041],[-106.40101,39.07115],[-106.3999,39.07191],[-106.39895,39.07272],[-106.39859,39.07351],[-106.39835,39.07461],[-106.39789,39.07523],[-106.39569,39.07668],[-106.39414,39.07742]]]}}
