{"type":"Feature","properties":{"id":"jamison","name":"Jamison Creek Road","difficulty":3,"character":"Technical"},"geometry":{"type":"MultiLineString","coordinates":[[[-122.15785,37.1462],[-122.15852,37.14628],[-122.15979,37.14671],[-122.16145,37.14766],[-122.16252,37.14809],[-122.16308,37.14849],[-122.16414,37.14958],[-122.16455,37.14979],[-122.16562,37.1498],[-122.1667,37.15014],[-122.16767,37.15016],[-122.16809,37.15007],[-122.16962,37.14929],[-122.17047,37.14922],[-122.17179,37.14946],[-122.17257,37.14991],[-122.17336,37.15004],[-122.1737,37.15024],[-122.17396,37.15054],[-122.17487,37.1505],[-122.17609,37.15074],[-122.17686,37.15077],[-122.17767,37.1512],[-122.178,37.15124],[-122.17811,37.15111],[-122.17807,37.15095],[-122.17689,37.15028],[-122.17733,37.14967],[-122.17751,37.14909],[-122.17739,37.14888],[-122.17711,37.14887],[-122.17667,37.14914],[-122.17594,37.14912],[-122.17528,37.14923],[-122.1749,37.14862],[-122.17436,37.14832],[-122.17423,37.14803],[-122.17454,37.14795],[-122.17576,37.14823],[-122.17607,37.14814],[-122.17647,37.14766],[-122.17731,37.1477],[-122.17767,37.14742],[-122.17779,37.14701],[-122.17802,37.14689],[-122.17842,37.14644],[-122.17858,37.14652],[-122.17897,37.14718],[-122.17964,37.14701],[-122.17995,37.14684],[-122.18066,37.14582],[-122.1807,37.14543],[-122.18054,37.14513],[-122.18054,37.14484],[-122.18007,37.14398],[-122.18047,37.14311],[-122.18075,37.14304],[-122.18119,37.14319],[-122.18176,37.1432],[-122.18229,37.14342],[-122.18257,37.14331],[-122.18253,37.14309],[-122.18201,37.14284],[-122.18157,37.14244],[-122.18151,37.14221],[-122.18168,37.14199],[-122.182,37.14198],[-122.18244,37.1424],[-122.18306,37.14257],[-122.18325,37.14255],[-122.18368,37.14229],[-122.18403,37.14231],[-122.1846,37.14282],[-122.18489,37.14291],[-122.18567,37.14279],[-122.18702,37.14205],[-122.18712,37.14189]]]}}
