{"type":"Feature","properties":{"id":"kanan-dume","name":"Kanan Dume Road","difficulty":2,"character":"Medium speed"},"geometry":{"type":"MultiLineString","coordinates":[[[-118.8026,34.02151],[-118.80244,34.02169],[-118.80161,34.02426],[-118.80085,34.02606],[-118.80037,34.02674],[-118.79819,34.02916],[-118.79765,34.0301],[-118.79742,34.03082],[-118.79742,34.03158],[-118.79773,34.03237],[-118.79821,34.03295],[-118.79991,34.0343],[-118.80037,34.03499],[-118.80052,34.03577],[-118.80023,34.03672],[-118.79765,34.03968],[-118.79716,34.04077],[-118.79715,34.04174],[-118.79764,34.0438],[-118.79773,34.04497],[-118.79736,34.04765],[-118.79738,34.04818],[-118.79756,34.04871],[-118.79828,34.04981],[-118.79842,34.05039],[-118.79831,34.05101],[-118.79769,34.05251],[-118.79761,34.05375],[-118.79846,34.05622],[-118.79867,34.05852],[-118.79892,34.05918],[-118.79917,34.0595],[-118.80015,34.06012],[-118.80276,34.06098],[-118.8038,34.06158],[-118.80479,34.0625],[-118.80752,34.06555],[-118.80981,34.06699],[-118.81167,34.06872],[-118.81194,34.06936],[-118.81191,34.07084],[-118.81203,34.07118],[-118.81476,34.07423],[-118.815,34.07465],[-118.81518,34.07533],[-118.81511,34.07689],[-118.81528,34.07755],[-118.81553,34.07788],[-118.81607,34.07825],[-118.81758,34.07871],[-118.81837,34.07904],[-118.81905,34.07965],[-118.81934,34.0802],[-118.81944,34.08065],[-118.81939,34.08126],[-118.81896,34.08208],[-118.81845,34.08254],[-118.81656,34.08363],[-118.81629,34.08386],[-118.81591,34.08443],[-118.81579,34.08504],[-118.81588,34.0856],[-118.81663,34.08676],[-118.8168,34.08732],[-118.81666,34.08789],[-118.81573,34.08893],[-118.81544,34.08958],[-118.81567,34.09085],[-118.81627,34.09184],[-118.81638,34.09214],[-118.8164,34.09264],[-118.81609,34.09324],[-118.81454,34.0953],[-118.81312,34.09621],[-118.81309,34.09641],[-118.81338,34.09652]]]}}
