{"type":"Feature","properties":{"id":"kings","name":"Kings Mountain Road","difficulty":3,"character":"Technical"},"geometry":{"type":"MultiLineString","coordinates":[[[-122.26621,37.42605],[-122.26922,37.42764],[-122.27158,37.42954],[-122.27408,37.43073],[-122.27656,37.43073],[-122.28,37.43001],[-122.28033,37.43004],[-122.28071,37.43017],[-122.28085,37.43033],[-122.28218,37.43236],[-122.28267,37.4324],[-122.28345,37.43222],[-122.28359,37.43271],[-122.28467,37.43316],[-122.28535,37.43308],[-122.28589,37.43314],[-122.28653,37.43341],[-122.28715,37.43322],[-122.28796,37.43273],[-122.28839,37.4323],[-122.28912,37.43187],[-122.28979,37.4303],[-122.29005,37.43011],[-122.29019,37.43014],[-122.29052,37.43148],[-122.29089,37.43213],[-122.29114,37.43231],[-122.29156,37.43244],[-122.29176,37.43274],[-122.29163,37.43305],[-122.29106,37.43337],[-122.29098,37.43364],[-122.29106,37.43501],[-122.29139,37.43562],[-122.29146,37.43611],[-122.2931,37.43752],[-122.29408,37.43785],[-122.29428,37.43784],[-122.29433,37.43771],[-122.29395,37.43749],[-122.29381,37.43726],[-122.29326,37.43595],[-122.29292,37.43474],[-122.29294,37.43445],[-122.29321,37.43405],[-122.29368,37.43383],[-122.29421,37.43325],[-122.2942,37.43297],[-122.29387,37.43245],[-122.29399,37.43097],[-122.29391,37.43068],[-122.29418,37.43077],[-122.29419,37.43142],[-122.2945,37.43174],[-122.29468,37.43217],[-122.29509,37.43221],[-122.29603,37.432],[-122.29615,37.43209],[-122.2957,37.43246],[-122.29587,37.43272],[-122.29686,37.43308],[-122.2972,37.43311],[-122.29784,37.43348],[-122.2982,37.43349],[-122.29864,37.43332],[-122.29875,37.43318],[-122.29875,37.43285],[-122.29819,37.43243],[-122.29904,37.4317],[-122.29934,37.43116],[-122.299,37.42977],[-122.29865,37.429],[-122.2988,37.42867],[-122.29854,37.42838],[-122.29868,37.42807],[-122.2984,37.42774],[-122.29898,37.42663],[-122.2992,37.42664],[-122.29915,37.42713],[-122.29953,37.42761],[-122.29969,37.42806],[-122.30016,37.42839],[-122.30064,37.42892],[-122.30105,37.42888],[-122.30136,37.42922],[-122.30161,37.42924],[-122.30241,37.42879],[-122.303,37.42825],[-122.30336,37.42823],[-122.30395,37.42846],[-122.30398,37.42831],[-122.30373,37.42795],[-122.30382,37.42776],[-122.30481,37.42754],[-122.30538,37.42724],[-122.30642,37.42611],[-122.30679,37.42592],[-122.30755,37.42595],[-122.30861,37.42569],[-122.31066,37.42575],[-122.3112,37.42558],[-122.31179,37.42557],[-122.31352,37.42498],[-122.3139,37.42495]]]}}
