{"type":"Feature","properties":{"id":"la-honda","name":"La Honda Road \u00b7 Hwy 84","difficulty":2,"character":"Medium speed"},"geometry":{"type":"MultiLineString","coordinates":[[[-122.25512,37.42939],[-122.26565,37.42622],[-122.26662,37.42586],[-122.26843,37.42407],[-122.26839,37.42383],[-122.26753,37.42221],[-122.26752,37.42193],[-122.26777,37.42174],[-122.26902,37.42121],[-122.26936,37.42074],[-122.26946,37.4203],[-122.26927,37.41965],[-122.26768,37.41774],[-122.26629,37.41688],[-122.26517,37.41582],[-122.25715,37.40762],[-122.2565,37.40612],[-122.25671,37.4056],[-122.25637,37.40517],[-122.25635,37.40496],[-122.25668,37.40416],[-122.25702,37.4039],[-122.25751,37.40374],[-122.25811,37.40309],[-122.25841,37.40294],[-122.25874,37.40227],[-122.25965,37.40159],[-122.26041,37.40084],[-122.26108,37.39953],[-122.26149,37.39826],[-122.26133,37.39816],[-122.26112,37.39822],[-122.26059,37.3987],[-122.25946,37.40027],[-122.25807,37.4008],[-122.25755,37.40112],[-122.25684,37.40133],[-122.25668,37.4012],[-122.25662,37.40055],[-122.25586,37.39949],[-122.25588,37.39921],[-122.25617,37.3986],[-122.25613,37.39838],[-122.25582,37.39813],[-122.25505,37.39792]],[[-122.25504,37.39722],[-122.25655,37.39725],[-122.25809,37.39831],[-122.25845,37.39827],[-122.25869,37.39814],[-122.25881,37.39786],[-122.25868,37.3977],[-122.25801,37.39759],[-122.25712,37.39688],[-122.25717,37.39575],[-122.25738,37.39511],[-122.25673,37.39435],[-122.25648,37.39347],[-122.25653,37.39322],[-122.25716,37.39288],[-122.2575,37.39252],[-122.25781,37.3924],[-122.25933,37.39243],[-122.25997,37.39282],[-122.26074,37.39306],[-122.26229,37.39229],[-122.2622,37.39212],[-122.26168,37.39207],[-122.26114,37.39152],[-122.26115,37.39132],[-122.26165,37.39078],[-122.26148,37.39027],[-122.26166,37.39016],[-122.26283,37.38992],[-122.26375,37.38931],[-122.26383,37.38915],[-122.26348,37.38827],[-122.26234,37.38775],[-122.26246,37.38661],[-122.26134,37.38613],[-122.26136,37.38511],[-122.26162,37.38503],[-122.26187,37.38509],[-122.26327,37.38604],[-122.26407,37.38636],[-122.26464,37.38636],[-122.26544,37.38621],[-122.26659,37.38631],[-122.26711,37.38613],[-122.26736,37.38585],[-122.26732,37.38543],[-122.26712,37.38502],[-122.26642,37.38445],[-122.26552,37.38405],[-122.26503,37.38366],[-122.26507,37.38294],[-122.26438,37.38218],[-122.26467,37.38073],[-122.26494,37.3804],[-122.2648,37.37924],[-122.26519,37.37703],[-122.26554,37.37604],[-122.26547,37.37519],[-122.26538,37.37496],[-122.26507,37.37467],[-122.26485,37.37403],[-122.26435,37.37355],[-122.2645,37.37264],[-122.26437,37.37229],[-122.264,37.3721],[-122.26305,37.37206],[-122.26284,37.37187],[-122.26279,37.37162],[-122.26293,37.37139],[-122.26402,37.37051],[-122.26409,37.37],[-122.2636,37.36933],[-122.26364,37.36859],[-122.26347,37.36826],[-122.26297,37.36808],[-122.26248,37.36815],[-122.26207,37.36805],[-122.26175,37.36784],[-122.26163,37.36763],[-122.26164,37.36727],[-122.26184,37.36686],[-122.26294,37.36606],[-122.26312,37.36568],[-122.26247,37.36433],[-122.26218,37.36418],[-122.2613,37.36401],[-122.26045,37.36357],[-122.26028,37.36334],[-122.2602,37.3631],[-122.26027,37.36288],[-122.26101,37.3624],[-122.26114,37.36206],[-122.26102,37.36173],[-122.26044,37.36113],[-122.26035,37.36056],[-122.26068,37.35993],[-122.26155,37.35944],[-122.26224,37.35938],[-122.26342,37.35964],[-122.26395,37.3595],[-122.26466,37.3588],[-122.26528,37.35791],[-122.26603,37.35728],[-122.26635,37.35687],[-122.26639,37.35646],[-122.26624,37.35615],[-122.26439,37.3543],[-122.26425,37.35337],[-122.26438,37.35271],[-122.26431,37.35187],[-122.26445,37.35113],[-122.26483,37.35081],[-122.26562,37.35045],[-122.26596,37.34998],[-122.26656,37.34942],[-122.2667,37.34853],[-122.26623,37.34723],[-122.26638,37.34669],[-122.26676,37.34637],[-122.2672,37.34624],[-122.26756,37.34625],[-122.26871,37.34655],[-122.27002,37.34632],[-122.27155,37.34575],[-122.27197,37.34539],[-122.27224,37.34496],[-122.2723,37.34427],[-122.27192,37.3424],[-122.27042,37.34018],[-122.26997,37.33847],[-122.26933,37.33782],[-122.26936,37.33695],[-122.26888,37.33634],[-122.26895,37.33605],[-122.26942,37.33559],[-122.26954,37.33534],[-122.26914,37.33464],[-122.26916,37.33426],[-122.2697,37.33391],[-122.27118,37.33321],[-122.27135,37.33294],[-122.27051,37.33086],[-122.27029,37.33065],[-122.2696,37.33037],[-122.26944,37.33015],[-122.26939,37.32988],[-122.26958,37.32961],[-122.27071,37.32881],[-122.27113,37.32823],[-122.27123,37.32792],[-122.27097,37.3273],[-122.27117,37.32698],[-122.27214,37.32677],[-122.27291,37.32618],[-122.27318,37.32608],[-122.27394,37.32602],[-122.27423,37.32579],[-122.2742,37.32535],[-122.27322,37.32464],[-122.27302,37.32436],[-122.27297,37.32408],[-122.27314,37.32366],[-122.27434,37.32268],[-122.2746,37.32227],[-122.27431,37.31897],[-122.27441,37.31788],[-122.27488,37.31651],[-122.27454,37.31568],[-122.27451,37.31528],[-122.27479,37.31498],[-122.2757,37.31462],[-122.27597,37.31432],[-122.27597,37.31396],[-122.27538,37.31324],[-122.27542,37.31268],[-122.27692,37.31154],[-122.27794,37.31036],[-122.27834,37.31024],[-122.27878,37.31027],[-122.27967,37.31087],[-122.28001,37.311],[-122.28037,37.31101],[-122.28133,37.3108],[-122.28175,37.31088],[-122.28208,37.31126],[-122.28209,37.31207],[-122.28222,37.31237],[-122.28333,37.31325],[-122.28408,37.31353],[-122.28703,37.31349],[-122.28745,37.31338],[-122.28873,37.31243],[-122.28919,37.31235],[-122.28961,37.31243],[-122.29004,37.31277],[-122.29037,37.31333],[-122.29073,37.31419],[-122.29083,37.3149],[-122.2911,37.31523],[-122.29138,37.31536],[-122.29177,37.31536],[-122.29284,37.31473],[-122.29333,37.31459],[-122.29405,37.3147],[-122.29438,37.31494],[-122.29469,37.3156],[-122.29466,37.31781],[-122.29512,37.31839],[-122.29553,37.31849],[-122.29936,37.31792],[-122.29989,37.31764],[-122.30102,37.31675],[-122.30136,37.31661],[-122.30403,37.3165],[-122.30501,37.31632],[-122.30631,37.31572],[-122.30803,37.31441],[-122.30877,37.31396],[-122.30924,37.31379],[-122.31521,37.31237],[-122.31883,37.31183],[-122.32015,37.3119],[-122.32716,37.31368],[-122.32787,37.31393],[-122.32837,37.31427],[-122.32958,37.31559],[-122.33119,37.31639],[-122.33173,37.31677],[-122.33257,37.31813],[-122.33298,37.3185],[-122.33343,37.3187],[-122.33397,37.31879],[-122.33612,37.31866],[-122.33714,37.31899],[-122.34064,37.32182],[-122.34121,37.32203],[-122.34278,37.32225],[-122.3433,37.3225],[-122.34367,37.32287],[-122.34434,37.32407],[-122.34472,37.32452],[-122.34548,37.32513],[-122.34647,37.32561],[-122.3479,37.32589],[-122.35097,37.32579],[-122.35155,37.32585],[-122.35224,37.32613],[-122.35346,37.327],[-122.35443,37.32727],[-122.35784,37.32684],[-122.36351,37.32709],[-122.36407,37.32727],[-122.36458,37.3276],[-122.36576,37.32927],[-122.36645,37.32967],[-122.36691,37.32977],[-122.36742,37.32975],[-122.36999,37.32925],[-122.37154,37.32929],[-122.37245,37.3295],[-122.37813,37.33147],[-122.37873,37.3316],[-122.3796,37.33154],[-122.38231,37.33072],[-122.38293,37.33024],[-122.38388,37.32873],[-122.38498,37.32759],[-122.38542,37.32725],[-122.38612,37.32696],[-122.38909,37.32618],[-122.39168,37.32489],[-122.39303,37.32469],[-122.39947,37.32448],[-122.39989,37.32454]]]}}
