{"type":"Feature","properties":{"id":"la-tuna-canyon","name":"La Tuna Canyon Road","difficulty":2,"character":"Medium speed"},"geometry":{"type":"MultiLineString","coordinates":[[[-118.37133,34.23451],[-118.37063,34.23474],[-118.36993,34.2348],[-118.36776,34.2343],[-118.36654,34.23416],[-118.36263,34.23407],[-118.36138,34.23394],[-118.35806,34.23389],[-118.35654,34.23412],[-118.35336,34.2341],[-118.34426,34.23504],[-118.33527,34.23635],[-118.33243,34.23645],[-118.33078,34.23619],[-118.32928,34.23624],[-118.32709,34.23616],[-118.32626,34.23632],[-118.3239,34.2374],[-118.32253,34.23756],[-118.32195,34.23756],[-118.32032,34.2372],[-118.31894,34.23655],[-118.31712,34.23602],[-118.31647,34.2356],[-118.31522,34.23425],[-118.31445,34.23382],[-118.31108,34.23321],[-118.31026,34.23326],[-118.30899,34.23357],[-118.30681,34.23351],[-118.3044,34.23372],[-118.30085,34.23313],[-118.29883,34.23255],[-118.29785,34.23251],[-118.29216,34.23384],[-118.29152,34.23415],[-118.29023,34.23513],[-118.28954,34.23538],[-118.28894,34.23545],[-118.28494,34.23485],[-118.28049,34.2348],[-118.27761,34.23419],[-118.27456,34.23367],[-118.27118,34.23376],[-118.27032,34.23403]]]}}
