{"type":"Feature","properties":{"id":"laguna-canyon","name":"Laguna Canyon Road \u00b7 SR 133","difficulty":1,"character":"Medium speed"},"geometry":{"type":"MultiLineString","coordinates":[[[-117.76174,33.64304],[-117.76193,33.64298],[-117.76068,33.63938],[-117.76048,33.63795],[-117.76053,33.63647],[-117.76146,33.63251],[-117.76149,33.63188],[-117.76125,33.63059],[-117.76059,33.6293],[-117.75722,33.62527],[-117.75658,33.62397],[-117.75636,33.62258],[-117.7565,33.62141],[-117.75696,33.62023],[-117.76078,33.6142],[-117.76123,33.61322],[-117.76141,33.61246],[-117.76146,33.61162],[-117.7611,33.60815],[-117.76118,33.60734],[-117.7615,33.60622],[-117.76261,33.60416],[-117.76299,33.60279],[-117.76301,33.60167],[-117.76279,33.6007],[-117.76062,33.5951],[-117.76005,33.59375],[-117.7599,33.59363],[-117.75976,33.59329],[-117.75948,33.59158],[-117.75972,33.59026],[-117.76035,33.58863],[-117.76156,33.58476],[-117.76158,33.5839],[-117.76134,33.58206],[-117.76189,33.5801],[-117.76326,33.57392],[-117.7633,33.57336],[-117.76303,33.57227],[-117.76301,33.57164],[-117.76397,33.56625],[-117.76388,33.56432],[-117.76397,33.56393],[-117.76433,33.56348],[-117.76518,33.56306],[-117.7657,33.56298],[-117.76628,33.56301],[-117.76784,33.56347],[-117.76877,33.56351],[-117.77007,33.56322],[-117.7708,33.56282],[-117.77125,33.56242],[-117.77368,33.55906],[-117.7743,33.55625],[-117.77533,33.55423],[-117.77614,33.5532],[-117.77709,33.55233],[-117.78009,33.54998],[-117.78098,33.54909],[-117.78158,33.54835],[-117.7819,33.54775],[-117.78214,33.54649],[-117.7824,33.54581],[-117.78532,33.54275]]]}}
