{"type":"Feature","properties":{"id":"lake-hughes-road","name":"Lake Hughes Road","difficulty":2,"character":"Medium speed"},"geometry":{"type":"MultiLineString","coordinates":[[[-118.62384,34.49587],[-118.62137,34.497],[-118.61996,34.49736],[-118.61875,34.49745],[-118.6104,34.49713],[-118.60928,34.49735],[-118.60855,34.49774],[-118.60798,34.49828],[-118.60734,34.49918],[-118.60677,34.49979],[-118.60454,34.50111],[-118.60402,34.50164],[-118.60374,34.50223],[-118.60284,34.50581],[-118.60261,34.50749],[-118.60198,34.50829],[-118.59842,34.51078],[-118.59753,34.51173],[-118.597,34.51284],[-118.59596,34.51759],[-118.59577,34.51803],[-118.59526,34.51858],[-118.59479,34.51884],[-118.59426,34.51901],[-118.5937,34.51906],[-118.59314,34.51899],[-118.58485,34.51654],[-118.58414,34.51639],[-118.58304,34.51644],[-118.58235,34.51665],[-118.58173,34.51698],[-118.58102,34.51753],[-118.57876,34.52007],[-118.57783,34.52187],[-118.57677,34.52299],[-118.57473,34.52546],[-118.57413,34.52607],[-118.57198,34.52742],[-118.5713,34.52815],[-118.57038,34.53015],[-118.56705,34.53344],[-118.56666,34.53406],[-118.56526,34.53756],[-118.56488,34.53814],[-118.56015,34.5432],[-118.55942,34.54371],[-118.55848,34.54404],[-118.55595,34.54416],[-118.55526,34.54427],[-118.55432,34.54467],[-118.54955,34.54728],[-118.54691,34.54829],[-118.54635,34.54861],[-118.5404,34.55327],[-118.54018,34.55383],[-118.54018,34.55445],[-118.54198,34.55753],[-118.54294,34.56024],[-118.54335,34.56071],[-118.54386,34.56106],[-118.54448,34.56133],[-118.54521,34.56145],[-118.5463,34.5613],[-118.54698,34.56099],[-118.54807,34.56027],[-118.54895,34.5601],[-118.54979,34.56034],[-118.55133,34.56135],[-118.55188,34.56148],[-118.55255,34.56146],[-118.55618,34.56014],[-118.55784,34.55892],[-118.55812,34.55876],[-118.55875,34.55862],[-118.56011,34.55851],[-118.56077,34.55864],[-118.56113,34.55883],[-118.56138,34.5591],[-118.56165,34.55957],[-118.56171,34.55981],[-118.5616,34.56036],[-118.56119,34.56087],[-118.56058,34.56119],[-118.55873,34.56154],[-118.55627,34.56314],[-118.55573,34.56384],[-118.55547,34.56503],[-118.55553,34.56558],[-118.55598,34.56634],[-118.55717,34.56729],[-118.55753,34.56774],[-118.55797,34.56923],[-118.55862,34.57031],[-118.55868,34.57058],[-118.55851,34.57121],[-118.55771,34.57219],[-118.55755,34.57251],[-118.55727,34.57379],[-118.55642,34.57473],[-118.55615,34.57525],[-118.55618,34.57576],[-118.55672,34.57706],[-118.55677,34.57745],[-118.55643,34.57799],[-118.55554,34.57893],[-118.55535,34.57928],[-118.55525,34.57983],[-118.55547,34.58007],[-118.55666,34.58034],[-118.5572,34.58071],[-118.55774,34.58144],[-118.55802,34.58259],[-118.55848,34.58289],[-118.55871,34.58341],[-118.55987,34.584],[-118.56035,34.58446],[-118.56043,34.58477],[-118.56031,34.58533],[-118.5599,34.58573],[-118.55978,34.58598],[-118.56007,34.58619],[-118.561,34.5863],[-118.56139,34.58653],[-118.56145,34.58677],[-118.56119,34.58756],[-118.56129,34.5883],[-118.56124,34.58915],[-118.56166,34.58993],[-118.56225,34.59049],[-118.56228,34.59069],[-118.56217,34.59115],[-118.56163,34.59211],[-118.5616,34.59321],[-118.56185,34.5934],[-118.56298,34.59338],[-118.56332,34.59347],[-118.56381,34.59371],[-118.56402,34.59414],[-118.56385,34.59474],[-118.56189,34.59741],[-118.56013,34.59897],[-118.55922,34.60081],[-118.55871,34.60131],[-118.558,34.60172],[-118.55766,34.60271],[-118.5571,34.60344],[-118.55729,34.60435],[-118.55676,34.60508],[-118.5568,34.60529],[-118.55702,34.60543],[-118.55826,34.60514],[-118.55888,34.60484],[-118.55958,34.60413],[-118.56014,34.60379],[-118.56045,34.60371],[-118.56078,34.60383],[-118.56093,34.60402],[-118.56094,34.60442],[-118.56024,34.60598],[-118.5603,34.60623],[-118.56076,34.60651],[-118.56089,34.60671],[-118.56054,34.60765],[-118.56059,34.60843],[-118.56082,34.6087],[-118.56179,34.60907],[-118.56219,34.60931],[-118.56261,34.6098],[-118.56277,34.61029],[-118.56271,34.6106],[-118.56254,34.61083],[-118.56075,34.6123],[-118.56029,34.61306],[-118.56037,34.61345],[-118.56098,34.61384],[-118.5612,34.61414],[-118.56114,34.6149],[-118.56056,34.61562],[-118.56047,34.616],[-118.56096,34.61722],[-118.561,34.61786],[-118.56154,34.61835],[-118.56172,34.61894],[-118.56168,34.61919],[-118.56138,34.61967],[-118.5603,34.62082],[-118.55988,34.62113],[-118.55838,34.62184],[-118.55617,34.62249],[-118.55443,34.62349],[-118.5518,34.6247],[-118.54922,34.62632],[-118.54734,34.62761],[-118.54698,34.62797],[-118.54636,34.62823],[-118.546,34.62854],[-118.54586,34.62884],[-118.54582,34.62931],[-118.54544,34.62979],[-118.54503,34.62998],[-118.5446,34.63005],[-118.54332,34.63001],[-118.54298,34.63019],[-118.5423,34.63102],[-118.54185,34.63129],[-118.54046,34.63169],[-118.53899,34.6318],[-118.53571,34.63233],[-118.53426,34.63224],[-118.53392,34.63235],[-118.53314,34.63307],[-118.53109,34.63379],[-118.52962,34.63501],[-118.52944,34.63532],[-118.52951,34.63645],[-118.52928,34.63709],[-118.52918,34.63811],[-118.52877,34.63872],[-118.5275,34.63955],[-118.52715,34.6397],[-118.52603,34.6397],[-118.52576,34.63982],[-118.5254,34.64045],[-118.52502,34.64081],[-118.524,34.64119],[-118.52296,34.64225],[-118.52023,34.64357],[-118.51924,34.64421],[-118.51828,34.64462],[-118.51717,34.64484],[-118.51541,34.64488],[-118.51496,34.64481],[-118.51445,34.64454],[-118.51414,34.64448],[-118.51309,34.64495],[-118.51274,34.645],[-118.51239,34.64491],[-118.51171,34.64436],[-118.51138,34.64424],[-118.51115,34.64426],[-118.51043,34.64462],[-118.50961,34.64456],[-118.50893,34.64423],[-118.50825,34.64355],[-118.5079,34.64333],[-118.50664,34.64315],[-118.50479,34.64323],[-118.50415,34.64305],[-118.50376,34.64267],[-118.50364,34.6423],[-118.50379,34.64185],[-118.50433,34.6414],[-118.50436,34.64117],[-118.50424,34.64094],[-118.50153,34.64022],[-118.50114,34.64041],[-118.50055,34.64102],[-118.49951,34.64155],[-118.49914,34.64166],[-118.49756,34.64184],[-118.49693,34.64204],[-118.49648,34.64245],[-118.49611,34.6432],[-118.4953,34.64373],[-118.49468,34.64393],[-118.49348,34.64405],[-118.49161,34.64491],[-118.48928,34.64627],[-118.48844,34.64696],[-118.48613,34.64942],[-118.48558,34.64981],[-118.48235,34.65161],[-118.48124,34.65237],[-118.48024,34.65336],[-118.47969,34.65372],[-118.47863,34.65398],[-118.47679,34.65415],[-118.47375,34.65371],[-118.47308,34.65369],[-118.46779,34.65489],[-118.46671,34.65503],[-118.4662,34.65498],[-118.46531,34.65456],[-118.46504,34.65455],[-118.46473,34.65466],[-118.46366,34.65538],[-118.46342,34.65572],[-118.4628,34.65694],[-118.46293,34.65784],[-118.46276,34.65817],[-118.46054,34.65958],[-118.45892,34.6616],[-118.45861,34.66177],[-118.45749,34.66202],[-118.45577,34.66315],[-118.45567,34.66384],[-118.45526,34.66461],[-118.45534,34.66566],[-118.455,34.66637],[-118.45526,34.66696],[-118.45529,34.66767],[-118.45499,34.66838],[-118.45457,34.66891],[-118.45442,34.6697],[-118.45447,34.67003],[-118.45513,34.67108],[-118.45532,34.67185],[-118.45555,34.67363],[-118.45538,34.67401],[-118.45267,34.67735],[-118.45242,34.67794],[-118.45216,34.67903]]]}}
