{"type":"Feature","properties":{"id":"larch-mountain-road","name":"Larch Mountain Road","difficulty":2,"character":"Technical"},"geometry":{"type":"MultiLineString","coordinates":[[[-122.25365,45.53148],[-122.25104,45.53186],[-122.24891,45.53262],[-122.24696,45.53261],[-122.24561,45.53223],[-122.24421,45.53265],[-122.24327,45.53274],[-122.24245,45.53247],[-122.24084,45.53173],[-122.23911,45.53179],[-122.23853,45.53166],[-122.23485,45.52929],[-122.23372,45.5288],[-122.23306,45.5287],[-122.23036,45.52878],[-122.23,45.52872],[-122.22958,45.52845],[-122.22947,45.52807],[-122.22968,45.52771],[-122.23046,45.52693],[-122.23056,45.52579],[-122.23001,45.52523],[-122.2294,45.52486],[-122.22768,45.52451],[-122.22733,45.52418],[-122.22727,45.5239],[-122.22737,45.52326],[-122.22759,45.5229],[-122.23052,45.52122],[-122.23078,45.52086],[-122.23061,45.52049],[-122.22837,45.51928],[-122.22493,45.51828],[-122.22259,45.51775],[-122.22124,45.51719],[-122.21718,45.51588],[-122.21507,45.5148],[-122.21409,45.51475],[-122.21113,45.51499],[-122.21052,45.51488],[-122.20924,45.51412],[-122.20862,45.51363],[-122.20843,45.51304],[-122.20836,45.51164],[-122.20805,45.51137],[-122.20741,45.51111],[-122.20532,45.51081],[-122.19806,45.51102],[-122.19554,45.5112],[-122.19247,45.51188],[-122.1879,45.51181],[-122.1842,45.51132],[-122.18346,45.51152],[-122.18312,45.51174],[-122.1807,45.5149],[-122.17967,45.5156],[-122.17693,45.51643],[-122.17253,45.51759],[-122.17207,45.51775],[-122.17146,45.51811],[-122.17054,45.51915],[-122.16841,45.52227],[-122.16802,45.52262],[-122.16754,45.52282],[-122.16653,45.52287],[-122.16233,45.52224],[-122.16169,45.52223],[-122.15868,45.52267],[-122.15764,45.5226],[-122.15698,45.52224],[-122.15677,45.52193],[-122.15671,45.52156],[-122.15712,45.52049],[-122.15711,45.52015],[-122.15676,45.5197],[-122.15627,45.51945],[-122.15534,45.51943],[-122.15216,45.5198],[-122.14969,45.51969],[-122.14573,45.52072],[-122.14502,45.5207],[-122.14444,45.52052],[-122.14168,45.51883],[-122.14098,45.51871],[-122.14016,45.51886],[-122.13841,45.52018],[-122.13812,45.52058],[-122.13821,45.5213],[-122.13877,45.52238],[-122.13877,45.52275],[-122.13848,45.52315],[-122.13577,45.52538],[-122.13357,45.5283],[-122.13174,45.53046],[-122.13096,45.53086],[-122.1303,45.53093],[-122.12605,45.52973],[-122.12542,45.5298],[-122.12475,45.53025],[-122.12448,45.53132],[-122.12428,45.53155],[-122.12336,45.53188],[-122.12281,45.5323],[-122.12268,45.53297],[-122.12288,45.53463],[-122.1228,45.53494],[-122.12233,45.53551],[-122.12193,45.53575],[-122.12095,45.53597],[-122.11799,45.53572],[-122.11719,45.53574],[-122.11654,45.53593],[-122.11468,45.53675],[-122.11465,45.53693],[-122.11482,45.53716],[-122.11624,45.53755],[-122.11713,45.53802],[-122.11747,45.53858],[-122.1174,45.5392],[-122.11572,45.54112],[-122.11276,45.54279],[-122.11171,45.54399],[-122.1113,45.54428],[-122.10953,45.54498],[-122.10736,45.546],[-122.10536,45.54648],[-122.10334,45.54718],[-122.10247,45.54708],[-122.10138,45.54668],[-122.10046,45.5467],[-122.09995,45.54693],[-122.09737,45.54872],[-122.09621,45.54904],[-122.09435,45.54937],[-122.09299,45.5498],[-122.0927,45.54982],[-122.09208,45.54959],[-122.09194,45.54932],[-122.092,45.54906],[-122.09223,45.54886],[-122.09445,45.54804],[-122.09519,45.54749],[-122.09584,45.5467],[-122.09667,45.5454],[-122.09734,45.54463],[-122.09901,45.54357],[-122.10022,45.54262],[-122.10147,45.54034],[-122.10144,45.53981],[-122.10081,45.53815],[-122.10057,45.53689],[-122.09987,45.53181],[-122.09975,45.53141],[-122.09821,45.52907],[-122.09783,45.5288],[-122.09181,45.52695],[-122.08841,45.52638],[-122.08512,45.52632],[-122.08445,45.52639],[-122.08353,45.52664],[-122.0815,45.52776],[-122.08146,45.52806],[-122.08159,45.52819],[-122.08202,45.52823],[-122.08228,45.52816],[-122.08282,45.5278],[-122.08365,45.52751],[-122.08462,45.52748],[-122.08571,45.52781],[-122.08665,45.52852],[-122.0875,45.5289]]]}}
