{"type":"Feature","properties":{"id":"las-flores-canyon","name":"Las Flores Canyon Road","difficulty":3,"character":"Technical"},"geometry":{"type":"MultiLineString","coordinates":[[[-118.63603,34.03692],[-118.63625,34.03733],[-118.63734,34.03845],[-118.63767,34.03904],[-118.63741,34.04031],[-118.63759,34.04095],[-118.63703,34.0414],[-118.63693,34.04162],[-118.63699,34.04186],[-118.63755,34.04254],[-118.63755,34.04274],[-118.63737,34.04315],[-118.63737,34.04358],[-118.63759,34.04389],[-118.63861,34.0445],[-118.63909,34.04582],[-118.63949,34.04649],[-118.63906,34.04853],[-118.63864,34.04955],[-118.63916,34.05027],[-118.63917,34.05182],[-118.63938,34.05233],[-118.63916,34.0525],[-118.63859,34.05248],[-118.63842,34.05273],[-118.63867,34.05304],[-118.63965,34.0534],[-118.64049,34.05385],[-118.64057,34.05401],[-118.64022,34.05441],[-118.64017,34.05466],[-118.64027,34.05497],[-118.64019,34.05512],[-118.6393,34.05576],[-118.63913,34.05621],[-118.63865,34.05641],[-118.63839,34.05692],[-118.63853,34.05719],[-118.63892,34.05734],[-118.63916,34.05776],[-118.63917,34.05793],[-118.63883,34.0585],[-118.63904,34.05871],[-118.63934,34.05955],[-118.63967,34.05991],[-118.6396,34.06036],[-118.63975,34.0608],[-118.63965,34.0611],[-118.63971,34.06153],[-118.63961,34.06189],[-118.63997,34.06218],[-118.63991,34.06232],[-118.6394,34.06254],[-118.63936,34.06272],[-118.63996,34.06325],[-118.64029,34.06394],[-118.64066,34.06419],[-118.64085,34.06444],[-118.64084,34.06478],[-118.64053,34.06515],[-118.64063,34.06548],[-118.6406,34.06601],[-118.64081,34.06646],[-118.64086,34.06685],[-118.64102,34.06693],[-118.64156,34.06677],[-118.64329,34.06657],[-118.64392,34.06678],[-118.64534,34.06745],[-118.64531,34.06723],[-118.64366,34.06607],[-118.64354,34.06559],[-118.64395,34.06515],[-118.64413,34.06507],[-118.64509,34.06513],[-118.64605,34.0653],[-118.64633,34.06523],[-118.6464,34.06487],[-118.64623,34.06415],[-118.64635,34.06379],[-118.64666,34.06361],[-118.64773,34.06337],[-118.64891,34.06242]]]}}
