{"type":"Feature","properties":{"id":"latigo-canyon","name":"Latigo Canyon Road","difficulty":3,"character":"Technical"},"geometry":{"type":"MultiLineString","coordinates":[[[-118.75471,34.03006],[-118.75464,34.03051],[-118.75407,34.03111],[-118.75372,34.0313],[-118.75355,34.03158],[-118.7535,34.03192],[-118.75375,34.0323],[-118.755,34.03346],[-118.75526,34.03432],[-118.7561,34.03486],[-118.75772,34.03496],[-118.75824,34.03487],[-118.75919,34.0352],[-118.75988,34.0351],[-118.76151,34.03521],[-118.76247,34.03519],[-118.76383,34.03542],[-118.76482,34.03604],[-118.76538,34.03686],[-118.76556,34.0375],[-118.76574,34.03763],[-118.76593,34.03757],[-118.76599,34.03737],[-118.76582,34.03645],[-118.76557,34.03595],[-118.76567,34.03575],[-118.76755,34.03593],[-118.76839,34.03588],[-118.76858,34.03592],[-118.76896,34.03627],[-118.76934,34.03641],[-118.76944,34.0369],[-118.76973,34.03749],[-118.77022,34.03776],[-118.77069,34.03786],[-118.77088,34.03803],[-118.77098,34.03817],[-118.77092,34.03841],[-118.77058,34.03854],[-118.77045,34.03851],[-118.77008,34.03813],[-118.76966,34.03808],[-118.76901,34.03775],[-118.76883,34.03703],[-118.76861,34.0369],[-118.7675,34.03704],[-118.76729,34.03719],[-118.76728,34.03732],[-118.76744,34.03752],[-118.76803,34.03786],[-118.76902,34.03906],[-118.76922,34.03917],[-118.77116,34.03957],[-118.77125,34.03993],[-118.7711,34.04027],[-118.77077,34.04062],[-118.77072,34.04088],[-118.77138,34.04123],[-118.77199,34.04113],[-118.77233,34.04128],[-118.77286,34.04175],[-118.77346,34.04209],[-118.77439,34.04311],[-118.7742,34.04381],[-118.77458,34.04517],[-118.77405,34.04558],[-118.77398,34.04595],[-118.77461,34.04705],[-118.77468,34.04774],[-118.77403,34.04917],[-118.77409,34.04944],[-118.77447,34.04988],[-118.7745,34.05056],[-118.77422,34.05179],[-118.77436,34.05329],[-118.77409,34.05402],[-118.77424,34.05441],[-118.7748,34.05502],[-118.77493,34.05531],[-118.77493,34.05607],[-118.77473,34.05661],[-118.7748,34.05722],[-118.77504,34.05753],[-118.77512,34.05784],[-118.77577,34.0584],[-118.77634,34.05937],[-118.77698,34.06016],[-118.77699,34.06037],[-118.77659,34.06054],[-118.7765,34.06072],[-118.77659,34.06087],[-118.77717,34.06105],[-118.7772,34.06142],[-118.77769,34.06167],[-118.77789,34.06218],[-118.77784,34.06252],[-118.77807,34.06292],[-118.77792,34.06315],[-118.77795,34.06331],[-118.77829,34.06348],[-118.77861,34.06381],[-118.77884,34.06379],[-118.779,34.06367],[-118.77939,34.06267],[-118.77908,34.0617],[-118.77911,34.06134],[-118.77939,34.06118],[-118.77976,34.0613],[-118.7803,34.06175],[-118.78081,34.06246],[-118.78134,34.06287],[-118.78132,34.06346],[-118.78111,34.06388],[-118.78115,34.06405],[-118.78131,34.06416],[-118.7815,34.06415],[-118.78213,34.06402],[-118.78237,34.06428],[-118.78243,34.06471],[-118.78215,34.06514],[-118.78213,34.06587],[-118.78178,34.06636],[-118.7818,34.06662],[-118.7821,34.06676],[-118.783,34.06662],[-118.78333,34.06689],[-118.78343,34.06734],[-118.78364,34.06761],[-118.78351,34.06774],[-118.78321,34.0677],[-118.78306,34.06716],[-118.78281,34.067],[-118.78149,34.06748],[-118.78109,34.06749],[-118.7808,34.06649],[-118.7805,34.06608],[-118.78018,34.06597],[-118.78,34.06604],[-118.77988,34.06626],[-118.78025,34.06655],[-118.78042,34.06684],[-118.78048,34.0679],[-118.78093,34.06845],[-118.78117,34.06851],[-118.78161,34.06828],[-118.78176,34.06831],[-118.78185,34.06852],[-118.7815,34.06877],[-118.78123,34.06882],[-118.78027,34.06861],[-118.78005,34.06863],[-118.77993,34.06871],[-118.77996,34.06899],[-118.78015,34.06933],[-118.78042,34.06952],[-118.78075,34.06953],[-118.78124,34.06939],[-118.78177,34.06947],[-118.78257,34.06974],[-118.78269,34.0703],[-118.78324,34.0712],[-118.78423,34.07126],[-118.78447,34.07137],[-118.78435,34.0721],[-118.78444,34.07307],[-118.78469,34.07375],[-118.78513,34.07445],[-118.78538,34.07466],[-118.78556,34.07469],[-118.78572,34.07457],[-118.78583,34.07381],[-118.78613,34.07363],[-118.78653,34.07311],[-118.78721,34.07275],[-118.78764,34.07302],[-118.78807,34.07311],[-118.78835,34.07329],[-118.78844,34.07344],[-118.78843,34.07377],[-118.78867,34.07417],[-118.78878,34.07462],[-118.78909,34.07481],[-118.79053,34.07492],[-118.79112,34.07475],[-118.79178,34.07487],[-118.79243,34.07477],[-118.79277,34.07484],[-118.79323,34.07527],[-118.79356,34.07607],[-118.79422,34.0766],[-118.79425,34.07687],[-118.79399,34.0777],[-118.79392,34.07832],[-118.79399,34.07858],[-118.7942,34.07883],[-118.79443,34.07901],[-118.79493,34.07916],[-118.79608,34.0791],[-118.79677,34.07975],[-118.7974,34.0798],[-118.79821,34.08019],[-118.79845,34.08065],[-118.79845,34.0808],[-118.79829,34.08102],[-118.79796,34.08104],[-118.79679,34.08061],[-118.79647,34.08066],[-118.79596,34.08114],[-118.79648,34.08183],[-118.79632,34.08217],[-118.79578,34.08247],[-118.79471,34.08258],[-118.79433,34.08273],[-118.79376,34.08309],[-118.79386,34.0834],[-118.79465,34.08361],[-118.79526,34.08418],[-118.79604,34.08419],[-118.79636,34.08456],[-118.79658,34.08456],[-118.7974,34.08424],[-118.79757,34.08438],[-118.79773,34.08472],[-118.79815,34.08494],[-118.79835,34.08493],[-118.79884,34.08461],[-118.79932,34.08481],[-118.79951,34.08477],[-118.79985,34.08442],[-118.80006,34.08442],[-118.80029,34.08469],[-118.80026,34.0851],[-118.80037,34.08535],[-118.801,34.0854],[-118.80148,34.08584],[-118.80197,34.08606],[-118.80225,34.086],[-118.80248,34.0854],[-118.80264,34.08533],[-118.80328,34.08568],[-118.80396,34.08582],[-118.80422,34.08571],[-118.8046,34.08533],[-118.80511,34.08545],[-118.80569,34.08523],[-118.80623,34.0854],[-118.80641,34.08562],[-118.80653,34.0863],[-118.8067,34.08649],[-118.80747,34.08659],[-118.80787,34.08678],[-118.80849,34.08683],[-118.80883,34.08706],[-118.80865,34.08734],[-118.80793,34.08737],[-118.80759,34.08753],[-118.80752,34.08844],[-118.80759,34.08882],[-118.80805,34.08921],[-118.80885,34.08955],[-118.8091,34.09004],[-118.80982,34.09076],[-118.81048,34.09125],[-118.81155,34.09172],[-118.81186,34.09212],[-118.81209,34.0921],[-118.81227,34.09188],[-118.81219,34.09174],[-118.81174,34.09153],[-118.81137,34.0912],[-118.81136,34.09093],[-118.81158,34.09051],[-118.8118,34.09044],[-118.81196,34.09052],[-118.81223,34.09074],[-118.81235,34.09107],[-118.81258,34.09108],[-118.81395,34.09045],[-118.81417,34.08992],[-118.81452,34.08963],[-118.81544,34.08958]]]}}
