{"type":"Feature","properties":{"id":"limantour","name":"Limantour Road","difficulty":2,"character":"Low speed"},"geometry":{"type":"MultiLineString","coordinates":[[[-122.80418,38.04774],[-122.80426,38.04744],[-122.80461,38.04708],[-122.80505,38.04692],[-122.80546,38.04692],[-122.80593,38.04711],[-122.80689,38.04803],[-122.80767,38.04846],[-122.80931,38.04862],[-122.80962,38.04872],[-122.81015,38.0492],[-122.81057,38.05026],[-122.81098,38.05057],[-122.81209,38.05106],[-122.81244,38.05145],[-122.8129,38.05246],[-122.81368,38.05286],[-122.81408,38.0529],[-122.81465,38.05279],[-122.81569,38.05216],[-122.81635,38.05194],[-122.81749,38.05194],[-122.81883,38.05172],[-122.81934,38.05181],[-122.81973,38.0521],[-122.81986,38.0525],[-122.81947,38.05354],[-122.81946,38.05393],[-122.81973,38.05437],[-122.82036,38.05466],[-122.82086,38.05467],[-122.82139,38.0545],[-122.82271,38.05335],[-122.82297,38.05324],[-122.82419,38.05321],[-122.82528,38.05294],[-122.82869,38.05298],[-122.82923,38.05277],[-122.8306,38.05198],[-122.83119,38.05187],[-122.83159,38.05189],[-122.83213,38.05207],[-122.83332,38.05305],[-122.83348,38.05355],[-122.83341,38.0547],[-122.83359,38.05501],[-122.83385,38.05519],[-122.83418,38.05529],[-122.83465,38.05529],[-122.83589,38.05464],[-122.8366,38.05449],[-122.83731,38.05461],[-122.83789,38.05495],[-122.83818,38.05543],[-122.83808,38.05707],[-122.83868,38.05765],[-122.83932,38.05899],[-122.84006,38.05941],[-122.84055,38.05951],[-122.84261,38.05954],[-122.84318,38.05931],[-122.84404,38.0587],[-122.84438,38.05862],[-122.84565,38.05939],[-122.84588,38.05999],[-122.8461,38.06011],[-122.84696,38.05988],[-122.84756,38.05923],[-122.8482,38.05891],[-122.85105,38.05907],[-122.85147,38.05894],[-122.85199,38.05849],[-122.85179,38.05782],[-122.85199,38.05725],[-122.85183,38.05649],[-122.85184,38.05581],[-122.85374,38.05278],[-122.85808,38.04905],[-122.8584,38.04891],[-122.86051,38.04867],[-122.8614,38.0482],[-122.86353,38.04768],[-122.86368,38.04748],[-122.86371,38.04707],[-122.86447,38.04648],[-122.86474,38.04602],[-122.86524,38.04563],[-122.86567,38.04553],[-122.86693,38.04564],[-122.86764,38.04513],[-122.8688,38.04453],[-122.87004,38.04405],[-122.87113,38.04384],[-122.8714,38.04367],[-122.87168,38.04328],[-122.87171,38.04306],[-122.87152,38.04264],[-122.87156,38.04244],[-122.8728,38.04145],[-122.87293,38.04124],[-122.87288,38.04076],[-122.87237,38.03975],[-122.87256,38.03799],[-122.87269,38.03755],[-122.87335,38.03697],[-122.8752,38.03606],[-122.87673,38.0356],[-122.87742,38.03516],[-122.87759,38.03486],[-122.87791,38.03349],[-122.87815,38.03306],[-122.87908,38.03219],[-122.87929,38.03167],[-122.8796,38.03135],[-122.87984,38.03121],[-122.88124,38.03085],[-122.88165,38.03055],[-122.88191,38.02942],[-122.88216,38.02891]]]}}
