{"type":"Feature","properties":{"id":"little-tujunga","name":"Little Tujunga Canyon Road","difficulty":3,"character":"Technical"},"geometry":{"type":"MultiLineString","coordinates":[[[-118.37132,34.28228],[-118.37047,34.28366],[-118.37042,34.28457],[-118.36998,34.28584],[-118.36949,34.2865],[-118.36856,34.28697],[-118.36812,34.2873],[-118.36794,34.28757],[-118.36755,34.28873],[-118.36687,34.28948],[-118.36547,34.29026],[-118.36388,34.29149],[-118.36119,34.29303],[-118.3604,34.29337],[-118.35937,34.29343],[-118.35916,34.29353],[-118.35747,34.29531],[-118.35636,34.29613],[-118.35561,34.29629],[-118.35419,34.2963],[-118.35354,34.29652],[-118.35308,34.29688],[-118.35185,34.2983],[-118.35061,34.2988],[-118.35002,34.29925],[-118.34955,34.29988],[-118.34934,34.30045],[-118.34931,34.30144],[-118.34916,34.30182],[-118.34731,34.30378],[-118.3471,34.30413],[-118.34649,34.30607],[-118.34671,34.3073],[-118.34656,34.3081],[-118.34623,34.30906],[-118.34565,34.31021],[-118.34461,34.31165],[-118.3443,34.31292],[-118.34395,34.31344],[-118.34311,34.31429],[-118.34279,34.31509],[-118.34184,34.31606],[-118.34138,34.31693],[-118.34046,34.31762],[-118.34035,34.31852],[-118.33943,34.32016],[-118.33933,34.3209],[-118.33862,34.3215],[-118.33839,34.32216],[-118.33902,34.3233],[-118.33895,34.32363],[-118.33854,34.32417],[-118.33868,34.32485],[-118.33852,34.32556],[-118.33886,34.32715],[-118.34067,34.32791],[-118.34149,34.32886],[-118.34228,34.32902],[-118.34317,34.32967],[-118.34395,34.32966],[-118.34419,34.32978],[-118.34413,34.32997],[-118.34389,34.33005],[-118.34348,34.32991],[-118.34294,34.32991],[-118.34223,34.32974],[-118.34076,34.33036],[-118.34057,34.33056],[-118.34065,34.33086],[-118.34258,34.33213],[-118.34291,34.33243],[-118.34303,34.33316],[-118.34289,34.33402],[-118.34296,34.33481],[-118.34284,34.33503],[-118.34257,34.33514],[-118.34233,34.33507],[-118.34194,34.33464],[-118.3416,34.33452],[-118.33969,34.33485],[-118.33946,34.33473],[-118.33896,34.3342],[-118.33824,34.33409],[-118.33793,34.33419],[-118.33767,34.33457],[-118.33725,34.33478],[-118.33718,34.33494],[-118.33884,34.33657],[-118.33949,34.33679],[-118.33975,34.33731],[-118.34028,34.33785],[-118.34094,34.33803],[-118.34247,34.33916],[-118.34268,34.3392],[-118.3433,34.33911],[-118.34487,34.33979],[-118.34566,34.33961],[-118.34618,34.33973],[-118.34718,34.34033],[-118.34806,34.3405],[-118.34878,34.34077],[-118.34911,34.34113],[-118.34974,34.34144],[-118.34997,34.3417],[-118.34995,34.34186],[-118.34898,34.3422],[-118.34893,34.343],[-118.34876,34.34317],[-118.3484,34.34331],[-118.34828,34.34347],[-118.34861,34.34432],[-118.349,34.34462],[-118.34925,34.34466],[-118.35022,34.34455],[-118.351,34.34399],[-118.35128,34.34393],[-118.35134,34.34412],[-118.351,34.34448],[-118.35108,34.34482],[-118.35224,34.34549],[-118.35252,34.34547],[-118.35257,34.34534],[-118.35218,34.3449],[-118.35213,34.34456],[-118.35238,34.34411],[-118.35228,34.34372],[-118.35235,34.34358],[-118.3529,34.34339],[-118.35304,34.34325],[-118.35296,34.34303],[-118.35246,34.3427],[-118.35242,34.34252],[-118.35259,34.34216],[-118.35297,34.34198],[-118.35328,34.34206],[-118.35396,34.34259],[-118.3555,34.34284],[-118.35661,34.34353],[-118.3571,34.3433],[-118.35735,34.34335],[-118.35765,34.34385],[-118.35785,34.34392],[-118.35823,34.34384],[-118.35874,34.34331],[-118.35905,34.34312],[-118.3598,34.34297],[-118.36036,34.34306],[-118.36084,34.34331],[-118.36177,34.34419],[-118.36295,34.34442],[-118.36343,34.34497],[-118.36373,34.34517],[-118.36466,34.34554],[-118.36584,34.34576],[-118.36603,34.34641],[-118.36562,34.3477],[-118.36576,34.34794],[-118.36599,34.34807],[-118.36667,34.34814],[-118.36713,34.34809],[-118.36767,34.3478],[-118.36827,34.34708],[-118.36858,34.34686],[-118.36901,34.34673],[-118.36957,34.34675],[-118.37046,34.3471],[-118.37038,34.34803],[-118.37083,34.34844],[-118.37133,34.34852],[-118.37176,34.34843],[-118.37207,34.34825],[-118.37251,34.34768],[-118.37282,34.34758],[-118.37317,34.34777],[-118.37335,34.34836],[-118.37361,34.34868],[-118.37523,34.34957],[-118.37587,34.34965],[-118.37696,34.34955],[-118.37732,34.34966],[-118.37786,34.35015],[-118.37961,34.35098],[-118.38051,34.3518],[-118.38128,34.35276],[-118.38254,34.35351],[-118.38283,34.35352],[-118.38297,34.3532],[-118.3829,34.3529],[-118.38252,34.35226],[-118.3826,34.35198],[-118.38278,34.35191],[-118.3836,34.35199],[-118.38402,34.35248],[-118.38432,34.3536],[-118.38492,34.35439],[-118.38504,34.35483],[-118.38517,34.35497],[-118.3855,34.35506],[-118.38594,34.35482],[-118.38626,34.35484],[-118.38705,34.35533],[-118.38771,34.35616],[-118.38833,34.35735],[-118.38822,34.35761],[-118.38776,34.35801],[-118.38772,34.35821],[-118.38782,34.35839],[-118.38805,34.35848],[-118.38899,34.35843],[-118.39,34.35881],[-118.39031,34.35884],[-118.39055,34.35873],[-118.39074,34.3585],[-118.39079,34.35824],[-118.3907,34.35784],[-118.39079,34.35771],[-118.39111,34.35766],[-118.39163,34.35781],[-118.3925,34.35842],[-118.39299,34.35938],[-118.39309,34.36019]]]}}
