{"type":"Feature","properties":{"id":"live-oak-trabuco","name":"Live Oak / Trabuco Canyon","difficulty":2,"character":"Low speed"},"geometry":{"type":"MultiLineString","coordinates":[[[-117.62063,33.68334],[-117.61878,33.6843],[-117.61556,33.68641],[-117.61448,33.6868],[-117.61375,33.68687],[-117.61308,33.6868],[-117.61169,33.68648],[-117.60716,33.68598],[-117.60512,33.6849],[-117.60456,33.68445],[-117.60363,33.68324],[-117.60318,33.68195],[-117.6032,33.68125],[-117.60305,33.68052],[-117.60316,33.67983],[-117.60319,33.67857],[-117.60258,33.67644],[-117.60202,33.67554],[-117.60166,33.67417],[-117.60164,33.67272],[-117.60196,33.67147],[-117.60241,33.67063],[-117.60246,33.67022],[-117.60239,33.66989],[-117.60188,33.66917],[-117.60162,33.66732],[-117.60073,33.66478],[-117.60083,33.663],[-117.60069,33.66226],[-117.60098,33.66153],[-117.60103,33.66087],[-117.60084,33.65987],[-117.60088,33.65899],[-117.60048,33.65808],[-117.60044,33.65662],[-117.60061,33.6559],[-117.6004,33.65515],[-117.60039,33.65469],[-117.60053,33.65397],[-117.60044,33.65359],[-117.6002,33.65326],[-117.59978,33.65304],[-117.5993,33.65299],[-117.59832,33.65334],[-117.59775,33.65386],[-117.59584,33.65521],[-117.5951,33.65618],[-117.59364,33.65748],[-117.59071,33.65955],[-117.5901,33.65965]]]}}
