{"type":"Feature","properties":{"id":"lizard-head-pass","name":"Lizard Head Pass \u00b7 CO 145","difficulty":2,"character":"Medium speed"},"geometry":{"type":"MultiLineString","coordinates":[[[-107.87189,37.94712],[-107.8723,37.94626],[-107.87301,37.94578],[-107.87345,37.94566],[-107.87436,37.9456],[-107.87756,37.94572],[-107.87854,37.9456],[-107.87912,37.94526],[-107.8802,37.94431],[-107.88145,37.94376],[-107.88188,37.94336],[-107.8819,37.94302],[-107.88168,37.94271],[-107.87981,37.94157],[-107.87937,37.94119],[-107.87912,37.94044],[-107.87988,37.93824],[-107.88007,37.93741],[-107.87967,37.93397],[-107.87968,37.93331],[-107.87992,37.93262],[-107.88069,37.93126],[-107.88231,37.92703],[-107.88384,37.92181],[-107.88383,37.92032],[-107.88315,37.9159],[-107.88317,37.91509],[-107.88346,37.91426],[-107.88408,37.91342],[-107.88998,37.90852],[-107.89065,37.90785],[-107.89101,37.90726],[-107.89118,37.90661],[-107.89119,37.90512],[-107.8908,37.89768],[-107.89057,37.89676],[-107.88871,37.89167],[-107.88823,37.88879],[-107.8883,37.8878],[-107.889,37.88622],[-107.88903,37.88532],[-107.88886,37.88479],[-107.88781,37.88309],[-107.88761,37.88247],[-107.88768,37.88105],[-107.88737,37.8807],[-107.88632,37.88025],[-107.88585,37.87973],[-107.88545,37.87873],[-107.8854,37.87748],[-107.88458,37.87575],[-107.88423,37.87414],[-107.88389,37.87335],[-107.88315,37.87238],[-107.88148,37.87072],[-107.88002,37.86855],[-107.87973,37.86826],[-107.87797,37.86731],[-107.87642,37.86622],[-107.87512,37.8657],[-107.8732,37.86451],[-107.87141,37.86375],[-107.87117,37.86346],[-107.87079,37.86253],[-107.8699,37.86168],[-107.86977,37.86139],[-107.86979,37.86085],[-107.87023,37.86003],[-107.87067,37.85969],[-107.87138,37.85958],[-107.87437,37.86013],[-107.87662,37.86079],[-107.87886,37.86088],[-107.87945,37.86082],[-107.87994,37.86068],[-107.88031,37.86044],[-107.88109,37.85947],[-107.88165,37.85929],[-107.8822,37.85883],[-107.88303,37.85842],[-107.88321,37.85823],[-107.88433,37.85633],[-107.8853,37.85513],[-107.88535,37.85479],[-107.88527,37.85462],[-107.88403,37.85372],[-107.88372,37.85328],[-107.88278,37.85143],[-107.88262,37.85087],[-107.88263,37.85038],[-107.88301,37.84885],[-107.88251,37.84559],[-107.88262,37.84478],[-107.88576,37.84082],[-107.88619,37.84014],[-107.88662,37.83781],[-107.88657,37.83632],[-107.88673,37.83537],[-107.88754,37.83418],[-107.88799,37.83246],[-107.88822,37.83215],[-107.8909,37.82973],[-107.89328,37.8284],[-107.89386,37.82769],[-107.89473,37.82627],[-107.89579,37.82279],[-107.89611,37.82225],[-107.89816,37.82035],[-107.89853,37.81981],[-107.90034,37.81586],[-107.90074,37.8154],[-107.90135,37.81493],[-107.90505,37.81325],[-107.90592,37.81277],[-107.91263,37.80865],[-107.91629,37.80717],[-107.91775,37.80701],[-107.92029,37.80703],[-107.92142,37.80673],[-107.92362,37.80592],[-107.92412,37.80562],[-107.9246,37.80512],[-107.92489,37.80431],[-107.92516,37.8026],[-107.92542,37.80201],[-107.92673,37.80034],[-107.9275,37.79969],[-107.92896,37.7987],[-107.93051,37.79791],[-107.93246,37.7967],[-107.9334,37.79647],[-107.93578,37.79632],[-107.93667,37.79603],[-107.94176,37.79226],[-107.94245,37.79147],[-107.94435,37.78783],[-107.94434,37.78697],[-107.94365,37.78557],[-107.94344,37.78464],[-107.94358,37.78216],[-107.94397,37.78116],[-107.94436,37.7807],[-107.94499,37.78037],[-107.94651,37.77997],[-107.94702,37.77992],[-107.94844,37.77995],[-107.95025,37.78021],[-107.95219,37.78029],[-107.95627,37.77971],[-107.9571,37.77938],[-107.95826,37.77855],[-107.95898,37.77815],[-107.96513,37.77554],[-107.97157,37.77331],[-107.97351,37.77249],[-107.97476,37.77229],[-107.97648,37.77242],[-107.98104,37.77235],[-107.98303,37.772],[-107.98404,37.77169],[-107.98511,37.77122],[-107.98694,37.7701],[-108.0065,37.75547],[-108.00732,37.75479],[-108.00802,37.75404],[-108.01047,37.7511],[-108.01342,37.74853],[-108.01474,37.74679],[-108.015,37.74655],[-108.01839,37.74447],[-108.02029,37.74287],[-108.02064,37.74243],[-108.02082,37.742],[-108.0208,37.74034],[-108.02114,37.73955],[-108.02838,37.73243],[-108.02927,37.73107],[-108.0296,37.73033],[-108.02971,37.72965],[-108.0297,37.7276],[-108.03025,37.7231],[-108.03097,37.72207],[-108.03121,37.72084],[-108.03209,37.71969],[-108.03334,37.71762],[-108.03389,37.71518],[-108.03458,37.71381],[-108.03469,37.71313],[-108.03416,37.71141],[-108.034,37.71033],[-108.03424,37.70657],[-108.03417,37.70605],[-108.03368,37.70522],[-108.03238,37.7039],[-108.0321,37.70346],[-108.03187,37.70244],[-108.03222,37.70093],[-108.03222,37.70044],[-108.03212,37.69997],[-108.03103,37.6979],[-108.03085,37.69729],[-108.03092,37.69658],[-108.03159,37.69521],[-108.03152,37.69274]]]}}
