{"type":"Feature","properties":{"id":"lobitos-creek","name":"Lobitos Creek Road","difficulty":3,"character":"Technical"},"geometry":{"type":"MultiLineString","coordinates":[[[-122.40142,37.38399],[-122.40109,37.38398],[-122.40035,37.38425],[-122.39955,37.38509],[-122.39946,37.38544],[-122.39867,37.38635],[-122.39855,37.3868],[-122.39828,37.38703],[-122.39796,37.38783],[-122.3978,37.38893],[-122.39745,37.38983],[-122.39724,37.38992],[-122.39668,37.38996],[-122.39633,37.39017],[-122.39575,37.39097],[-122.39554,37.39175],[-122.39484,37.39216],[-122.39422,37.39291],[-122.39399,37.39344],[-122.39367,37.39376],[-122.39383,37.39441],[-122.39366,37.39476],[-122.39389,37.39497],[-122.3939,37.39514],[-122.39319,37.39543],[-122.39272,37.39591],[-122.39193,37.39632],[-122.39163,37.3963],[-122.39149,37.39612],[-122.39162,37.39592],[-122.39211,37.39558],[-122.39245,37.39432],[-122.39241,37.3942],[-122.3921,37.39403],[-122.39237,37.39362],[-122.39234,37.39336],[-122.39183,37.39299],[-122.39101,37.39326],[-122.39021,37.39314],[-122.38989,37.39317],[-122.38825,37.39355],[-122.38658,37.39348],[-122.3865,37.39336],[-122.3866,37.3932],[-122.3872,37.39293],[-122.38741,37.3926],[-122.38725,37.39245],[-122.38604,37.39212],[-122.38605,37.39196],[-122.38644,37.39172],[-122.38636,37.39155],[-122.38586,37.39141],[-122.38421,37.39126],[-122.38386,37.39112],[-122.38343,37.3907],[-122.38252,37.39067],[-122.38225,37.39079],[-122.38206,37.39107],[-122.38134,37.39162],[-122.38095,37.39156],[-122.38046,37.39125],[-122.38017,37.3912],[-122.37988,37.39127],[-122.37953,37.39157],[-122.37902,37.39168],[-122.37889,37.39209],[-122.37904,37.39313],[-122.37886,37.39362],[-122.37372,37.39703],[-122.37131,37.40034],[-122.37046,37.401],[-122.36974,37.40134],[-122.36944,37.40163],[-122.36946,37.40226],[-122.36853,37.4023],[-122.36787,37.40143],[-122.3673,37.40001],[-122.36655,37.39905],[-122.36665,37.39787],[-122.36684,37.3972],[-122.36667,37.39704],[-122.36643,37.39709],[-122.3662,37.39736],[-122.36576,37.3975],[-122.36542,37.39776],[-122.36471,37.39798],[-122.36411,37.39882],[-122.363,37.39954]]]}}
