{"type":"Feature","properties":{"id":"lookout-mountain-road","name":"Lookout Mountain Road","difficulty":2,"character":"Technical"},"geometry":{"type":"MultiLineString","coordinates":[[[-105.25377,39.71607],[-105.25292,39.71646],[-105.25135,39.71788],[-105.25102,39.71855],[-105.25093,39.71943],[-105.25051,39.72009],[-105.25,39.72039],[-105.24851,39.72079],[-105.24815,39.72106],[-105.24805,39.72144],[-105.24872,39.7225],[-105.24876,39.72289],[-105.24858,39.72322],[-105.24732,39.72447],[-105.24723,39.72477],[-105.24729,39.72566],[-105.24699,39.72607],[-105.24611,39.72688],[-105.24568,39.72711],[-105.2435,39.72735],[-105.24167,39.7288],[-105.24143,39.7292],[-105.24146,39.73003],[-105.24137,39.73031],[-105.24098,39.73099],[-105.24065,39.7313],[-105.24014,39.73151],[-105.23947,39.73164],[-105.23777,39.73154],[-105.23744,39.7317],[-105.23732,39.73188],[-105.23727,39.73261],[-105.23739,39.73286],[-105.23857,39.73385],[-105.23895,39.73399],[-105.2396,39.73405],[-105.23973,39.734],[-105.23986,39.73346],[-105.24034,39.73268],[-105.24095,39.73289],[-105.24224,39.7327],[-105.24266,39.73198],[-105.24301,39.73157],[-105.24322,39.73147],[-105.24339,39.73154],[-105.2436,39.73184],[-105.24381,39.73197],[-105.24491,39.73215],[-105.24521,39.73227],[-105.24593,39.73297],[-105.24613,39.73329],[-105.24619,39.73379],[-105.24579,39.73444],[-105.24579,39.73523],[-105.2456,39.73539],[-105.24543,39.73529],[-105.24535,39.73467],[-105.24538,39.73336],[-105.24525,39.73322],[-105.24508,39.73326],[-105.24506,39.73387],[-105.24488,39.73394],[-105.24477,39.73383],[-105.2448,39.73327],[-105.24461,39.73316],[-105.24446,39.73327],[-105.24455,39.73421],[-105.24435,39.73574],[-105.24525,39.73676],[-105.24526,39.73707],[-105.24397,39.73778],[-105.24325,39.7383],[-105.24276,39.73891],[-105.2429,39.73966],[-105.24224,39.74031],[-105.24184,39.74054],[-105.24002,39.74109],[-105.23978,39.74127],[-105.23958,39.74178],[-105.23923,39.74219],[-105.23933,39.74245],[-105.2399,39.74282],[-105.24001,39.74299],[-105.23971,39.74382],[-105.23922,39.74427],[-105.239,39.74508],[-105.23907,39.74545],[-105.23964,39.74611],[-105.23963,39.74666],[-105.23996,39.74717],[-105.24004,39.74789],[-105.24044,39.74807],[-105.24103,39.74807],[-105.24186,39.74756],[-105.2427,39.74754],[-105.24409,39.74782],[-105.24419,39.74798],[-105.24398,39.74807],[-105.24245,39.74793],[-105.24231,39.74801],[-105.24236,39.74812],[-105.24299,39.74818],[-105.24458,39.74864],[-105.24466,39.74882],[-105.24449,39.74887],[-105.2433,39.74874],[-105.24273,39.74857],[-105.24225,39.74854],[-105.24107,39.74882],[-105.24046,39.74928],[-105.23962,39.74941],[-105.23856,39.74899],[-105.23823,39.74851],[-105.23817,39.74759],[-105.23793,39.74744],[-105.23727,39.74735],[-105.23701,39.74721],[-105.23686,39.74652],[-105.23607,39.74578],[-105.236,39.74535],[-105.23635,39.74466],[-105.23634,39.74448],[-105.23609,39.74442],[-105.23502,39.74455],[-105.23472,39.74442],[-105.23454,39.74419],[-105.23452,39.74383],[-105.23492,39.74305],[-105.23488,39.74283],[-105.23466,39.74274],[-105.23392,39.74291],[-105.23353,39.74284],[-105.23221,39.74148],[-105.23171,39.74117],[-105.23099,39.74093],[-105.23052,39.74031],[-105.23011,39.74029],[-105.22919,39.74052],[-105.2281,39.74026],[-105.22769,39.74002],[-105.22753,39.74006],[-105.22786,39.74058],[-105.22851,39.74232]]]}}
