{"type":"Feature","properties":{"id":"lucas","name":"Lucas Valley Road","difficulty":2,"character":"Medium speed"},"geometry":{"type":"MultiLineString","coordinates":[[[-122.69312,38.05466],[-122.69349,38.05493]],[[-122.69336,38.05472],[-122.69163,38.05405],[-122.69039,38.05327],[-122.68935,38.05284],[-122.68678,38.05264],[-122.68624,38.0522],[-122.68575,38.05161],[-122.68454,38.05087],[-122.68355,38.05012],[-122.68323,38.05009],[-122.68178,38.05038],[-122.68085,38.0504],[-122.68011,38.05004],[-122.67948,38.04947],[-122.67901,38.04928],[-122.67854,38.04924],[-122.67636,38.04972],[-122.67494,38.0496],[-122.67445,38.04969],[-122.67263,38.05081],[-122.67184,38.05109],[-122.6709,38.05191],[-122.66922,38.05297],[-122.66722,38.05372],[-122.66433,38.05573],[-122.66371,38.05607],[-122.66162,38.05654],[-122.66007,38.05626],[-122.65815,38.05651],[-122.65491,38.05617],[-122.65142,38.055],[-122.65104,38.05478],[-122.65064,38.05428],[-122.65033,38.05408],[-122.64917,38.05382],[-122.64839,38.05347],[-122.6475,38.05291],[-122.64702,38.05233],[-122.64455,38.05078],[-122.6442,38.05048],[-122.64398,38.0502],[-122.64344,38.04851],[-122.64374,38.04738],[-122.64357,38.04645],[-122.64317,38.04549],[-122.64235,38.04419],[-122.64211,38.04395],[-122.64178,38.0438],[-122.63947,38.04364],[-122.63861,38.04329],[-122.63784,38.04319],[-122.63714,38.04294],[-122.6356,38.04296],[-122.63482,38.04359],[-122.63455,38.04411],[-122.63428,38.04411],[-122.63366,38.04389],[-122.63337,38.04391],[-122.63269,38.04433],[-122.6312,38.04462],[-122.63057,38.04487],[-122.62934,38.04587],[-122.62864,38.04728],[-122.62809,38.0477],[-122.62667,38.04788],[-122.62509,38.04792],[-122.6235,38.0482],[-122.62282,38.04814],[-122.62225,38.04798],[-122.62109,38.04733],[-122.62097,38.04692],[-122.62073,38.04654],[-122.62074,38.04613],[-122.62063,38.04589],[-122.62068,38.04532],[-122.62054,38.04517],[-122.61997,38.04495],[-122.6197,38.04461],[-122.61951,38.0446],[-122.61892,38.04489],[-122.61795,38.04492],[-122.61721,38.04425],[-122.61611,38.04447],[-122.61548,38.0442],[-122.61497,38.04377],[-122.61401,38.04393],[-122.61338,38.04378],[-122.61288,38.04381],[-122.61238,38.0437],[-122.61177,38.04337],[-122.61096,38.04322],[-122.61029,38.0427],[-122.60907,38.04227],[-122.60805,38.04133],[-122.60777,38.04078],[-122.60759,38.04064],[-122.60725,38.04062],[-122.60654,38.04074],[-122.60479,38.0403],[-122.60446,38.04009],[-122.60407,38.03939],[-122.60334,38.03861],[-122.60295,38.03851],[-122.60185,38.03854],[-122.60099,38.03798],[-122.59963,38.03748],[-122.59829,38.03685],[-122.59645,38.03663],[-122.59486,38.03625],[-122.59316,38.03651],[-122.59211,38.03644],[-122.59168,38.03633],[-122.59118,38.03605],[-122.59039,38.03527],[-122.58864,38.03421],[-122.58723,38.03366],[-122.58545,38.03326],[-122.58459,38.03286],[-122.58399,38.0324],[-122.58274,38.03096],[-122.58195,38.03043],[-122.57828,38.02924],[-122.5731,38.02652],[-122.57018,38.02541],[-122.56873,38.02521],[-122.56256,38.02562],[-122.55934,38.02547],[-122.55866,38.0255],[-122.55779,38.02568],[-122.55574,38.02669],[-122.5548,38.02695],[-122.55173,38.02708],[-122.55088,38.02705],[-122.54976,38.02681],[-122.5453,38.02512],[-122.5433,38.02398],[-122.54079,38.02202],[-122.54008,38.02164]]]}}
