{"type":"Feature","properties":{"id":"malibu-canyon-las-virgenes","name":"Malibu Canyon / Las Virgenes","difficulty":2,"character":"Medium speed"},"geometry":{"type":"MultiLineString","coordinates":[[[-118.70338,34.03478],[-118.70354,34.03628],[-118.70339,34.03722],[-118.70273,34.03825],[-118.70181,34.0391],[-118.70046,34.03968],[-118.69823,34.04022],[-118.69531,34.04145],[-118.69338,34.04184],[-118.69267,34.04234],[-118.69245,34.04276],[-118.69254,34.04437],[-118.69209,34.04576],[-118.69196,34.04688],[-118.69204,34.0473],[-118.69279,34.04884],[-118.69412,34.05107],[-118.69467,34.05162],[-118.6956,34.0522],[-118.69616,34.05267],[-118.69651,34.05328],[-118.69659,34.05369],[-118.69645,34.05442],[-118.69616,34.05489],[-118.69441,34.05611],[-118.69399,34.05679],[-118.69398,34.05724],[-118.69437,34.05916],[-118.69419,34.06119],[-118.69433,34.06162],[-118.69474,34.0622],[-118.69542,34.06285],[-118.69664,34.0635],[-118.69703,34.06357],[-118.69777,34.06351],[-118.69946,34.06305],[-118.69993,34.06314],[-118.70071,34.06345],[-118.70249,34.06375],[-118.70355,34.0635],[-118.70552,34.06326],[-118.70739,34.06409],[-118.70848,34.0655],[-118.70857,34.06611],[-118.70808,34.06905],[-118.70653,34.0712],[-118.70575,34.07271],[-118.70474,34.07416],[-118.70352,34.07531],[-118.7023,34.07779],[-118.70243,34.07842],[-118.70388,34.0806],[-118.70455,34.08213],[-118.70484,34.0829],[-118.70491,34.08377],[-118.70482,34.08419],[-118.70379,34.08672],[-118.7037,34.08728],[-118.70384,34.08796],[-118.70415,34.08844],[-118.7061,34.09015],[-118.70922,34.0931],[-118.71136,34.09605],[-118.71168,34.09675],[-118.71174,34.09782],[-118.71128,34.099],[-118.71112,34.09972],[-118.71114,34.10318],[-118.71175,34.10467],[-118.71185,34.10523],[-118.71178,34.1058],[-118.71141,34.10707],[-118.71148,34.10922],[-118.71102,34.11109],[-118.70841,34.11767],[-118.70661,34.1247],[-118.70602,34.12564],[-118.70448,34.12687],[-118.70395,34.12773],[-118.70329,34.1323],[-118.70243,34.1362],[-118.70194,34.13719],[-118.70082,34.1385],[-118.70051,34.13907],[-118.70026,34.13976],[-118.69994,34.14133],[-118.69969,34.1418],[-118.69858,34.14317],[-118.69832,34.14364],[-118.69813,34.14433],[-118.69809,34.14572],[-118.69778,34.14737],[-118.69806,34.14946],[-118.69793,34.15011],[-118.69753,34.15108]]]}}
