{"type":"Feature","properties":{"id":"marsh-creek","name":"Marsh Creek Road","difficulty":2,"character":"Medium speed"},"geometry":{"type":"MultiLineString","coordinates":[[[-121.93429,37.94224],[-121.93416,37.94174],[-121.9336,37.94077],[-121.93341,37.93781],[-121.93287,37.93623],[-121.93236,37.93544],[-121.93131,37.93459],[-121.93048,37.93421],[-121.92916,37.93392],[-121.92729,37.9339],[-121.92629,37.93375],[-121.92555,37.93343],[-121.92421,37.93259],[-121.92321,37.93224],[-121.92352,37.93094],[-121.92328,37.92973],[-121.92309,37.92931],[-121.92269,37.92881],[-121.92204,37.92812],[-121.92139,37.92762],[-121.92009,37.92693],[-121.91837,37.92622],[-121.91443,37.92482],[-121.90961,37.92393],[-121.90675,37.92287],[-121.90441,37.92217],[-121.90325,37.92191],[-121.90244,37.92161],[-121.89919,37.92019],[-121.89719,37.91944],[-121.89663,37.91904],[-121.89533,37.91779],[-121.89243,37.91589],[-121.89147,37.91542],[-121.8875,37.91407],[-121.88701,37.9138],[-121.88535,37.9125],[-121.88459,37.91223],[-121.88253,37.91223],[-121.88205,37.91209],[-121.88139,37.91162],[-121.88013,37.91102],[-121.87898,37.90979],[-121.87847,37.90939],[-121.8775,37.90891],[-121.87639,37.90854],[-121.87618,37.90825],[-121.87612,37.90759],[-121.87598,37.90739],[-121.87456,37.90654],[-121.87388,37.90561],[-121.87203,37.90422],[-121.87134,37.90332],[-121.86943,37.90235],[-121.86853,37.90208],[-121.86701,37.90109],[-121.86527,37.90034],[-121.86405,37.90015],[-121.86212,37.90012],[-121.86158,37.89982],[-121.86077,37.89898],[-121.86011,37.89742],[-121.8589,37.89659],[-121.85767,37.89487],[-121.85685,37.89418],[-121.85601,37.89391],[-121.85325,37.89339],[-121.85253,37.89318],[-121.85036,37.89203],[-121.8487,37.89155],[-121.8477,37.89111],[-121.84718,37.89034],[-121.84696,37.88937],[-121.84672,37.88906],[-121.84449,37.88727],[-121.84361,37.88633],[-121.84298,37.8858],[-121.84212,37.88557],[-121.84174,37.88565],[-121.84052,37.88629],[-121.8401,37.88635],[-121.83913,37.88611],[-121.83814,37.8856],[-121.83726,37.88527],[-121.83669,37.88515],[-121.83413,37.88529],[-121.83351,37.88522],[-121.83285,37.88506],[-121.83236,37.88483],[-121.83176,37.88474],[-121.83112,37.88488],[-121.83025,37.88547],[-121.82967,37.88563],[-121.82905,37.88558],[-121.82798,37.88516],[-121.82731,37.88519],[-121.82686,37.88537],[-121.82506,37.88672],[-121.82435,37.88691],[-121.82358,37.88673],[-121.82302,37.88644],[-121.82211,37.88518],[-121.82165,37.8848],[-121.82126,37.88471],[-121.82035,37.88482],[-121.81902,37.88472],[-121.81872,37.88487],[-121.81856,37.88513],[-121.81813,37.88722],[-121.81794,37.8875],[-121.81759,37.88773],[-121.81718,37.88782],[-121.81573,37.88777],[-121.8152,37.88761],[-121.81434,37.88713],[-121.81374,37.88709],[-121.81248,37.88743],[-121.81077,37.88854],[-121.81018,37.88882],[-121.8095,37.88969],[-121.80803,37.89059],[-121.80648,37.89073],[-121.80464,37.89071],[-121.80404,37.89091],[-121.8031,37.89152],[-121.80253,37.89165],[-121.80199,37.89155],[-121.80101,37.89099],[-121.8003,37.89102],[-121.79983,37.89132],[-121.79851,37.89326],[-121.79748,37.8938],[-121.79659,37.89446],[-121.79613,37.8946],[-121.79576,37.8946],[-121.79528,37.89439],[-121.79145,37.89145],[-121.79045,37.89108],[-121.78973,37.89059],[-121.78461,37.88649],[-121.78002,37.88372],[-121.77948,37.88351],[-121.7774,37.88198],[-121.77577,37.88099],[-121.77371,37.8801],[-121.76722,37.87785],[-121.76631,37.87707],[-121.7635,37.87525],[-121.76272,37.87499],[-121.76137,37.87482],[-121.76032,37.87444],[-121.75997,37.87421],[-121.75921,37.87344],[-121.75693,37.8719],[-121.75498,37.87104],[-121.75128,37.87022],[-121.74706,37.86946],[-121.74624,37.86942],[-121.74535,37.8696],[-121.74342,37.87051],[-121.74229,37.87077],[-121.73759,37.87085],[-121.7369,37.87076],[-121.73534,37.87037],[-121.73316,37.87057],[-121.73253,37.87072],[-121.72938,37.87218],[-121.72425,37.87414],[-121.72382,37.87452],[-121.72357,37.87515],[-121.72354,37.88477],[-121.72333,37.88544],[-121.72108,37.88895],[-121.72048,37.89141],[-121.71989,37.89259],[-121.719,37.89373],[-121.71802,37.89443],[-121.71718,37.89468],[-121.71468,37.89508],[-121.71124,37.89622],[-121.71035,37.89632],[-121.70862,37.89635],[-121.70044,37.89633],[-121.68639,37.89645],[-121.68378,37.8964],[-121.67437,37.89652],[-121.62301,37.8964]]]}}
