{"type":"Feature","properties":{"id":"marshall","name":"Marshall\u2013Petaluma Road","difficulty":2,"character":"Medium speed"},"geometry":{"type":"MultiLineString","coordinates":[[[-122.73144,38.16766],[-122.7318,38.16678],[-122.73266,38.16578],[-122.73318,38.16545],[-122.73395,38.16528],[-122.73476,38.16531],[-122.73588,38.16567],[-122.73678,38.16532],[-122.73816,38.1654],[-122.73857,38.16557],[-122.73913,38.16615],[-122.73956,38.16639],[-122.74037,38.16658],[-122.74091,38.16652],[-122.74185,38.16542],[-122.74271,38.16473],[-122.7431,38.16403],[-122.74311,38.16331],[-122.74326,38.163],[-122.74425,38.16231],[-122.74508,38.16141],[-122.7471,38.16044],[-122.75002,38.15952],[-122.75037,38.1597],[-122.75108,38.16101],[-122.75263,38.16264],[-122.75335,38.16295],[-122.75425,38.16307],[-122.7551,38.16358],[-122.75575,38.16385],[-122.75637,38.16402],[-122.75735,38.16412],[-122.75788,38.16435],[-122.75893,38.16457],[-122.76255,38.1644],[-122.763,38.16425],[-122.76385,38.16377],[-122.76481,38.16361],[-122.76626,38.16367],[-122.76702,38.1639],[-122.76801,38.16397],[-122.7692,38.16452],[-122.76965,38.16455],[-122.77276,38.16414],[-122.77365,38.16414],[-122.77522,38.16351],[-122.77567,38.16342],[-122.77717,38.16381],[-122.77778,38.16383],[-122.77957,38.16307],[-122.78044,38.16299],[-122.78104,38.16316],[-122.78248,38.16392],[-122.78392,38.16434],[-122.78465,38.16444],[-122.78729,38.16595],[-122.79108,38.16792],[-122.79262,38.1689],[-122.79326,38.16915],[-122.79455,38.16931],[-122.79574,38.16932],[-122.79732,38.16891],[-122.79817,38.1685],[-122.7991,38.16876],[-122.7999,38.16869],[-122.8012,38.16872],[-122.80356,38.16788],[-122.80421,38.16712],[-122.80473,38.16682],[-122.80533,38.16666],[-122.80635,38.16655],[-122.80797,38.16658],[-122.80967,38.16554],[-122.81074,38.1635],[-122.81104,38.16327],[-122.81184,38.16303],[-122.81209,38.1628],[-122.81275,38.16084],[-122.81395,38.15878],[-122.81473,38.15644],[-122.8153,38.15529],[-122.81649,38.15346],[-122.81675,38.15262],[-122.82172,38.14961],[-122.82248,38.14937],[-122.82376,38.14948],[-122.82466,38.14981],[-122.82667,38.15023],[-122.82754,38.15013],[-122.82911,38.14957],[-122.83008,38.14958],[-122.83047,38.14968],[-122.83124,38.15017],[-122.8319,38.15024],[-122.8325,38.15002],[-122.83367,38.14928],[-122.83425,38.14879],[-122.83573,38.14832],[-122.83978,38.14868],[-122.84054,38.14892],[-122.84188,38.14948],[-122.8426,38.15021],[-122.84417,38.1514],[-122.84481,38.15168],[-122.84523,38.15177],[-122.84549,38.15174],[-122.84637,38.15136],[-122.84724,38.15136],[-122.84894,38.15097],[-122.85113,38.15101],[-122.85253,38.15016],[-122.85288,38.15003],[-122.85472,38.15026],[-122.8591,38.15255],[-122.86066,38.15295],[-122.86101,38.15311],[-122.86136,38.15359],[-122.8618,38.15516],[-122.86209,38.15569],[-122.86246,38.15583],[-122.86403,38.15587],[-122.86426,38.15595],[-122.86691,38.15922],[-122.86799,38.16002],[-122.86917,38.16042],[-122.86983,38.16106],[-122.87147,38.16206],[-122.87197,38.16228],[-122.87291,38.16214],[-122.87344,38.16231],[-122.87443,38.16224],[-122.87664,38.16255],[-122.87775,38.16223],[-122.87962,38.16239],[-122.88124,38.16199],[-122.88255,38.16197],[-122.88358,38.16174],[-122.88463,38.1617],[-122.88536,38.16184],[-122.88654,38.16253],[-122.89029,38.16327],[-122.89066,38.16338],[-122.89124,38.16373],[-122.89154,38.16372],[-122.89245,38.16318],[-122.89265,38.16316]]]}}
