{"type":"Feature","properties":{"id":"mckean","name":"McKean Road","difficulty":1,"character":"Medium speed"},"geometry":{"type":"MultiLineString","coordinates":[[[-121.82864,37.20163],[-121.82923,37.20123],[-121.82937,37.20122],[-121.82864,37.20163],[-121.82628,37.2002],[-121.82412,37.19977],[-121.81951,37.19856],[-121.81734,37.19788],[-121.81271,37.19673],[-121.80619,37.19423],[-121.80241,37.19264],[-121.79971,37.19139],[-121.798,37.18989],[-121.7969,37.18818],[-121.7963,37.18757],[-121.79601,37.18743],[-121.79543,37.18744],[-121.79318,37.18794],[-121.78937,37.18794],[-121.7751,37.1884],[-121.77439,37.18828],[-121.7736,37.188],[-121.77144,37.18644],[-121.77015,37.18586]],[[-121.82937,37.20122],[-121.83054,37.20047],[-121.83318,37.19806]]]}}
