{"type":"Feature","properties":{"id":"mckenzie-pass","name":"McKenzie Pass \u00b7 OR 242","difficulty":2,"character":"Technical"},"geometry":{"type":"MultiLineString","coordinates":[[[-122.07284,44.18445],[-122.07349,44.18413],[-122.07356,44.18373],[-122.07316,44.18319],[-122.07286,44.18298],[-122.07251,44.18287],[-122.06999,44.18307],[-122.0661,44.18251],[-122.06476,44.18285],[-122.06331,44.18307],[-122.06279,44.18306],[-122.06248,44.18296],[-122.06226,44.18277],[-122.06168,44.18181],[-122.06099,44.18118],[-122.06039,44.17925],[-122.05809,44.17586],[-122.05753,44.17553],[-122.05563,44.17502],[-122.05504,44.17473],[-122.0546,44.17434],[-122.0531,44.17248],[-122.05262,44.17213],[-122.04825,44.17029],[-122.04776,44.1703],[-122.04683,44.17071],[-122.04638,44.17077],[-122.04268,44.17045],[-122.04232,44.17034],[-122.03723,44.16787],[-122.0296,44.16253],[-122.02273,44.15939],[-122.02148,44.15912],[-122.01974,44.15896],[-122.01855,44.15914],[-122.01778,44.1595],[-122.01599,44.16082],[-122.01348,44.16141],[-122.0127,44.1614],[-122.00979,44.16102],[-122.00926,44.16118],[-122.0084,44.16195],[-122.00798,44.16211],[-122.00623,44.16207],[-122.00481,44.16248],[-122.0044,44.16253],[-122.00162,44.16221],[-122.00072,44.16227],[-121.99628,44.1634],[-121.9895,44.16537],[-121.9871,44.16581],[-121.98351,44.16585],[-121.98213,44.16648],[-121.97996,44.16684],[-121.97827,44.16684],[-121.97601,44.16737],[-121.97334,44.16838],[-121.97282,44.16838],[-121.97094,44.16766],[-121.97002,44.1675],[-121.96596,44.16785],[-121.96344,44.16823],[-121.96132,44.16893],[-121.95978,44.16965],[-121.95697,44.16958],[-121.95411,44.17031],[-121.9536,44.17029],[-121.95211,44.16998],[-121.94884,44.1699],[-121.94754,44.16949],[-121.94541,44.16923],[-121.94516,44.16907],[-121.94477,44.1685],[-121.94353,44.1683],[-121.94247,44.16786],[-121.94211,44.16782],[-121.94139,44.168],[-121.94097,44.16798],[-121.93989,44.16756],[-121.93957,44.16708],[-121.9386,44.16652],[-121.93845,44.16595],[-121.93818,44.16578],[-121.93775,44.16591],[-121.93717,44.16749],[-121.93725,44.1678],[-121.93776,44.16831],[-121.93763,44.16858],[-121.93731,44.16877],[-121.93702,44.16871],[-121.93656,44.16817],[-121.93446,44.16694],[-121.93337,44.1668],[-121.93245,44.16687],[-121.93155,44.16709],[-121.93057,44.16752],[-121.92827,44.16805],[-121.92666,44.16785],[-121.92623,44.16771],[-121.92566,44.16725],[-121.92528,44.16657],[-121.92484,44.16647],[-121.92462,44.16657],[-121.92459,44.16669],[-121.92482,44.16737],[-121.92484,44.1682],[-121.92619,44.16934],[-121.92622,44.16957],[-121.92609,44.16982],[-121.92587,44.16996],[-121.92469,44.17029],[-121.92429,44.17104],[-121.92297,44.17179],[-121.9212,44.17186],[-121.92078,44.17177],[-121.92024,44.17146],[-121.91968,44.17156],[-121.91943,44.17182],[-121.91938,44.17206],[-121.91992,44.17387],[-121.9199,44.17408],[-121.91967,44.17427],[-121.91934,44.17429],[-121.91842,44.17411],[-121.91712,44.17431],[-121.91647,44.17402],[-121.9159,44.17359],[-121.91567,44.17354],[-121.91544,44.17361],[-121.91536,44.17394],[-121.91592,44.17435],[-121.91603,44.17459],[-121.91569,44.17499],[-121.91568,44.17521],[-121.91627,44.17558],[-121.9164,44.17579],[-121.91628,44.17613],[-121.91567,44.17645],[-121.91474,44.17655],[-121.91389,44.17694],[-121.91289,44.1768],[-121.9123,44.17656],[-121.91125,44.1768],[-121.91087,44.17679],[-121.90999,44.17634],[-121.90938,44.17616],[-121.90876,44.17573],[-121.90792,44.17545],[-121.90649,44.17524],[-121.90557,44.17493],[-121.9053,44.17499],[-121.90523,44.17513],[-121.90532,44.17524],[-121.90633,44.17547],[-121.90671,44.17565],[-121.90744,44.17654],[-121.90793,44.17681],[-121.90807,44.17784],[-121.90876,44.17833],[-121.90874,44.17888],[-121.90946,44.17954],[-121.90952,44.17978],[-121.9092,44.17984],[-121.90865,44.17952],[-121.90763,44.17928],[-121.9075,44.17941],[-121.90749,44.17978],[-121.90713,44.18022],[-121.90633,44.18063],[-121.90602,44.18111],[-121.90605,44.18133],[-121.9063,44.18136],[-121.90674,44.18104],[-121.90699,44.18102],[-121.90734,44.18132],[-121.9075,44.18169],[-121.90714,44.18271],[-121.90647,44.18348],[-121.90618,44.18363],[-121.90474,44.18391],[-121.90197,44.18413],[-121.90152,44.18398],[-121.90123,44.18347],[-121.90063,44.18315],[-121.89998,44.1831],[-121.8994,44.1834],[-121.89906,44.18392],[-121.89909,44.1841],[-121.89934,44.18413],[-121.89983,44.1839],[-121.89998,44.18394],[-121.9,44.18406],[-121.8989,44.1855],[-121.89897,44.18614],[-121.89815,44.18838],[-121.89741,44.18897],[-121.89537,44.1897],[-121.89488,44.18969],[-121.8938,44.18893],[-121.8933,44.18835],[-121.89256,44.18779],[-121.89222,44.18777],[-121.89214,44.18799],[-121.89286,44.18831],[-121.89355,44.18933],[-121.89361,44.19045],[-121.89341,44.19063],[-121.89325,44.19051],[-121.89315,44.18941],[-121.89261,44.18891],[-121.89234,44.18881],[-121.89157,44.18891],[-121.89068,44.18928],[-121.8897,44.18921],[-121.88896,44.18941],[-121.88822,44.18917],[-121.88734,44.18924],[-121.88705,44.18889],[-121.8861,44.18848],[-121.88573,44.18796],[-121.88549,44.18785],[-121.88433,44.18796],[-121.88332,44.18794],[-121.88293,44.18807],[-121.88249,44.18839],[-121.88238,44.18881],[-121.88299,44.1891],[-121.8832,44.18947],[-121.88407,44.18945],[-121.88435,44.18954],[-121.88455,44.18975],[-121.8845,44.18988],[-121.88395,44.19027],[-121.88379,44.19063],[-121.88446,44.19278],[-121.88444,44.19333],[-121.88425,44.19365],[-121.88392,44.19391],[-121.87767,44.19775],[-121.87762,44.19813],[-121.87803,44.1987],[-121.87805,44.19907],[-121.8773,44.20103],[-121.87529,44.20477],[-121.87496,44.20612],[-121.87511,44.2078],[-121.87676,44.21242],[-121.878,44.21841],[-121.87836,44.22042],[-121.87831,44.2207],[-121.87814,44.22094],[-121.87779,44.22114],[-121.87474,44.22188],[-121.87323,44.22238],[-121.87285,44.22262],[-121.8723,44.22331],[-121.87086,44.22601],[-121.86723,44.22916],[-121.86696,44.22963],[-121.86698,44.23023],[-121.86729,44.23074],[-121.86798,44.23141],[-121.86803,44.23175],[-121.86787,44.23195],[-121.86755,44.23211],[-121.86595,44.23215],[-121.86545,44.23241],[-121.86536,44.2327],[-121.86546,44.23364],[-121.86523,44.23395],[-121.86445,44.23451],[-121.86418,44.23484],[-121.86339,44.23814],[-121.863,44.23868],[-121.86105,44.23987],[-121.86068,44.24],[-121.85768,44.24018],[-121.85591,44.24008],[-121.85501,44.2402],[-121.85431,44.24042],[-121.84356,44.24536],[-121.84327,44.24574],[-121.84368,44.24689],[-121.84352,44.24728],[-121.84143,44.24821],[-121.83959,44.24831],[-121.83925,44.24856],[-121.839,44.24917],[-121.83872,44.24934],[-121.83702,44.24961],[-121.83627,44.24966],[-121.8357,44.24945],[-121.8347,44.24883],[-121.8337,44.24878],[-121.83181,44.24932],[-121.82956,44.25012],[-121.82719,44.25121],[-121.80954,44.26003],[-121.80903,44.26006],[-121.8084,44.25971],[-121.80812,44.25966],[-121.80791,44.25977],[-121.8077,44.2602],[-121.80736,44.26029],[-121.80478,44.25982],[-121.80408,44.25997],[-121.80346,44.26046],[-121.80252,44.26061],[-121.80137,44.26027],[-121.79858,44.26004],[-121.79785,44.25947],[-121.79739,44.25935],[-121.79706,44.25952],[-121.79715,44.26005],[-121.79698,44.26024],[-121.79582,44.26029],[-121.79484,44.26077],[-121.79337,44.261],[-121.79254,44.26184],[-121.79175,44.26307],[-121.79113,44.26365],[-121.78888,44.26495],[-121.78788,44.26501],[-121.7875,44.26516],[-121.78572,44.26671],[-121.78481,44.26721],[-121.78461,44.26753],[-121.78489,44.26823],[-121.78471,44.26864],[-121.78432,44.26875],[-121.78368,44.26852],[-121.78322,44.26858],[-121.78243,44.26936],[-121.78153,44.2698],[-121.78013,44.27187],[-121.77985,44.27357],[-121.77943,44.27397],[-121.77816,44.27443],[-121.77729,44.27526],[-121.77701,44.27614],[-121.77638,44.27686],[-121.77601,44.27795],[-121.77584,44.27814],[-121.77548,44.27828],[-121.77502,44.27826],[-121.77389,44.27754],[-121.77351,44.27744],[-121.77259,44.27766],[-121.77181,44.27765],[-121.77141,44.27786],[-121.77086,44.27903],[-121.77058,44.28093],[-121.77054,44.28209],[-121.77029,44.28262],[-121.76941,44.28343],[-121.76816,44.28423],[-121.76761,44.28485],[-121.76647,44.28525],[-121.76548,44.28665],[-121.76519,44.28738],[-121.7642,44.28838],[-121.76358,44.2888],[-121.76321,44.28961],[-121.76287,44.28974],[-121.76193,44.28979],[-121.76068,44.29004],[-121.75972,44.2905],[-121.75917,44.29101],[-121.7571,44.29158],[-121.75644,44.29228],[-121.75556,44.29237],[-121.75472,44.29269],[-121.75426,44.29301],[-121.75298,44.29433],[-121.75238,44.29468],[-121.75093,44.2949],[-121.74913,44.29473],[-121.74807,44.29481],[-121.74735,44.29498],[-121.74548,44.29572],[-121.74486,44.29608],[-121.74445,44.2967],[-121.74387,44.29731],[-121.74186,44.29899],[-121.73901,44.30002],[-121.73751,44.30081],[-121.7344,44.30186],[-121.73349,44.30225],[-121.73271,44.30268],[-121.73198,44.30348],[-121.73057,44.30416],[-121.72957,44.30432],[-121.7276,44.30448],[-121.72717,44.3046],[-121.72589,44.30527],[-121.72508,44.30539],[-121.72459,44.30534],[-121.72291,44.30483],[-121.72233,44.30426],[-121.72167,44.30418],[-121.72078,44.30422],[-121.71719,44.30497],[-121.71608,44.3054],[-121.71424,44.30575],[-121.71161,44.30648],[-121.70986,44.30661],[-121.70698,44.30696],[-121.70524,44.30803],[-121.70311,44.3091],[-121.70206,44.30937],[-121.69995,44.30935],[-121.69872,44.30944],[-121.69751,44.30913],[-121.69654,44.30827],[-121.6963,44.30786],[-121.69632,44.3075],[-121.6968,44.30631],[-121.69676,44.30617],[-121.69647,44.306],[-121.69609,44.30604],[-121.68956,44.30786],[-121.68795,44.30803],[-121.68675,44.30793],[-121.67665,44.3058],[-121.67496,44.3056],[-121.66806,44.30595],[-121.63731,44.30938],[-121.63501,44.30985],[-121.63437,44.30989],[-121.62916,44.30849],[-121.57821,44.2939],[-121.57665,44.29326],[-121.57491,44.29174],[-121.57409,44.2914],[-121.57299,44.29131],[-121.55863,44.29132],[-121.55874,44.29303],[-121.55856,44.29331],[-121.5579,44.29367]]]}}
