{"type":"Feature","properties":{"id":"mesa-grande","name":"Mesa Grande Road","difficulty":3,"character":"Technical"},"geometry":{"type":"MultiLineString","coordinates":[[[-116.67931,33.13644],[-116.68089,33.1368],[-116.68137,33.13701],[-116.68387,33.13976],[-116.6915,33.14681],[-116.69273,33.14764],[-116.69559,33.1506],[-116.69584,33.15064],[-116.69632,33.15055],[-116.69651,33.15041],[-116.69653,33.15022],[-116.69619,33.14963],[-116.69617,33.14934],[-116.69626,33.14916],[-116.69744,33.14828],[-116.69857,33.14768],[-116.69868,33.14748],[-116.69868,33.14697],[-116.69891,33.14681],[-116.69965,33.14706],[-116.70065,33.14714],[-116.7009,33.14736],[-116.701,33.14764],[-116.70129,33.14779],[-116.70222,33.14751],[-116.70278,33.14754],[-116.70331,33.14735],[-116.70373,33.14732],[-116.70419,33.14743],[-116.70479,33.14789],[-116.70586,33.14835],[-116.70709,33.14852],[-116.70801,33.14889],[-116.7087,33.14942],[-116.70987,33.1507],[-116.71142,33.15276],[-116.71539,33.15483],[-116.71622,33.15606],[-116.71801,33.15833],[-116.71873,33.15886],[-116.72001,33.15933],[-116.72283,33.15995],[-116.72681,33.16198],[-116.73267,33.16359],[-116.73463,33.16425],[-116.73587,33.1649],[-116.73759,33.16606],[-116.739,33.16739],[-116.74149,33.16893],[-116.74309,33.16974],[-116.74531,33.17059],[-116.7459,33.17073],[-116.74757,33.17084],[-116.75231,33.17093],[-116.75625,33.17199],[-116.75944,33.17219],[-116.76341,33.17395],[-116.76392,33.17433],[-116.77148,33.18216],[-116.77193,33.18236],[-116.7737,33.18237],[-116.77449,33.18265],[-116.7763,33.1844],[-116.77802,33.18636],[-116.77824,33.18682],[-116.77816,33.18775],[-116.7783,33.18839],[-116.77861,33.1889],[-116.77962,33.18986],[-116.77981,33.19022],[-116.78,33.19226],[-116.77969,33.1925],[-116.77926,33.19264],[-116.77831,33.19258],[-116.77775,33.19314],[-116.7772,33.1934],[-116.77612,33.19338],[-116.77501,33.19315],[-116.77492,33.19326],[-116.77495,33.19391],[-116.77442,33.19422],[-116.77399,33.1942],[-116.77355,33.19407],[-116.77316,33.19348],[-116.77295,33.19348],[-116.77264,33.1939],[-116.77284,33.19463],[-116.77246,33.19521],[-116.77254,33.19604],[-116.77205,33.19662],[-116.77166,33.19677],[-116.77057,33.19692],[-116.76892,33.19702],[-116.76776,33.19742],[-116.76599,33.19736],[-116.76495,33.19773],[-116.76423,33.19785],[-116.76315,33.19792],[-116.76116,33.19786],[-116.75879,33.19829],[-116.75864,33.1985],[-116.75865,33.19927],[-116.75748,33.20053],[-116.75712,33.20078],[-116.75647,33.20101],[-116.75518,33.20214],[-116.75503,33.2028],[-116.7549,33.20296],[-116.7536,33.20361],[-116.75283,33.20468],[-116.75161,33.20583],[-116.74878,33.207],[-116.74779,33.20794],[-116.74675,33.20817],[-116.74535,33.20799],[-116.74493,33.20814],[-116.74454,33.20816],[-116.74418,33.20802],[-116.74396,33.20759],[-116.74381,33.20749],[-116.74298,33.2074],[-116.74249,33.20775],[-116.74219,33.20775],[-116.74128,33.20742],[-116.74052,33.20739],[-116.73946,33.20669],[-116.73934,33.20681],[-116.73939,33.20749],[-116.73892,33.208],[-116.73922,33.20848],[-116.73901,33.20911],[-116.7389,33.2092],[-116.73689,33.20893],[-116.7364,33.20843],[-116.73588,33.20862],[-116.73522,33.20858],[-116.73472,33.20874],[-116.73461,33.20894],[-116.73462,33.20945],[-116.73475,33.20977],[-116.73495,33.2099],[-116.73517,33.20987],[-116.73553,33.20933],[-116.73573,33.20927],[-116.73641,33.20978],[-116.73724,33.20994],[-116.73794,33.21035],[-116.73881,33.21037],[-116.73956,33.21029],[-116.73953,33.21046],[-116.73894,33.21085],[-116.73833,33.21164],[-116.73932,33.21308],[-116.7395,33.21351],[-116.73943,33.21379]]]}}
