{"type":"Feature","properties":{"id":"metcalf-san-felipe","name":"Metcalf Road & San Felipe Road","difficulty":3,"character":"Technical"},"geometry":{"type":"MultiLineString","coordinates":[[[-121.79163,37.31388],[-121.79086,37.31321],[-121.78888,37.31238],[-121.7882,37.31184],[-121.78529,37.31009],[-121.78096,37.30861],[-121.77998,37.30804],[-121.77371,37.30146],[-121.7715,37.2994],[-121.76564,37.29149],[-121.7655,37.29105],[-121.76556,37.28979],[-121.76526,37.2885],[-121.76367,37.28699],[-121.76307,37.28592],[-121.76239,37.285],[-121.76167,37.28453],[-121.76069,37.28353],[-121.76011,37.28327],[-121.7595,37.28274],[-121.75913,37.28232],[-121.75865,37.28112],[-121.75704,37.27986],[-121.75661,37.27963],[-121.756,37.27954],[-121.75497,37.27955],[-121.7495,37.27755],[-121.74881,37.27711],[-121.74823,37.27649],[-121.74682,37.27492],[-121.74607,37.27385],[-121.74575,37.27355],[-121.74361,37.27266],[-121.74117,37.27112],[-121.73916,37.26923],[-121.73841,37.26865],[-121.73669,37.26786],[-121.73521,37.26762],[-121.73459,37.26717],[-121.73357,37.2668],[-121.73335,37.26668],[-121.73279,37.26599],[-121.73198,37.26536],[-121.73094,37.26481],[-121.73035,37.26466],[-121.73,37.26471],[-121.7291,37.26463],[-121.72695,37.2638],[-121.72652,37.26348],[-121.72601,37.26328],[-121.72445,37.26304],[-121.72302,37.2627],[-121.72256,37.26242],[-121.72128,37.26208],[-121.71994,37.26143],[-121.71865,37.26126],[-121.71791,37.26086],[-121.7166,37.26062],[-121.71537,37.26055],[-121.71434,37.26021],[-121.71303,37.26022],[-121.71118,37.25983],[-121.71032,37.25973],[-121.70933,37.25976],[-121.70841,37.25928],[-121.70691,37.25873],[-121.70471,37.25818],[-121.70317,37.25739],[-121.70217,37.25727],[-121.6998,37.25653],[-121.69911,37.2566],[-121.69697,37.25749],[-121.696,37.25763],[-121.69558,37.25762],[-121.69532,37.25746],[-121.69521,37.25722],[-121.69511,37.25656],[-121.69478,37.2562],[-121.69392,37.25557],[-121.69333,37.25535],[-121.69226,37.25514],[-121.69148,37.25472],[-121.68976,37.2533],[-121.68843,37.25282],[-121.68798,37.25257],[-121.68661,37.25133],[-121.68499,37.25036],[-121.68429,37.24901],[-121.68381,37.24863],[-121.68367,37.24825],[-121.68368,37.24696],[-121.68373,37.24665],[-121.684,37.24622],[-121.68507,37.24532],[-121.68611,37.2448],[-121.68802,37.24264],[-121.68758,37.24115],[-121.68732,37.24084],[-121.68589,37.23978],[-121.68559,37.23906],[-121.68539,37.23888],[-121.68446,37.23864],[-121.68393,37.23839],[-121.68329,37.23751],[-121.68321,37.23584],[-121.68331,37.23548],[-121.68396,37.23473],[-121.6858,37.23359],[-121.68604,37.23351],[-121.68652,37.23355],[-121.68761,37.2344],[-121.68843,37.23466],[-121.6895,37.23464],[-121.69029,37.23484],[-121.69125,37.23464],[-121.69467,37.23462],[-121.69696,37.2347],[-121.6983,37.23544],[-121.69901,37.23602],[-121.70122,37.23735],[-121.70245,37.23782],[-121.70343,37.23853],[-121.70445,37.23898],[-121.70523,37.23946],[-121.70621,37.23962],[-121.70786,37.24012],[-121.7106,37.24018],[-121.71157,37.24044],[-121.71219,37.24094],[-121.71256,37.24106],[-121.71324,37.24105],[-121.71413,37.24081],[-121.71575,37.23978],[-121.71638,37.23913],[-121.71746,37.23761],[-121.71768,37.23715],[-121.71957,37.23661],[-121.72086,37.23652],[-121.72177,37.23659],[-121.72243,37.2367],[-121.72364,37.23736],[-121.72399,37.23745],[-121.72559,37.23738],[-121.72632,37.23758],[-121.72674,37.2376],[-121.72707,37.23749],[-121.72772,37.23694],[-121.72833,37.23586],[-121.72909,37.23513],[-121.72936,37.23504],[-121.72998,37.23512],[-121.73096,37.23493],[-121.73199,37.23528],[-121.73233,37.23519],[-121.73316,37.23521],[-121.73376,37.23505],[-121.73535,37.2352],[-121.73658,37.23499],[-121.73706,37.23519],[-121.73721,37.23468],[-121.73751,37.23452],[-121.7382,37.23453],[-121.73978,37.23498],[-121.74035,37.23471],[-121.7411,37.23456],[-121.74122,37.23449],[-121.74097,37.2342],[-121.74103,37.23396],[-121.74118,37.23393],[-121.7416,37.23409],[-121.74177,37.23405],[-121.74267,37.23309],[-121.7431,37.23277],[-121.74334,37.23271],[-121.74387,37.2328],[-121.74452,37.23256],[-121.74498,37.23264],[-121.74537,37.23233],[-121.74641,37.23198],[-121.74659,37.23181],[-121.74666,37.23145],[-121.74667,37.2306],[-121.74816,37.22873],[-121.74912,37.22784],[-121.75125,37.22641]]]}}
