{"type":"Feature","properties":{"id":"million-dollar-highway","name":"Million Dollar Highway \u00b7 US 550","difficulty":3,"character":"Technical"},"geometry":{"type":"MultiLineString","coordinates":[[[-107.67154,38.02863],[-107.67146,38.02743],[-107.67154,38.01872],[-107.67182,38.01843],[-107.67219,38.01835],[-107.67516,38.01839],[-107.67548,38.01821],[-107.67553,38.01787],[-107.67534,38.0177],[-107.67511,38.01765],[-107.67379,38.01796],[-107.67222,38.01774],[-107.67099,38.01774],[-107.66898,38.01759],[-107.66859,38.01765],[-107.6681,38.01786],[-107.66688,38.01882],[-107.6665,38.01884],[-107.66625,38.01869],[-107.66618,38.01846],[-107.66629,38.0182],[-107.6671,38.01779],[-107.66796,38.01692],[-107.66858,38.01676],[-107.67022,38.01692],[-107.67057,38.0167],[-107.67058,38.01636],[-107.67035,38.01615],[-107.66762,38.01474],[-107.66638,38.01343],[-107.66493,38.01249],[-107.66331,38.01114],[-107.66319,38.01085],[-107.66324,38.0103],[-107.66291,38.00917],[-107.66299,38.0089],[-107.6634,38.00848],[-107.66343,38.00828],[-107.66277,38.00777],[-107.66255,38.00713],[-107.66215,38.00672],[-107.66196,38.00627],[-107.66179,38.00354],[-107.66125,38.00026],[-107.66104,38.0],[-107.65999,37.99994],[-107.65946,37.99959],[-107.65928,37.99921],[-107.65917,37.99845],[-107.6587,37.99793],[-107.65766,37.99628],[-107.65634,37.99372],[-107.65522,37.99262],[-107.65469,37.99228],[-107.65369,37.99131],[-107.65274,37.98996],[-107.65233,37.98967],[-107.6506,37.98954],[-107.64984,37.989],[-107.64971,37.98861],[-107.65012,37.98716],[-107.64986,37.98607],[-107.65009,37.98478],[-107.65047,37.98442],[-107.65236,37.98351],[-107.65451,37.9817],[-107.6546,37.98148],[-107.6546,37.97991],[-107.6554,37.97878],[-107.65544,37.9782],[-107.65575,37.97725],[-107.6565,37.97647],[-107.65757,37.97599],[-107.65777,37.97573],[-107.65778,37.97551],[-107.65751,37.97505],[-107.65789,37.97437],[-107.6579,37.97401],[-107.65743,37.97292],[-107.65742,37.97241],[-107.65714,37.97179],[-107.65717,37.9715],[-107.6575,37.97083],[-107.65881,37.96955],[-107.65981,37.96799],[-107.65975,37.96786],[-107.65954,37.96776],[-107.65906,37.96799],[-107.65878,37.96801],[-107.65857,37.96776],[-107.65876,37.96751],[-107.65971,37.96712],[-107.65984,37.96694],[-107.65973,37.9667],[-107.65947,37.96665],[-107.65899,37.96696],[-107.65873,37.96703],[-107.65846,37.96689],[-107.65846,37.96669],[-107.65928,37.9663],[-107.65965,37.96598],[-107.66112,37.96442],[-107.66163,37.96362],[-107.6619,37.96265],[-107.66177,37.96073],[-107.6619,37.95988],[-107.66724,37.94842],[-107.66843,37.94281],[-107.66866,37.94216],[-107.6692,37.94125],[-107.66997,37.94043],[-107.67112,37.93965],[-107.67701,37.93702],[-107.67872,37.93614],[-107.67964,37.93557],[-107.68185,37.93395],[-107.68332,37.93303],[-107.68573,37.93186],[-107.68638,37.93124],[-107.68812,37.92993],[-107.68998,37.92896],[-107.69046,37.92851],[-107.6911,37.92737],[-107.69339,37.92476],[-107.69406,37.92367],[-107.69435,37.92365],[-107.6945,37.92382],[-107.69426,37.92491],[-107.69441,37.92518],[-107.69473,37.92522],[-107.69491,37.9251],[-107.69508,37.92425],[-107.69552,37.92351],[-107.69728,37.92266],[-107.69818,37.92193],[-107.69847,37.9219],[-107.69857,37.92213],[-107.69833,37.92276],[-107.69768,37.92323],[-107.69778,37.92342],[-107.69931,37.92281],[-107.70077,37.92271],[-107.70105,37.92256],[-107.70126,37.92172],[-107.70084,37.92089],[-107.70112,37.92056],[-107.70199,37.91998],[-107.7022,37.91944],[-107.70199,37.91916],[-107.70125,37.91898],[-107.69977,37.91808],[-107.69956,37.91781],[-107.69951,37.91757],[-107.69973,37.91733],[-107.70088,37.91694],[-107.70152,37.91696],[-107.70184,37.91674],[-107.70186,37.91637],[-107.70166,37.91615],[-107.70058,37.91611],[-107.70033,37.916],[-107.70026,37.91575],[-107.70041,37.91542],[-107.7006,37.91516],[-107.70104,37.91495],[-107.70246,37.9147],[-107.70279,37.91494],[-107.70299,37.91582],[-107.70319,37.91587],[-107.70335,37.91574],[-107.70294,37.91446],[-107.70324,37.91336],[-107.7028,37.91282],[-107.7026,37.91204],[-107.70266,37.91182],[-107.70354,37.9111],[-107.7043,37.91082],[-107.70475,37.91081],[-107.70492,37.91104],[-107.70482,37.91125],[-107.70425,37.91154],[-107.70421,37.91167],[-107.70432,37.91179],[-107.70464,37.91178],[-107.7049,37.91166],[-107.70528,37.91131],[-107.70544,37.91061],[-107.70593,37.90984],[-107.70608,37.90887],[-107.70603,37.90833],[-107.70638,37.90757],[-107.70632,37.90681],[-107.70645,37.90647],[-107.70677,37.90615],[-107.70847,37.90516],[-107.70902,37.90463],[-107.70928,37.90415],[-107.71016,37.90129],[-107.71269,37.8978],[-107.71455,37.89425],[-107.71529,37.89312],[-107.71605,37.89243],[-107.71703,37.89186],[-107.71791,37.89066],[-107.71857,37.89032],[-107.71878,37.89011],[-107.71877,37.88902],[-107.71919,37.8882],[-107.71913,37.88733],[-107.71996,37.88591],[-107.72061,37.8854],[-107.72131,37.88518],[-107.72288,37.88486],[-107.72324,37.88465],[-107.72325,37.88412],[-107.72297,37.88312],[-107.72304,37.88257],[-107.72411,37.88033],[-107.72485,37.87919],[-107.72522,37.87824],[-107.72579,37.87773],[-107.72656,37.87738],[-107.72725,37.87729],[-107.72925,37.87731],[-107.73097,37.87688],[-107.73136,37.87665],[-107.73209,37.87596],[-107.73338,37.87546],[-107.7351,37.87457],[-107.73613,37.87359],[-107.73629,37.87323],[-107.73611,37.87293],[-107.73567,37.87287],[-107.73534,37.87304],[-107.73445,37.87398],[-107.73376,37.87433],[-107.73202,37.87473],[-107.72929,37.87555],[-107.72802,37.87566],[-107.72729,37.87561],[-107.7265,37.87543],[-107.7251,37.87477],[-107.72413,37.87387],[-107.72361,37.87285],[-107.72343,37.87195],[-107.72314,37.86858],[-107.72311,37.86612],[-107.72323,37.8655],[-107.72419,37.86317],[-107.72406,37.85859],[-107.72448,37.85739],[-107.72458,37.85647],[-107.72508,37.85521],[-107.72524,37.85445],[-107.72506,37.85024],[-107.72473,37.84774],[-107.72496,37.84689],[-107.7246,37.84601],[-107.7247,37.84563],[-107.72516,37.84475],[-107.72578,37.84121],[-107.72553,37.8405],[-107.72554,37.8399],[-107.72537,37.83935],[-107.72553,37.8385],[-107.72533,37.8378],[-107.72522,37.83607],[-107.72432,37.83323],[-107.72394,37.83237],[-107.72408,37.83143],[-107.72402,37.83106],[-107.7225,37.82797],[-107.72162,37.82692],[-107.7204,37.82445],[-107.71934,37.82279],[-107.71868,37.82225],[-107.71769,37.82184],[-107.7162,37.82174],[-107.7152,37.82137],[-107.7144,37.82117],[-107.71192,37.8213],[-107.7108,37.82094],[-107.70964,37.82087],[-107.70903,37.82074],[-107.70773,37.81998],[-107.70644,37.81998],[-107.70462,37.81967],[-107.70213,37.81808],[-107.70129,37.81764],[-107.69884,37.81695],[-107.69777,37.81653],[-107.69634,37.81548],[-107.69476,37.81393],[-107.69058,37.81132],[-107.68994,37.81117],[-107.68728,37.81107],[-107.6866,37.81096],[-107.686,37.81066],[-107.68525,37.81001],[-107.68473,37.80977],[-107.68382,37.80955],[-107.68214,37.80945],[-107.6806,37.80877],[-107.67689,37.80791],[-107.67516,37.80726],[-107.67126,37.80555]]]}}
