{"type":"Feature","properties":{"id":"mines","name":"Mines Road","difficulty":3,"character":"Technical"},"geometry":{"type":"MultiLineString","coordinates":[[[-121.49039,37.39175],[-121.49022,37.39349],[-121.49042,37.39499],[-121.49092,37.39679],[-121.49135,37.3989],[-121.49196,37.39995],[-121.49197,37.40038],[-121.49142,37.40105],[-121.49103,37.40116],[-121.48994,37.40125],[-121.48896,37.40157],[-121.4877,37.40243],[-121.48738,37.4028],[-121.48713,37.40337],[-121.4868,37.40379],[-121.48677,37.40399],[-121.48692,37.40415],[-121.48762,37.40441],[-121.48887,37.40605],[-121.48979,37.40664],[-121.49052,37.40755],[-121.49106,37.40789],[-121.49148,37.40861],[-121.49222,37.40925],[-121.49272,37.41],[-121.49281,37.41045],[-121.49271,37.41105],[-121.49311,37.41191],[-121.49321,37.41241],[-121.49372,37.41263],[-121.49425,37.4131],[-121.49493,37.41348],[-121.49549,37.4141],[-121.49588,37.4142],[-121.49686,37.41417],[-121.49816,37.41483],[-121.49953,37.4164],[-121.50051,37.41661],[-121.50136,37.41749],[-121.50206,37.41771],[-121.50239,37.41792],[-121.50341,37.4194],[-121.50403,37.41975],[-121.50475,37.42053],[-121.50483,37.42149],[-121.50611,37.42314],[-121.50618,37.42375],[-121.50605,37.42401],[-121.50563,37.42414],[-121.50526,37.42414],[-121.50432,37.42391],[-121.50415,37.42406],[-121.5042,37.42426],[-121.5054,37.42529],[-121.50579,37.42578],[-121.50659,37.42604],[-121.50667,37.42621],[-121.50657,37.42668],[-121.50669,37.42682],[-121.50707,37.42695],[-121.50775,37.42698],[-121.50806,37.42718],[-121.50837,37.42804],[-121.50899,37.42866],[-121.50936,37.42924],[-121.51031,37.43134],[-121.51103,37.43214],[-121.51108,37.43251],[-121.51065,37.43307],[-121.51066,37.43333],[-121.51131,37.43425],[-121.51276,37.43534],[-121.5127,37.43564],[-121.51231,37.43611],[-121.51219,37.43648],[-121.51247,37.43779],[-121.51301,37.43907],[-121.51303,37.43968],[-121.51283,37.44053],[-121.51295,37.4411],[-121.51316,37.44124],[-121.5134,37.44124],[-121.51455,37.44073],[-121.51498,37.44014],[-121.51536,37.44011],[-121.51561,37.4403],[-121.51559,37.44133],[-121.51656,37.4427],[-121.51671,37.44371],[-121.51787,37.44541],[-121.51843,37.44707],[-121.51822,37.44736],[-121.51732,37.4476],[-121.51581,37.44726],[-121.5154,37.44734],[-121.51475,37.44813],[-121.51442,37.44936],[-121.51449,37.45115],[-121.51594,37.45301],[-121.51637,37.45398],[-121.51602,37.45524],[-121.5161,37.45583],[-121.51593,37.45713],[-121.51672,37.45925],[-121.51743,37.46037],[-121.51774,37.46128],[-121.51847,37.46229],[-121.51895,37.46335],[-121.51909,37.46411],[-121.51954,37.46517],[-121.51944,37.4662],[-121.52033,37.46717],[-121.52062,37.46856],[-121.5212,37.46913],[-121.52201,37.46946],[-121.52282,37.47048],[-121.52386,37.47115],[-121.524,37.47145],[-121.52412,37.4724],[-121.525,37.47339],[-121.5255,37.47492],[-121.52602,37.47565],[-121.52602,37.47613],[-121.52633,37.4771],[-121.52654,37.4773],[-121.52721,37.47743],[-121.52739,37.47795],[-121.52801,37.47821],[-121.52862,37.47868],[-121.52879,37.47935],[-121.53003,37.4802],[-121.53048,37.48077],[-121.53119,37.48106],[-121.53191,37.4817],[-121.53257,37.48316],[-121.53257,37.48383],[-121.53282,37.48458],[-121.5332,37.48509],[-121.53365,37.48537],[-121.53413,37.48611],[-121.53475,37.48665],[-121.53524,37.48736],[-121.53577,37.48785],[-121.53578,37.48803],[-121.53543,37.48844],[-121.53528,37.4889],[-121.53491,37.48935],[-121.53495,37.48994],[-121.53455,37.49028],[-121.53385,37.49063],[-121.53382,37.49075],[-121.53449,37.49127],[-121.53448,37.49185],[-121.5342,37.49239],[-121.53426,37.4929],[-121.5357,37.49563],[-121.53582,37.49689],[-121.53643,37.49761],[-121.53718,37.49968],[-121.53781,37.50035],[-121.53885,37.50113],[-121.53889,37.50241],[-121.53942,37.50292],[-121.53934,37.50392],[-121.53948,37.50436],[-121.53938,37.50552],[-121.53978,37.50624],[-121.53982,37.50657],[-121.53931,37.50785],[-121.53978,37.50863],[-121.5405,37.50947],[-121.54079,37.51011],[-121.54045,37.51128],[-121.54061,37.51197],[-121.54046,37.51266],[-121.54054,37.51304],[-121.54076,37.51334],[-121.54122,37.51372],[-121.54201,37.51473],[-121.54356,37.51593],[-121.54447,37.51711],[-121.54479,37.5178],[-121.54515,37.5181],[-121.54609,37.51848],[-121.54615,37.51928],[-121.54581,37.52039],[-121.54584,37.52061],[-121.54623,37.52107],[-121.54694,37.5215],[-121.54761,37.52175],[-121.54816,37.52252],[-121.54895,37.52293],[-121.54964,37.52316],[-121.55028,37.52416],[-121.55094,37.52475],[-121.55152,37.52504],[-121.5523,37.52524],[-121.55301,37.52567],[-121.55325,37.52589],[-121.55361,37.52652],[-121.55399,37.52683],[-121.55547,37.52714],[-121.55594,37.52765],[-121.55728,37.52867],[-121.55754,37.52896],[-121.55818,37.53015],[-121.55851,37.53032],[-121.559,37.53034],[-121.55919,37.53045],[-121.5596,37.53124],[-121.55985,37.53203],[-121.56038,37.53274],[-121.56108,37.53331],[-121.56153,37.53403],[-121.56218,37.53475],[-121.5631,37.53547],[-121.56367,37.53634],[-121.56452,37.537],[-121.56565,37.53858],[-121.56594,37.53956],[-121.56634,37.5403],[-121.56646,37.54132],[-121.56675,37.54175],[-121.56725,37.54295],[-121.56781,37.54476],[-121.5685,37.54531],[-121.5691,37.54558],[-121.56927,37.5458],[-121.56971,37.54694],[-121.56952,37.54759],[-121.57062,37.54812],[-121.57132,37.54826],[-121.57148,37.54841],[-121.57168,37.54933],[-121.5713,37.55],[-121.57127,37.55035],[-121.57254,37.55186],[-121.57302,37.55343],[-121.5733,37.55388],[-121.57385,37.55428],[-121.57577,37.55498],[-121.57603,37.55587],[-121.57648,37.55618],[-121.57734,37.55642],[-121.57832,37.55713],[-121.57954,37.5573],[-121.57994,37.55747],[-121.58022,37.55775],[-121.58034,37.55802],[-121.58042,37.55917],[-121.5813,37.55981],[-121.58149,37.56023],[-121.58151,37.56048],[-121.58134,37.5609],[-121.58149,37.56208],[-121.58174,37.56254],[-121.58222,37.56302],[-121.58194,37.56399],[-121.58212,37.56503],[-121.58172,37.56541],[-121.58164,37.5658],[-121.58189,37.56633],[-121.58116,37.5672],[-121.58123,37.56795],[-121.58149,37.56848],[-121.58129,37.56898],[-121.58164,37.56923],[-121.58311,37.56978],[-121.5834,37.56974],[-121.58393,37.56936],[-121.58423,37.56941],[-121.58467,37.57015],[-121.58467,37.57046],[-121.58447,37.57081],[-121.58464,37.57129],[-121.58573,37.57138],[-121.58634,37.57187],[-121.58704,37.57183],[-121.58736,37.57194],[-121.58747,37.57235],[-121.58788,37.5729],[-121.58788,37.57356],[-121.58761,37.57396],[-121.58761,37.57437],[-121.58742,37.57472],[-121.58747,37.57511],[-121.58728,37.57558],[-121.5876,37.5765],[-121.58722,37.57711],[-121.5876,37.57824],[-121.58774,37.57907],[-121.58801,37.57927],[-121.58848,37.57934],[-121.5888,37.57967],[-121.58938,37.57978],[-121.59024,37.58035],[-121.5911,37.58065],[-121.59135,37.58089],[-121.59153,37.58148],[-121.59197,37.5816],[-121.59265,37.58158],[-121.59307,37.5817],[-121.59445,37.58286],[-121.59534,37.583],[-121.59581,37.58332],[-121.59667,37.58363],[-121.59714,37.58429],[-121.5974,37.58451],[-121.59837,37.58459],[-121.59946,37.58495],[-121.60075,37.5859],[-121.60229,37.58647],[-121.60267,37.58718],[-121.60372,37.58732],[-121.60447,37.58783],[-121.60531,37.58796],[-121.60624,37.58787],[-121.60676,37.58806],[-121.60742,37.58797],[-121.6086,37.58854],[-121.60894,37.58861],[-121.60932,37.58857],[-121.61024,37.58807],[-121.61064,37.58797],[-121.61185,37.588],[-121.6126,37.58835],[-121.61283,37.58822],[-121.61368,37.5872],[-121.61428,37.58715],[-121.61482,37.58689],[-121.61543,37.5868],[-121.61612,37.58621],[-121.61667,37.58618],[-121.6189,37.58742],[-121.62022,37.58883],[-121.62092,37.58901],[-121.6212,37.58935],[-121.62138,37.58941],[-121.62157,37.58938],[-121.622,37.58908],[-121.6223,37.58911],[-121.624,37.58998],[-121.62446,37.59039],[-121.62557,37.59057],[-121.62614,37.59123],[-121.62755,37.59196],[-121.62859,37.59293],[-121.6298,37.59342],[-121.63023,37.59411],[-121.63048,37.59419],[-121.63106,37.59418],[-121.63135,37.59428],[-121.63161,37.59463],[-121.63185,37.596],[-121.63204,37.59627],[-121.63236,37.59647],[-121.63268,37.59653],[-121.63311,37.59646],[-121.63404,37.59593],[-121.63458,37.59583],[-121.63849,37.59669],[-121.63982,37.59665],[-121.64117,37.59745],[-121.64303,37.59817],[-121.64321,37.59841],[-121.64323,37.59893],[-121.64342,37.59914],[-121.64373,37.59921],[-121.6446,37.59917],[-121.64487,37.59925],[-121.64552,37.60008],[-121.6464,37.60063],[-121.64862,37.60118],[-121.64925,37.60098],[-121.64988,37.60042],[-121.65038,37.60041],[-121.65113,37.60124],[-121.6513,37.60194],[-121.65144,37.60214],[-121.65235,37.60264],[-121.6526,37.60312],[-121.65338,37.60314],[-121.65399,37.6037],[-121.65427,37.60368],[-121.65617,37.60295],[-121.65665,37.60299],[-121.65746,37.60338],[-121.65916,37.60306],[-121.66144,37.60379],[-121.66405,37.60476],[-121.66515,37.60494],[-121.66646,37.60549],[-121.66725,37.60534],[-121.66828,37.6056],[-121.6699,37.60525],[-121.67102,37.6053],[-121.67144,37.60559],[-121.67157,37.60586],[-121.67126,37.60662],[-121.67128,37.60695],[-121.67181,37.60727],[-121.67283,37.60735],[-121.67302,37.60743],[-121.67338,37.60781],[-121.6733,37.60851],[-121.67353,37.60884],[-121.6743,37.6089],[-121.6749,37.6091],[-121.67565,37.60887],[-121.67609,37.60885],[-121.67692,37.60939],[-121.67771,37.60955],[-121.67852,37.60944],[-121.67871,37.60954],[-121.67934,37.61035],[-121.68028,37.61084],[-121.68246,37.61132],[-121.68383,37.61185],[-121.68478,37.61213],[-121.68541,37.61215],[-121.68685,37.61189],[-121.68757,37.61201],[-121.69345,37.61559],[-121.69607,37.61668],[-121.69667,37.61711],[-121.69748,37.6179],[-121.69891,37.61894],[-121.70059,37.62041],[-121.70108,37.62089],[-121.70205,37.62212],[-121.70226,37.62219],[-121.70283,37.62212],[-121.70416,37.62558],[-121.70429,37.62693],[-121.70559,37.62896],[-121.70619,37.62969],[-121.70754,37.63085],[-121.70928,37.63324],[-121.71044,37.6341],[-121.71097,37.63469],[-121.71175,37.63577],[-121.71229,37.63689],[-121.71398,37.63889],[-121.71504,37.64066],[-121.71617,37.64202],[-121.7169,37.64268],[-121.71888,37.64546],[-121.71985,37.64753],[-121.721,37.64885],[-121.72158,37.65023],[-121.72373,37.65287],[-121.72484,37.65482],[-121.72533,37.65543],[-121.73164,37.65946],[-121.73228,37.66004],[-121.73263,37.66055],[-121.73286,37.66132],[-121.73291,37.66513]]]}}
