{"type":"Feature","properties":{"id":"modjeska-grade","name":"Modjeska Grade Road","difficulty":3,"character":"Technical"},"geometry":{"type":"MultiLineString","coordinates":[[[-117.64095,33.70765],[-117.64085,33.70752],[-117.6384,33.70605],[-117.63802,33.70574],[-117.63748,33.70504],[-117.63685,33.7048],[-117.6368,33.70433],[-117.63647,33.70375],[-117.63668,33.70309],[-117.63665,33.70276],[-117.63598,33.70195],[-117.63573,33.70134],[-117.63566,33.70091],[-117.63581,33.70044],[-117.63576,33.70022],[-117.63473,33.69961],[-117.63423,33.69894],[-117.63395,33.69818],[-117.63319,33.69762],[-117.63308,33.6973]]]}}
