{"type":"Feature","properties":{"id":"montezuma-grade","name":"Montezuma Valley Road \u00b7 S22","difficulty":3,"character":"Technical"},"geometry":{"type":"MultiLineString","coordinates":[[[-116.60477,33.21978],[-116.60333,33.22039],[-116.6013,33.22057],[-116.60035,33.22051],[-116.59756,33.22012],[-116.59621,33.2198],[-116.59533,33.21945],[-116.59319,33.21808],[-116.59174,33.21735],[-116.59032,33.21697],[-116.58927,33.21687],[-116.58588,33.21682],[-116.58469,33.2169],[-116.58314,33.21727],[-116.58085,33.21822],[-116.57991,33.21851],[-116.57828,33.21875],[-116.57666,33.21867],[-116.57469,33.21818],[-116.57357,33.21774],[-116.56601,33.21317],[-116.56471,33.21265],[-116.56351,33.21243],[-116.56234,33.21242],[-116.56135,33.21257],[-116.55851,33.21324],[-116.55666,33.21341],[-116.55582,33.21338],[-116.55305,33.21308],[-116.55137,33.21277],[-116.54547,33.21086],[-116.54366,33.21044],[-116.54229,33.21028],[-116.49182,33.21051],[-116.48613,33.21102],[-116.48434,33.21093],[-116.47961,33.20999],[-116.47906,33.21017],[-116.4787,33.21063],[-116.47867,33.21091],[-116.47887,33.21165],[-116.47865,33.21222],[-116.47782,33.21306],[-116.4771,33.21346],[-116.47562,33.21379],[-116.47352,33.2145],[-116.47223,33.21471],[-116.47131,33.21455],[-116.47042,33.214],[-116.47007,33.21388],[-116.4696,33.21388],[-116.46877,33.21429],[-116.46826,33.2144],[-116.46737,33.21434],[-116.4663,33.21411],[-116.46567,33.21423],[-116.46545,33.21436],[-116.46511,33.21478],[-116.46493,33.21531],[-116.465,33.21577],[-116.46557,33.21668],[-116.46572,33.21715],[-116.46558,33.21771],[-116.46528,33.21804],[-116.46305,33.21947],[-116.46198,33.21993],[-116.45821,33.22058],[-116.45724,33.22064],[-116.45575,33.22045],[-116.45444,33.21987],[-116.45382,33.21935],[-116.4529,33.21828],[-116.45233,33.21777],[-116.45135,33.21715],[-116.451,33.21681],[-116.45086,33.21625],[-116.45093,33.21597],[-116.45127,33.21553],[-116.4519,33.21524],[-116.45285,33.21522],[-116.45366,33.21499],[-116.45413,33.21464],[-116.45451,33.21391],[-116.45442,33.21331],[-116.45329,33.2108],[-116.45298,33.2104],[-116.45224,33.20993],[-116.45142,33.20972],[-116.45097,33.20973],[-116.44767,33.21019],[-116.44691,33.21044],[-116.44594,33.21122],[-116.44502,33.21146],[-116.44447,33.21141],[-116.44365,33.21109],[-116.44314,33.21103],[-116.44161,33.21137],[-116.43971,33.21149],[-116.43503,33.21061],[-116.4335,33.21063],[-116.43235,33.21079],[-116.43185,33.21063],[-116.43136,33.2103],[-116.43095,33.21029],[-116.43038,33.21057],[-116.43002,33.21099],[-116.43001,33.21147],[-116.43029,33.21205],[-116.43012,33.21245],[-116.42828,33.2131],[-116.42723,33.21383],[-116.42675,33.21392],[-116.42627,33.21381],[-116.42423,33.21286],[-116.42391,33.21293],[-116.42371,33.21316],[-116.42379,33.21359],[-116.4243,33.2141],[-116.42488,33.2145],[-116.42509,33.21482],[-116.42506,33.21537],[-116.42449,33.21742],[-116.42425,33.21792],[-116.42321,33.21869],[-116.42272,33.21943],[-116.42232,33.21961],[-116.4217,33.21969],[-116.42134,33.2199],[-116.42092,33.22087],[-116.42043,33.2214],[-116.42036,33.2216],[-116.42038,33.22178],[-116.4206,33.2221],[-116.42247,33.22337],[-116.42301,33.22361],[-116.42399,33.22374],[-116.42435,33.22388],[-116.42453,33.22418],[-116.42438,33.22453],[-116.42397,33.2249],[-116.4236,33.22508],[-116.42177,33.22547],[-116.42108,33.2253],[-116.41949,33.22509],[-116.41914,33.2251],[-116.41831,33.22531],[-116.41781,33.2253],[-116.41729,33.22511],[-116.41662,33.22459],[-116.41604,33.22448],[-116.41574,33.2246],[-116.41501,33.22544],[-116.41464,33.22568],[-116.4143,33.22573],[-116.41324,33.22562],[-116.41259,33.22587],[-116.41216,33.22642],[-116.41202,33.22803],[-116.41079,33.22954],[-116.41085,33.22996],[-116.41157,33.23052],[-116.41176,33.23093],[-116.41163,33.23124],[-116.41077,33.23178],[-116.41038,33.23221],[-116.41048,33.23266],[-116.41117,33.23318],[-116.41132,33.2335],[-116.41111,33.23381],[-116.41051,33.23398],[-116.41024,33.23416],[-116.41015,33.23457],[-116.41041,33.23522],[-116.41031,33.23551],[-116.41002,33.23572],[-116.4098,33.23576],[-116.40893,33.23559],[-116.40839,33.23587],[-116.40821,33.23619],[-116.40833,33.23704],[-116.4081,33.23747],[-116.40762,33.23748],[-116.40671,33.23701],[-116.40636,33.23716],[-116.4062,33.23745],[-116.4065,33.23818],[-116.40636,33.23845],[-116.406,33.23855],[-116.40404,33.23857],[-116.40354,33.23874],[-116.40325,33.239],[-116.403,33.23957],[-116.40317,33.24069],[-116.40356,33.24109],[-116.40383,33.24121],[-116.40496,33.24148],[-116.40522,33.24173],[-116.4053,33.24215],[-116.40517,33.2424],[-116.4049,33.24257],[-116.40199,33.24354],[-116.40163,33.24381],[-116.40147,33.24434],[-116.40166,33.24474],[-116.40355,33.24666],[-116.40582,33.24867],[-116.40609,33.24915],[-116.40613,33.24967],[-116.40579,33.25035],[-116.40531,33.25071],[-116.40092,33.25211],[-116.4004,33.25238],[-116.39989,33.25284],[-116.3995,33.25351],[-116.39941,33.25399],[-116.39943,33.25647],[-116.37622,33.25657],[-116.37565,33.25681]]]}}
