{"type":"Feature","properties":{"id":"moonshiner-28","name":"Moonshiner 28 \u00b7 NC 28","difficulty":3,"character":"Technical"},"geometry":{"type":"MultiLineString","coordinates":[[[-83.9193,35.4647],[-83.91862,35.46422],[-83.91825,35.46421],[-83.91807,35.46438],[-83.91776,35.46518],[-83.91757,35.4654],[-83.91556,35.46673],[-83.91477,35.46738],[-83.91429,35.46753],[-83.91339,35.46736],[-83.91247,35.46758],[-83.91155,35.46746],[-83.91134,35.46765],[-83.91128,35.46823],[-83.91108,35.4684],[-83.91081,35.46842],[-83.91013,35.46796],[-83.90944,35.46772],[-83.90792,35.46785],[-83.90717,35.46781],[-83.90674,35.46741],[-83.90496,35.46669],[-83.90432,35.46621],[-83.90362,35.46601],[-83.90318,35.4657],[-83.90276,35.46571],[-83.90238,35.46582],[-83.90148,35.46632],[-83.90113,35.46639],[-83.90095,35.46627],[-83.90077,35.46578],[-83.90002,35.4656],[-83.89987,35.465],[-83.89904,35.46424],[-83.89685,35.46346],[-83.89584,35.46321],[-83.89528,35.46273],[-83.89487,35.46266],[-83.89322,35.46302],[-83.8923,35.46336],[-83.89104,35.46352],[-83.89017,35.46375],[-83.88945,35.4637],[-83.88903,35.46376],[-83.88844,35.46409],[-83.88793,35.46423],[-83.88741,35.4646],[-83.88715,35.4646],[-83.88653,35.46419],[-83.88618,35.46414],[-83.8844,35.46416],[-83.88246,35.46453],[-83.88202,35.4648],[-83.88175,35.46554],[-83.88113,35.46618],[-83.88079,35.46634],[-83.88018,35.46633],[-83.87953,35.46699],[-83.87918,35.46708],[-83.87907,35.46695],[-83.87914,35.46656],[-83.87958,35.46584],[-83.8802,35.4652],[-83.88001,35.46471],[-83.88012,35.46398],[-83.87993,35.46386],[-83.8791,35.46376],[-83.87787,35.46313],[-83.87623,35.46267],[-83.8753,35.4617],[-83.87344,35.46117],[-83.8721,35.46004],[-83.87058,35.45935],[-83.86992,35.45876],[-83.86929,35.45835],[-83.86865,35.4572],[-83.86775,35.45647],[-83.86744,35.45585],[-83.86673,35.45497],[-83.86654,35.45335],[-83.86658,35.45182],[-83.86637,35.45089],[-83.86578,35.44975],[-83.86526,35.44945],[-83.86433,35.44937],[-83.86361,35.44948],[-83.86182,35.45],[-83.86027,35.45057],[-83.85923,35.45079],[-83.85759,35.45098],[-83.85586,35.45153],[-83.85491,35.45218],[-83.85371,35.45254],[-83.85147,35.45293],[-83.85021,35.45291],[-83.8484,35.45304],[-83.84704,35.45354],[-83.84589,35.45381],[-83.84509,35.45414],[-83.84446,35.45423],[-83.8436,35.45416],[-83.84242,35.45374],[-83.84034,35.45334],[-83.84031,35.45306],[-83.84075,35.45222],[-83.8407,35.45194],[-83.83977,35.45057],[-83.83857,35.44958],[-83.83812,35.44941],[-83.83747,35.44944],[-83.83565,35.44979],[-83.83467,35.45029],[-83.83319,35.45162],[-83.83218,35.45197],[-83.83136,35.45209],[-83.82699,35.45155],[-83.82535,35.45103],[-83.82485,35.4511],[-83.82381,35.45149],[-83.82327,35.45155],[-83.8217,35.45148],[-83.81907,35.45111],[-83.81806,35.45109],[-83.81779,35.45099],[-83.81585,35.44916],[-83.81569,35.44884],[-83.81577,35.44847],[-83.81828,35.44626],[-83.81882,35.44621],[-83.81965,35.44665],[-83.81996,35.4466],[-83.82015,35.44647],[-83.82035,35.44582],[-83.82009,35.44449],[-83.8203,35.44398],[-83.82161,35.44295],[-83.82254,35.44197],[-83.82339,35.44147],[-83.82529,35.43995],[-83.82545,35.43973],[-83.82545,35.43939],[-83.82499,35.43874],[-83.82456,35.43734],[-83.8241,35.43687],[-83.8235,35.4366],[-83.82116,35.43624],[-83.81983,35.43582],[-83.81675,35.43513],[-83.81596,35.43511],[-83.81491,35.43535],[-83.81389,35.43523],[-83.81351,35.43538],[-83.81325,35.43571],[-83.81321,35.43597],[-83.81338,35.43656],[-83.81328,35.43685],[-83.81242,35.43744],[-83.81243,35.43767],[-83.8127,35.43802],[-83.81269,35.43822],[-83.8122,35.43855],[-83.81217,35.43907],[-83.81176,35.43935],[-83.81141,35.43981],[-83.81034,35.43962],[-83.80983,35.44013],[-83.80957,35.44022],[-83.80937,35.44017],[-83.80894,35.43977],[-83.80872,35.43975],[-83.80856,35.43984],[-83.80834,35.44035],[-83.80736,35.44056],[-83.80635,35.44125],[-83.80574,35.44141],[-83.80529,35.44136],[-83.8045,35.44098],[-83.80405,35.44091],[-83.80307,35.44108],[-83.80144,35.44118],[-83.80066,35.44137],[-83.80051,35.44118],[-83.80032,35.44112],[-83.79778,35.44096],[-83.79675,35.44095],[-83.79469,35.44117],[-83.79401,35.44114],[-83.79329,35.44086],[-83.79234,35.44016],[-83.79177,35.43998],[-83.79053,35.43988],[-83.78882,35.43993],[-83.78701,35.43961],[-83.78555,35.43968],[-83.78506,35.43956],[-83.78476,35.43932],[-83.7846,35.43899],[-83.7846,35.43671],[-83.78442,35.43638],[-83.78389,35.4361],[-83.78338,35.43612],[-83.78252,35.43659],[-83.78202,35.43672],[-83.7806,35.43641],[-83.77958,35.43632],[-83.77889,35.43639],[-83.77758,35.43681],[-83.77713,35.43685],[-83.77586,35.43678],[-83.77478,35.43689],[-83.77423,35.43686],[-83.77279,35.43633],[-83.77242,35.43634],[-83.77137,35.4366],[-83.77102,35.43658],[-83.77067,35.43644],[-83.76992,35.43574],[-83.76976,35.43541],[-83.76977,35.43505],[-83.77006,35.43462],[-83.77192,35.43283],[-83.77213,35.43235],[-83.772,35.43193],[-83.77133,35.43118],[-83.77096,35.43033],[-83.7706,35.43002],[-83.77012,35.42991],[-83.76968,35.42999],[-83.76837,35.43105],[-83.76537,35.43207],[-83.76464,35.43215],[-83.76349,35.43205],[-83.76304,35.43185],[-83.7628,35.43162],[-83.76267,35.43127],[-83.76277,35.43089],[-83.76387,35.43],[-83.76403,35.42972],[-83.76405,35.4294],[-83.76372,35.42893],[-83.76275,35.42856],[-83.76231,35.42818],[-83.76232,35.42744],[-83.76288,35.42619],[-83.76307,35.4255],[-83.76307,35.42452],[-83.76295,35.42409],[-83.76269,35.4237],[-83.76207,35.42316],[-83.76147,35.42288],[-83.75984,35.42299],[-83.7586,35.42251],[-83.75817,35.42246],[-83.75771,35.42259],[-83.75712,35.423],[-83.75661,35.42318],[-83.7555,35.42312],[-83.75417,35.42342],[-83.75281,35.42292],[-83.75203,35.42289],[-83.75168,35.42302],[-83.75137,35.42327],[-83.7511,35.42397],[-83.75083,35.42434],[-83.75002,35.42477],[-83.74932,35.42483],[-83.74803,35.42433],[-83.74747,35.42432],[-83.7463,35.42484],[-83.74511,35.42509],[-83.74338,35.42623],[-83.74267,35.42645],[-83.7421,35.42645],[-83.74165,35.42634],[-83.74119,35.42609],[-83.74047,35.42539],[-83.74007,35.42512],[-83.73844,35.42478],[-83.73714,35.42392],[-83.73647,35.42377],[-83.73582,35.42388],[-83.73472,35.42453],[-83.73335,35.42477],[-83.73304,35.42497],[-83.73245,35.42562],[-83.73203,35.42587],[-83.73167,35.42591],[-83.73127,35.42582],[-83.73089,35.42558],[-83.72927,35.42406],[-83.72888,35.42354],[-83.72888,35.42294],[-83.72943,35.42201],[-83.72955,35.42152],[-83.72941,35.42092],[-83.72915,35.42056],[-83.7286,35.42014],[-83.72823,35.42001],[-83.72721,35.41992],[-83.72604,35.41969],[-83.72508,35.41983],[-83.72457,35.41974],[-83.72417,35.41946],[-83.72349,35.41845],[-83.7234,35.41792],[-83.72355,35.41763],[-83.72395,35.41735],[-83.72491,35.41691],[-83.72515,35.41664],[-83.72522,35.41638],[-83.72415,35.41259],[-83.72374,35.4118],[-83.72323,35.41143],[-83.72275,35.41125],[-83.721,35.41125],[-83.72058,35.41117],[-83.72001,35.4109],[-83.71955,35.41025],[-83.71931,35.40886],[-83.71789,35.40712],[-83.71709,35.40539],[-83.71677,35.40489],[-83.71634,35.40453],[-83.71577,35.40426],[-83.71523,35.40414],[-83.71352,35.40401],[-83.71314,35.40376],[-83.71295,35.40347],[-83.71291,35.40306],[-83.71312,35.40268],[-83.7154,35.40112],[-83.71582,35.40049],[-83.71586,35.40015],[-83.71556,35.39792],[-83.71578,35.39735],[-83.71691,35.39575],[-83.71717,35.39516],[-83.7172,35.3947],[-83.71671,35.39262],[-83.7167,35.39205],[-83.71692,35.39079],[-83.71752,35.38983],[-83.71755,35.38936],[-83.71693,35.38745],[-83.71658,35.38713],[-83.71546,35.38659],[-83.71509,35.38631],[-83.71492,35.38598],[-83.71471,35.38487],[-83.7145,35.38443],[-83.71325,35.3832],[-83.71197,35.381],[-83.71047,35.37968],[-83.71034,35.37939],[-83.71012,35.37794],[-83.71012,35.3757],[-83.70969,35.37453],[-83.70931,35.37405],[-83.70868,35.37353],[-83.70739,35.37301],[-83.70615,35.37288],[-83.70121,35.37322],[-83.70011,35.37313],[-83.69935,35.37288],[-83.69871,35.37255],[-83.69671,35.37105],[-83.69564,35.37073],[-83.69459,35.37069],[-83.6805,35.37134],[-83.67981,35.37145],[-83.6792,35.3717],[-83.67556,35.3738],[-83.67435,35.37425],[-83.67308,35.37427],[-83.67126,35.37377],[-83.67078,35.37371],[-83.67019,35.3737],[-83.66928,35.37385],[-83.6684,35.37418],[-83.66741,35.37491],[-83.66594,35.37692],[-83.66531,35.37752],[-83.66005,35.3811],[-83.65542,35.38465],[-83.65197,35.38818],[-83.64627,35.39248],[-83.64535,35.39305],[-83.64471,35.3934],[-83.64179,35.39464],[-83.64066,35.3953],[-83.63952,35.39612],[-83.63776,35.39689],[-83.63612,35.39717],[-83.63021,35.39729],[-83.62906,35.39757],[-83.62754,35.39818],[-83.62675,35.39826],[-83.62582,35.39816],[-83.62512,35.39794],[-83.62444,35.39756],[-83.62367,35.3968],[-83.62258,35.39624],[-83.61693,35.39493],[-83.61483,35.39486],[-83.61139,35.39535],[-83.61041,35.39537],[-83.60856,35.39515],[-83.60775,35.39493],[-83.60584,35.39419],[-83.60403,35.39303],[-83.60343,35.39276],[-83.60232,35.39248],[-83.60138,35.39247],[-83.60078,35.39259],[-83.59983,35.39298],[-83.59893,35.39318],[-83.59772,35.39313],[-83.597,35.39295],[-83.59585,35.39296],[-83.59213,35.39408],[-83.59096,35.39432],[-83.58997,35.39428],[-83.58897,35.39396],[-83.58772,35.39312],[-83.58179,35.38831],[-83.58117,35.38777],[-83.58071,35.38718],[-83.58043,35.38639],[-83.58015,35.38373],[-83.57993,35.38294],[-83.57934,35.38205],[-83.57867,35.38156],[-83.57748,35.3809],[-83.57686,35.38015],[-83.57664,35.37964],[-83.57651,35.37895],[-83.57615,35.37551],[-83.5757,35.37427],[-83.57485,35.3733],[-83.57401,35.37278],[-83.57341,35.37253],[-83.57207,35.37229],[-83.56223,35.37275],[-83.5614,35.37265],[-83.56069,35.37246],[-83.55989,35.37211],[-83.55891,35.37129],[-83.55551,35.36632],[-83.55472,35.36574],[-83.55311,35.3651],[-83.55263,35.36476],[-83.55236,35.36441],[-83.5506,35.36461],[-83.5498,35.36485],[-83.54918,35.36528],[-83.54825,35.36632],[-83.54755,35.36692],[-83.54265,35.36921],[-83.54215,35.36952],[-83.54135,35.37021],[-83.54103,35.37061],[-83.54012,35.37232],[-83.53964,35.373],[-83.53863,35.37374],[-83.53734,35.37416],[-83.53611,35.37419],[-83.53344,35.37365],[-83.53204,35.37372],[-83.53018,35.37423],[-83.52738,35.37569],[-83.52656,35.37592],[-83.52574,35.37598],[-83.52459,35.37578],[-83.52204,35.37459],[-83.52018,35.37427],[-83.51917,35.37424],[-83.51799,35.37433],[-83.51414,35.37487],[-83.51311,35.37484],[-83.5113,35.37429],[-83.50709,35.37211],[-83.50614,35.37196],[-83.50548,35.372],[-83.50495,35.3721],[-83.50432,35.37235],[-83.50413,35.37209],[-83.504,35.37166],[-83.50407,35.36953],[-83.50369,35.36466],[-83.50333,35.36437],[-83.50257,35.36446],[-83.50188,35.36434],[-83.50159,35.36453],[-83.5016,35.36501],[-83.50143,35.36523],[-83.50129,35.36527],[-83.50071,35.36515],[-83.50012,35.36536],[-83.49924,35.36522],[-83.49857,35.365],[-83.49842,35.3646],[-83.49875,35.36402],[-83.49864,35.36364],[-83.49798,35.36317],[-83.49763,35.36241],[-83.49641,35.36109],[-83.49609,35.36059],[-83.496,35.35993],[-83.49626,35.35885],[-83.49591,35.35785],[-83.49596,35.35767],[-83.49615,35.35754],[-83.49681,35.35751],[-83.49713,35.35728],[-83.49709,35.35697],[-83.49659,35.35619],[-83.49662,35.35585],[-83.49693,35.35566],[-83.49766,35.35567],[-83.49791,35.3556],[-83.49801,35.35543],[-83.49794,35.35499],[-83.49803,35.3548],[-83.49826,35.35469],[-83.49884,35.35462],[-83.49908,35.35441],[-83.49868,35.35283],[-83.49879,35.35214],[-83.49853,35.35169],[-83.49882,35.35092],[-83.49872,35.34977],[-83.4988,35.34934],[-83.49831,35.34885],[-83.49826,35.34799],[-83.49847,35.34745],[-83.49848,35.34696],[-83.49918,35.34654],[-83.4997,35.34605],[-83.49973,35.34552],[-83.49999,35.34513],[-83.49975,35.34451],[-83.49976,35.34429],[-83.4999,35.34416],[-83.50061,35.34389],[-83.50098,35.3431],[-83.50086,35.34287],[-83.50022,35.34255],[-83.50018,35.34224],[-83.50042,35.34174],[-83.50024,35.34154],[-83.49959,35.3412],[-83.49933,35.34058],[-83.49933,35.34034],[-83.49945,35.34014],[-83.5001,35.33965],[-83.50035,35.3396],[-83.501,35.3397],[-83.50135,35.3396],[-83.50155,35.33943],[-83.50185,35.33854],[-83.50208,35.3382],[-83.50231,35.33806],[-83.50318,35.33786],[-83.50342,35.33767],[-83.50352,35.33739],[-83.50339,35.33658],[-83.50436,35.33577],[-83.50444,35.33518],[-83.50479,35.33474],[-83.50485,35.3345],[-83.50464,35.33421],[-83.50404,35.33402],[-83.50379,35.33374],[-83.50347,35.33312],[-83.50342,35.33242],[-83.50369,35.33222],[-83.50455,35.33214],[-83.50526,35.3315],[-83.50542,35.33087],[-83.50568,35.33049],[-83.5057,35.33029],[-83.50504,35.32968],[-83.50503,35.32933],[-83.50539,35.32917],[-83.50629,35.32917],[-83.50649,35.32902],[-83.50666,35.32859],[-83.50744,35.32843],[-83.50771,35.32791],[-83.50814,35.32755],[-83.50817,35.32695],[-83.5083,35.32682],[-83.5089,35.32658],[-83.50942,35.32583],[-83.50926,35.32514],[-83.50904,35.32486],[-83.50858,35.32474],[-83.50775,35.32486],[-83.50746,35.32462],[-83.50751,35.32372],[-83.50858,35.32327],[-83.50878,35.32302],[-83.5087,35.32283],[-83.50829,35.32259],[-83.50808,35.32232],[-83.5082,35.32155],[-83.5079,35.32108],[-83.50783,35.32047],[-83.50743,35.31947],[-83.50648,35.31877],[-83.50537,35.31842],[-83.50324,35.31713],[-83.50265,35.31642],[-83.50248,35.31592],[-83.50247,35.31511],[-83.50261,35.3148],[-83.50328,35.3144],[-83.50355,35.31391],[-83.50383,35.31365],[-83.50442,35.31345],[-83.50464,35.31325],[-83.50457,35.31301],[-83.50422,35.31275],[-83.50423,35.31254],[-83.5045,35.31238],[-83.50479,35.31235],[-83.50557,35.31255],[-83.50581,35.31252],[-83.50631,35.31189],[-83.50629,35.31159],[-83.50552,35.31137],[-83.50534,35.31112],[-83.50551,35.31089],[-83.50607,35.31073],[-83.50611,35.31047],[-83.50478,35.30932],[-83.50451,35.30853],[-83.504,35.30782],[-83.50353,35.30676],[-83.50336,35.30662],[-83.50296,35.30662],[-83.50248,35.30701],[-83.50211,35.30711],[-83.50186,35.30705],[-83.50146,35.30662],[-83.50126,35.30655],[-83.50104,35.30662],[-83.5005,35.30705],[-83.50001,35.30709],[-83.49901,35.30672],[-83.49879,35.30654],[-83.49849,35.30604],[-83.49789,35.30584],[-83.49726,35.30536],[-83.49634,35.30518],[-83.49582,35.30543],[-83.49554,35.30544],[-83.49534,35.3053],[-83.49526,35.30472],[-83.49513,35.30459],[-83.49485,35.30455],[-83.49437,35.30484],[-83.49404,35.30481],[-83.49392,35.3047],[-83.49376,35.30406],[-83.49345,35.30381],[-83.49287,35.30349],[-83.49222,35.30351],[-83.49196,35.30342],[-83.49185,35.30315],[-83.4919,35.30181],[-83.49182,35.30169],[-83.49151,35.30159],[-83.49092,35.30171],[-83.4907,35.30165],[-83.49054,35.30141],[-83.49043,35.30081],[-83.4905,35.30049],[-83.49114,35.29938],[-83.49196,35.29865],[-83.49204,35.29844],[-83.49195,35.2981],[-83.49048,35.29638],[-83.49006,35.29618],[-83.48902,35.29589],[-83.48869,35.29567],[-83.48845,35.29512],[-83.4883,35.29297],[-83.48744,35.29245],[-83.48502,35.29027],[-83.48467,35.29007],[-83.48401,35.28987],[-83.48245,35.28986],[-83.4782,35.28866],[-83.47772,35.28843],[-83.47664,35.28761],[-83.47586,35.28715],[-83.4737,35.2869],[-83.47266,35.28654],[-83.47189,35.28614],[-83.47113,35.2853],[-83.47071,35.28502],[-83.46932,35.2843],[-83.46773,35.28385],[-83.46678,35.28381],[-83.46574,35.28406],[-83.46525,35.28428],[-83.46403,35.2851],[-83.46364,35.28525],[-83.46236,35.28543],[-83.46127,35.28524],[-83.4608,35.28504],[-83.45995,35.28446],[-83.45871,35.28415],[-83.45838,35.28399],[-83.45813,35.28367],[-83.45773,35.28268],[-83.45745,35.28245],[-83.45676,35.28214],[-83.45604,35.2819],[-83.45548,35.28184],[-83.45502,35.28187],[-83.45401,35.28215],[-83.45381,35.28215],[-83.45351,35.28199],[-83.45331,35.28151],[-83.4528,35.27918],[-83.45252,35.27889],[-83.45198,35.27887],[-83.45072,35.27942],[-83.45005,35.27958],[-83.4487,35.27918],[-83.44337,35.27884],[-83.44296,35.27851],[-83.44194,35.27623],[-83.4416,35.27578],[-83.44041,35.27474],[-83.43988,35.27325],[-83.43965,35.27296],[-83.43936,35.27277],[-83.43878,35.27266],[-83.43779,35.27283],[-83.43658,35.27277],[-83.43274,35.27187],[-83.43051,35.27221],[-83.43009,35.27218],[-83.42948,35.27196],[-83.42829,35.27105],[-83.42808,35.2708],[-83.42786,35.26805],[-83.42773,35.26757],[-83.42716,35.26695],[-83.42652,35.26666],[-83.426,35.26665],[-83.42435,35.26701],[-83.42385,35.26694],[-83.42272,35.26652],[-83.42209,35.2665],[-83.42164,35.26664],[-83.4205,35.2673],[-83.41777,35.26795],[-83.41738,35.26802],[-83.41692,35.26799],[-83.41627,35.2675],[-83.41546,35.26648],[-83.41539,35.26593],[-83.41567,35.2641],[-83.4156,35.2635],[-83.41493,35.26256],[-83.41427,35.26185],[-83.41374,35.26165],[-83.41276,35.26163],[-83.40965,35.2621],[-83.40941,35.26207],[-83.40897,35.26179],[-83.40883,35.2615],[-83.40873,35.26029],[-83.40845,35.25981],[-83.40802,35.25938],[-83.40763,35.25858],[-83.40753,35.25633],[-83.40722,35.25597],[-83.40651,35.25554],[-83.40603,35.25511],[-83.40488,35.25359],[-83.4049,35.25306],[-83.40532,35.25213],[-83.40528,35.25177],[-83.40506,35.2513],[-83.40463,35.25103],[-83.40242,35.25016],[-83.40184,35.2495],[-83.40122,35.24818],[-83.40091,35.24795],[-83.40045,35.24791],[-83.39905,35.24842],[-83.39751,35.24842],[-83.39672,35.24851],[-83.39637,35.24842],[-83.39593,35.24805],[-83.39502,35.2466],[-83.39484,35.24613],[-83.39498,35.24277],[-83.39445,35.24071],[-83.39443,35.23972],[-83.39458,35.23881],[-83.39556,35.23636],[-83.39666,35.23104],[-83.39762,35.22833],[-83.39815,35.22332],[-83.39802,35.2225],[-83.39702,35.22006],[-83.39702,35.2194],[-83.39735,35.2186],[-83.39917,35.21687],[-83.39966,35.21587],[-83.40021,35.21004],[-83.40016,35.2078],[-83.40002,35.20729],[-83.39963,35.20673],[-83.39929,35.20645],[-83.39782,35.20585],[-83.39518,35.20434],[-83.39279,35.20279],[-83.39231,35.20212],[-83.39205,35.20131],[-83.3918,35.20085],[-83.39046,35.19968],[-83.38857,35.1983],[-83.38821,35.19793],[-83.38686,35.19511],[-83.38639,35.19447],[-83.38342,35.19232],[-83.3814,35.18943],[-83.38094,35.18919],[-83.37944,35.18878],[-83.37679,35.18715],[-83.37646,35.18662],[-83.37626,35.18534],[-83.37592,35.18484]]]}}
