{"type":"Feature","properties":{"id":"mosquito-ridge","name":"Mosquito Ridge Road","difficulty":3,"character":"Technical"},"geometry":{"type":"MultiLineString","coordinates":[[[-120.82603,39.0193],[-120.82572,39.01882],[-120.82515,39.01845],[-120.82306,39.01783],[-120.82202,39.01766],[-120.82034,39.01772],[-120.81784,39.01811],[-120.81678,39.0185],[-120.81634,39.0185],[-120.81594,39.01835],[-120.81557,39.018],[-120.81538,39.01765],[-120.81525,39.01698],[-120.81493,39.01663],[-120.81444,39.01648],[-120.81337,39.01659],[-120.81243,39.01618],[-120.81197,39.01624],[-120.80968,39.0169],[-120.80899,39.01757],[-120.80849,39.01762],[-120.80709,39.01705],[-120.80684,39.01684],[-120.80676,39.01664],[-120.80683,39.01633],[-120.80774,39.01502],[-120.80783,39.01455],[-120.80759,39.01413],[-120.80647,39.01357],[-120.80536,39.01326],[-120.80418,39.01269],[-120.80274,39.01279],[-120.80229,39.01305],[-120.80173,39.01381],[-120.80166,39.01432],[-120.80182,39.01523],[-120.80174,39.01555],[-120.80144,39.01578],[-120.80045,39.01598],[-120.80021,39.01619],[-120.80025,39.01735],[-120.80042,39.01783],[-120.8004,39.01811],[-120.80023,39.01828],[-120.7994,39.01857],[-120.79896,39.01935],[-120.79872,39.01959],[-120.79767,39.01968],[-120.797,39.02035],[-120.79665,39.02045],[-120.79341,39.01932],[-120.79297,39.01939],[-120.79231,39.01982],[-120.79128,39.01979],[-120.79093,39.01991],[-120.79063,39.0207],[-120.78992,39.02133],[-120.78954,39.02218],[-120.7897,39.02253],[-120.78999,39.02278],[-120.79119,39.02328],[-120.79137,39.02355],[-120.79132,39.02401],[-120.79087,39.02434],[-120.78923,39.02478],[-120.78896,39.02493],[-120.78787,39.02579],[-120.78656,39.02746],[-120.78618,39.02771],[-120.78586,39.02771],[-120.78557,39.02749],[-120.78513,39.02635],[-120.78524,39.02568],[-120.78518,39.02463],[-120.78526,39.02441],[-120.78565,39.02403],[-120.78567,39.02382],[-120.78549,39.02351],[-120.7847,39.02285],[-120.78389,39.02244],[-120.78306,39.02221],[-120.78276,39.0219],[-120.78275,39.02103],[-120.78312,39.02025],[-120.78317,39.01937],[-120.78297,39.01908],[-120.78251,39.01877],[-120.78207,39.01816],[-120.78195,39.01725],[-120.78206,39.01659],[-120.78186,39.0162],[-120.78158,39.01601],[-120.78124,39.01598],[-120.78037,39.0162],[-120.78005,39.01695],[-120.77974,39.01733],[-120.77934,39.01772],[-120.77838,39.01834],[-120.77824,39.0186],[-120.77816,39.01923],[-120.77772,39.01969],[-120.778,39.02036],[-120.77783,39.02117],[-120.77762,39.02145],[-120.77729,39.02165],[-120.7765,39.02175],[-120.7759,39.02153],[-120.77549,39.02094],[-120.77561,39.02006],[-120.77511,39.01942],[-120.77478,39.01864],[-120.77474,39.01843],[-120.77491,39.01774],[-120.77483,39.01718],[-120.77453,39.01629],[-120.77431,39.01604],[-120.77384,39.016],[-120.7717,39.01685],[-120.77129,39.01682],[-120.77044,39.01651],[-120.76942,39.01677],[-120.76851,39.01651],[-120.76819,39.01652],[-120.7671,39.01709],[-120.76669,39.01769],[-120.76606,39.01794],[-120.76557,39.0184],[-120.76511,39.01845],[-120.76487,39.01835],[-120.76462,39.01807],[-120.76421,39.01602],[-120.76379,39.01578],[-120.76292,39.01566],[-120.76256,39.01547],[-120.76254,39.01518],[-120.76285,39.01462],[-120.76267,39.01426],[-120.76044,39.01388],[-120.75998,39.01373],[-120.7591,39.01322],[-120.75822,39.0129],[-120.75701,39.01304],[-120.75589,39.01288],[-120.75502,39.01261],[-120.75464,39.01281],[-120.7544,39.01321],[-120.75344,39.01344],[-120.75227,39.01461],[-120.75185,39.01458],[-120.7514,39.01397],[-120.75112,39.01382],[-120.75039,39.01367],[-120.74976,39.01367],[-120.74926,39.01374],[-120.7484,39.0142],[-120.74636,39.01399],[-120.7448,39.01498],[-120.74411,39.01503],[-120.74294,39.01542],[-120.74244,39.01568],[-120.74146,39.01596],[-120.74048,39.01575],[-120.73972,39.01539],[-120.73936,39.01543],[-120.73838,39.01636],[-120.73832,39.01682],[-120.73843,39.01749],[-120.73807,39.01811],[-120.73827,39.01882],[-120.73819,39.01928],[-120.73705,39.02072],[-120.73688,39.02143],[-120.73671,39.02161],[-120.73647,39.02164],[-120.73626,39.02153],[-120.73523,39.02027],[-120.73394,39.01997],[-120.73333,39.01968],[-120.73285,39.01968],[-120.73225,39.01992],[-120.73165,39.02],[-120.73094,39.02022],[-120.73043,39.0201],[-120.73001,39.01982],[-120.72974,39.01982],[-120.72927,39.0201],[-120.72831,39.02044],[-120.72693,39.02041],[-120.72679,39.02051],[-120.72637,39.0213],[-120.72609,39.02144],[-120.72554,39.02149],[-120.72486,39.02195],[-120.72419,39.02226],[-120.72363,39.02234],[-120.7232,39.02227],[-120.72227,39.02234],[-120.72205,39.02251],[-120.72199,39.02269],[-120.72207,39.02348],[-120.72193,39.02397],[-120.72154,39.02422],[-120.72105,39.02427],[-120.72062,39.02412],[-120.72027,39.02374],[-120.72031,39.02309],[-120.7201,39.02199],[-120.7204,39.02126],[-120.7213,39.02081],[-120.72285,39.02066],[-120.7234,39.0204],[-120.72429,39.01902],[-120.72425,39.01874],[-120.72387,39.01809],[-120.72387,39.0179],[-120.72403,39.01772],[-120.72536,39.01728],[-120.72692,39.0171],[-120.72811,39.01643],[-120.72945,39.01596],[-120.72969,39.01568],[-120.72993,39.01503],[-120.73048,39.01438],[-120.73145,39.01377],[-120.73223,39.01369],[-120.7326,39.01355],[-120.73414,39.01208],[-120.73501,39.01141],[-120.7353,39.01096],[-120.73531,39.01077],[-120.73516,39.01058],[-120.73483,39.0105],[-120.73454,39.01069],[-120.7344,39.01133],[-120.73417,39.01166],[-120.73232,39.01305],[-120.73108,39.01317],[-120.73018,39.01346],[-120.72913,39.01404],[-120.72806,39.01497],[-120.72767,39.01517],[-120.72663,39.01538],[-120.72285,39.01549],[-120.72158,39.01567],[-120.72125,39.0158],[-120.72055,39.01646],[-120.7202,39.01693],[-120.72015,39.01733],[-120.72048,39.01856],[-120.72023,39.01903],[-120.71965,39.01938],[-120.71914,39.01952],[-120.71758,39.01953],[-120.71655,39.01967],[-120.71485,39.01947],[-120.71447,39.01953],[-120.71393,39.01985],[-120.71332,39.02052],[-120.71244,39.02087],[-120.71122,39.02178],[-120.70982,39.02242],[-120.70947,39.02286],[-120.70978,39.02379],[-120.70977,39.02523],[-120.70936,39.02589],[-120.70945,39.02657],[-120.70931,39.02737],[-120.70862,39.02857],[-120.70849,39.02921],[-120.70798,39.0298],[-120.70754,39.02986],[-120.70629,39.02958],[-120.70552,39.02982],[-120.70473,39.02974],[-120.70367,39.02992],[-120.70295,39.03049],[-120.70279,39.0312],[-120.70249,39.0314],[-120.70206,39.03149],[-120.70113,39.03119],[-120.70085,39.03117],[-120.69936,39.03157],[-120.69869,39.03091],[-120.69831,39.03068],[-120.69791,39.03057],[-120.69752,39.03062],[-120.69624,39.03158],[-120.69507,39.03169],[-120.69434,39.0319],[-120.69379,39.03196],[-120.69359,39.03202],[-120.69294,39.03255],[-120.69229,39.03284],[-120.6915,39.0328],[-120.69088,39.03299],[-120.69021,39.03289],[-120.68989,39.03313],[-120.68967,39.03359],[-120.6894,39.03382],[-120.68914,39.03388],[-120.68836,39.03383],[-120.68768,39.0343],[-120.68666,39.03469],[-120.68597,39.03508],[-120.68536,39.0353],[-120.68448,39.03542],[-120.68415,39.03554],[-120.68281,39.03644],[-120.6824,39.03715],[-120.68201,39.03755],[-120.68112,39.03808],[-120.67981,39.03836],[-120.67856,39.03884],[-120.67764,39.03891],[-120.67685,39.03922],[-120.67602,39.03912],[-120.67547,39.03916],[-120.67383,39.03976],[-120.67355,39.03973],[-120.67291,39.03949],[-120.67257,39.03952],[-120.67224,39.03968],[-120.67159,39.04057],[-120.67054,39.041],[-120.67026,39.04149],[-120.66868,39.04304],[-120.66807,39.04338],[-120.66676,39.04371],[-120.66553,39.04419],[-120.66456,39.04474],[-120.66305,39.04529],[-120.66287,39.04551],[-120.66282,39.04612],[-120.663,39.04701],[-120.66334,39.04804],[-120.66384,39.04883],[-120.66416,39.04977],[-120.66431,39.04991],[-120.66459,39.04997],[-120.66532,39.04984],[-120.66568,39.0499],[-120.66675,39.05038],[-120.66735,39.05094],[-120.66728,39.05117],[-120.66696,39.05137],[-120.66666,39.05138],[-120.66584,39.05119],[-120.6646,39.05137],[-120.66423,39.05135],[-120.66404,39.05124],[-120.66294,39.04929],[-120.66199,39.04848],[-120.66075,39.04613],[-120.66048,39.04588],[-120.65994,39.04577],[-120.65938,39.04587],[-120.65902,39.04619],[-120.65877,39.04761],[-120.65832,39.04859],[-120.65808,39.04882],[-120.65699,39.04934],[-120.65612,39.0504],[-120.65478,39.05078],[-120.65392,39.05037],[-120.65291,39.0504],[-120.65263,39.05057],[-120.65199,39.05159],[-120.65158,39.05192],[-120.65111,39.05202],[-120.65044,39.0518],[-120.64992,39.05183],[-120.64957,39.05208],[-120.64874,39.05301],[-120.64823,39.05318],[-120.64789,39.05308],[-120.64712,39.05262],[-120.64516,39.05249],[-120.64416,39.05199],[-120.64385,39.05192],[-120.64322,39.05197],[-120.64231,39.0524],[-120.64163,39.05248],[-120.6411,39.05233],[-120.64063,39.05194],[-120.63799,39.05222],[-120.63662,39.05187],[-120.63522,39.05195],[-120.63443,39.05168],[-120.634,39.05181],[-120.63338,39.05235],[-120.63258,39.05283],[-120.63131,39.05307],[-120.63099,39.0536],[-120.63064,39.05387],[-120.62972,39.05395],[-120.62945,39.0539],[-120.62897,39.05362],[-120.62867,39.05359],[-120.62841,39.05366],[-120.62787,39.05414],[-120.62741,39.05426],[-120.62706,39.0542],[-120.62686,39.05405],[-120.62667,39.05307],[-120.62625,39.05267],[-120.62567,39.05252],[-120.62462,39.05242],[-120.62311,39.05204],[-120.62077,39.05216],[-120.61859,39.05249],[-120.6181,39.05243],[-120.61655,39.05189],[-120.61581,39.05174],[-120.61224,39.05173],[-120.61144,39.05181],[-120.60427,39.05309],[-120.60208,39.05369],[-120.59985,39.05382],[-120.59869,39.05413],[-120.59826,39.05467],[-120.59801,39.05618],[-120.5978,39.05662],[-120.59602,39.0583],[-120.59513,39.05976],[-120.59306,39.06134],[-120.59266,39.06137],[-120.59232,39.06111],[-120.59228,39.06091],[-120.59247,39.06016],[-120.59226,39.05987],[-120.59196,39.0597],[-120.59152,39.05967],[-120.59118,39.05979],[-120.59091,39.06017],[-120.59085,39.06066],[-120.59071,39.06089],[-120.59041,39.06106],[-120.59006,39.0611],[-120.58909,39.06055],[-120.58837,39.06067],[-120.58795,39.06061],[-120.58758,39.06003],[-120.58713,39.0597],[-120.58654,39.05941],[-120.58607,39.05943],[-120.58588,39.05959],[-120.58583,39.05981],[-120.58588,39.06054],[-120.58612,39.06122],[-120.5861,39.06147],[-120.58553,39.06206],[-120.58519,39.06281],[-120.58483,39.063],[-120.58449,39.06298],[-120.58322,39.06208],[-120.58279,39.062],[-120.58231,39.06219],[-120.58215,39.06255],[-120.58155,39.06638],[-120.5813,39.06678],[-120.58089,39.06712],[-120.57936,39.06782],[-120.57861,39.06795],[-120.57745,39.06773],[-120.57691,39.06707],[-120.57627,39.06658],[-120.57584,39.06646],[-120.57489,39.06649],[-120.57442,39.06599],[-120.57404,39.06589],[-120.57325,39.06614],[-120.57244,39.06662],[-120.57227,39.0668],[-120.57199,39.06745],[-120.57172,39.06774],[-120.57118,39.06795],[-120.5708,39.06798],[-120.5704,39.06784],[-120.56996,39.06751],[-120.56864,39.06621],[-120.56796,39.06608],[-120.56749,39.06609],[-120.56712,39.06619],[-120.56684,39.06659],[-120.56693,39.06741],[-120.56737,39.0691],[-120.56811,39.07033],[-120.56803,39.07079],[-120.56772,39.07113],[-120.5673,39.07135],[-120.5668,39.07133],[-120.56588,39.07103],[-120.56563,39.07103],[-120.56522,39.07121],[-120.56464,39.0717],[-120.56427,39.07291],[-120.56389,39.07327],[-120.56334,39.07325],[-120.561,39.07246],[-120.56063,39.07249],[-120.56032,39.07268],[-120.55965,39.07385],[-120.55801,39.07615],[-120.55666,39.07743],[-120.55543,39.07933],[-120.55172,39.08219],[-120.55108,39.08286],[-120.55042,39.08392],[-120.54801,39.08928],[-120.547,39.0926],[-120.54619,39.0943],[-120.54554,39.0952],[-120.54481,39.09596],[-120.54184,39.09799],[-120.54134,39.09843],[-120.54029,39.10072],[-120.53918,39.10225],[-120.53805,39.10331],[-120.53717,39.10398],[-120.53619,39.10434],[-120.53488,39.10447],[-120.53434,39.10505],[-120.53317,39.10545],[-120.53297,39.10567],[-120.53295,39.10618],[-120.5326,39.10655],[-120.53229,39.10665],[-120.53149,39.10663],[-120.53111,39.10676],[-120.53025,39.1072],[-120.52947,39.10785],[-120.52818,39.10828],[-120.52772,39.10895],[-120.52738,39.10924],[-120.52674,39.10954],[-120.5254,39.10975],[-120.52463,39.11015],[-120.52424,39.11071],[-120.52466,39.1114],[-120.5247,39.11204],[-120.52505,39.11259],[-120.52504,39.11275],[-120.52476,39.11317],[-120.52345,39.11414],[-120.52272,39.11491],[-120.522,39.11537],[-120.52169,39.11541],[-120.5205,39.11514],[-120.51937,39.1147],[-120.51893,39.11478],[-120.51821,39.11551],[-120.51801,39.11604],[-120.51664,39.11682],[-120.51641,39.11707],[-120.51595,39.11797],[-120.51613,39.11913],[-120.51605,39.11937],[-120.51588,39.11949],[-120.51493,39.11943],[-120.51402,39.11969],[-120.51277,39.11914],[-120.51165,39.11819],[-120.51102,39.11809],[-120.50824,39.11889],[-120.50652,39.1197],[-120.50598,39.12019],[-120.50568,39.12072],[-120.50549,39.12127],[-120.50535,39.1223],[-120.50509,39.12249],[-120.50468,39.12243],[-120.50363,39.12191],[-120.50291,39.12168],[-120.50232,39.12168],[-120.50132,39.12183],[-120.50071,39.12205],[-120.50026,39.12236],[-120.49979,39.12332],[-120.49868,39.12371],[-120.49822,39.12366],[-120.49782,39.12333],[-120.49788,39.123],[-120.49822,39.12283],[-120.499,39.12284],[-120.49923,39.12269],[-120.49928,39.12254],[-120.49936,39.12167],[-120.49965,39.12098],[-120.49949,39.12075],[-120.49915,39.12066],[-120.49884,39.12074],[-120.49866,39.12092],[-120.49858,39.12167],[-120.49837,39.12194],[-120.49715,39.12191],[-120.49563,39.12222],[-120.49492,39.12254],[-120.49434,39.12267],[-120.49336,39.12254],[-120.49274,39.1223],[-120.49264,39.12213],[-120.49272,39.12189],[-120.49369,39.12145],[-120.49395,39.1212],[-120.4951,39.11907],[-120.49564,39.11849],[-120.49655,39.1179],[-120.49824,39.11724],[-120.49855,39.11701],[-120.49893,39.11645],[-120.49906,39.11517],[-120.49966,39.11451],[-120.49967,39.11427],[-120.49956,39.11415],[-120.49924,39.11406],[-120.49876,39.11429],[-120.49805,39.11522],[-120.49773,39.11612],[-120.4974,39.11643],[-120.49688,39.1166],[-120.49538,39.11687],[-120.49363,39.11759],[-120.4923,39.11796],[-120.49179,39.11787],[-120.4906,39.11727],[-120.49021,39.11731],[-120.4895,39.1178],[-120.4891,39.11783],[-120.48792,39.11764],[-120.48677,39.11768],[-120.48636,39.11755],[-120.48533,39.11697],[-120.48393,39.1169],[-120.48366,39.11681],[-120.48343,39.11649],[-120.48353,39.11618],[-120.48626,39.11375],[-120.48619,39.11341],[-120.48589,39.11324],[-120.48538,39.11336],[-120.4848,39.11395],[-120.4844,39.11419],[-120.48285,39.1147],[-120.48212,39.11475],[-120.48083,39.11452],[-120.47979,39.11467],[-120.47912,39.1149],[-120.47708,39.11597],[-120.47472,39.11578],[-120.47352,39.11531],[-120.47193,39.11489],[-120.47141,39.11451],[-120.47061,39.11286],[-120.47003,39.11107],[-120.46974,39.10948],[-120.46967,39.10772]]]}}
