{"type":"Feature","properties":{"id":"mount-baldy-road","name":"Mount Baldy Road","difficulty":2,"character":"Medium speed"},"geometry":{"type":"MultiLineString","coordinates":[[[-117.70732,34.13838],[-117.70373,34.14064],[-117.70312,34.14121],[-117.70268,34.14205],[-117.70241,34.14375],[-117.70213,34.14456],[-117.70143,34.14569],[-117.7005,34.14663],[-117.69936,34.14737],[-117.69235,34.15055],[-117.68909,34.15174],[-117.68666,34.15347],[-117.68581,34.15441],[-117.68487,34.15516],[-117.6843,34.1559],[-117.68405,34.15661],[-117.6839,34.15792],[-117.68367,34.15832],[-117.68294,34.1591],[-117.68262,34.15977],[-117.6824,34.16268],[-117.68192,34.16324],[-117.68082,34.16381],[-117.68056,34.16404],[-117.67974,34.16547],[-117.67856,34.17025],[-117.67791,34.17186],[-117.67724,34.1739],[-117.67658,34.17512],[-117.67644,34.17562],[-117.67682,34.17823],[-117.67743,34.17916],[-117.67761,34.17963],[-117.67755,34.18094],[-117.67791,34.18216],[-117.67782,34.18278],[-117.67661,34.18524],[-117.6769,34.1886],[-117.67706,34.18907],[-117.67781,34.19026],[-117.67818,34.19105],[-117.67844,34.19359],[-117.67824,34.19447],[-117.67698,34.19696],[-117.67713,34.19805],[-117.67703,34.19853],[-117.67673,34.19903],[-117.6759,34.19982],[-117.67575,34.20032],[-117.67682,34.20328],[-117.67664,34.20514],[-117.67583,34.20656],[-117.67576,34.20703],[-117.6759,34.20792],[-117.67679,34.20919],[-117.67686,34.20945],[-117.67664,34.21095],[-117.67604,34.21265],[-117.67481,34.21392],[-117.6733,34.21612],[-117.67191,34.21674],[-117.67158,34.21696],[-117.67072,34.21845],[-117.66997,34.21918],[-117.66819,34.22126],[-117.66791,34.22176],[-117.66786,34.22218],[-117.66799,34.22399],[-117.66745,34.2259],[-117.66682,34.22662],[-117.66563,34.22727],[-117.66511,34.2278],[-117.66449,34.22914],[-117.66315,34.23094],[-117.66294,34.23135],[-117.66254,34.23253],[-117.6618,34.23376],[-117.66137,34.23542],[-117.66122,34.2356],[-117.66054,34.23596],[-117.65996,34.23607]]]}}
