{"type":"Feature","properties":{"id":"mount-blue-sky-road","name":"Mount Blue Sky Road \u00b7 CO 5","difficulty":3,"character":"Technical"},"geometry":{"type":"MultiLineString","coordinates":[[[-105.5963,39.65676],[-105.59546,39.65558],[-105.59486,39.65499],[-105.59424,39.65457],[-105.59319,39.65422],[-105.59307,39.65411],[-105.59314,39.65397],[-105.59658,39.6543],[-105.59794,39.65459],[-105.59889,39.65465],[-105.59998,39.65434],[-105.60147,39.65353],[-105.60266,39.65306],[-105.60405,39.65284],[-105.60552,39.65246],[-105.60638,39.65237],[-105.60654,39.65224],[-105.60652,39.65214],[-105.60628,39.65205],[-105.60535,39.65206],[-105.60306,39.65184],[-105.60006,39.65177],[-105.59951,39.65156],[-105.59832,39.65079],[-105.59632,39.65004],[-105.59223,39.64932],[-105.58997,39.64917],[-105.58788,39.64859],[-105.58538,39.64865],[-105.58467,39.64843],[-105.58447,39.64822],[-105.58441,39.64797],[-105.58476,39.64731],[-105.58563,39.64679],[-105.5868,39.64653],[-105.58754,39.64619],[-105.58882,39.64477],[-105.5893,39.64462],[-105.58984,39.64423],[-105.59133,39.64393],[-105.59213,39.64367],[-105.59282,39.64304],[-105.59307,39.64312],[-105.59308,39.64336],[-105.59282,39.64386],[-105.59245,39.64418],[-105.59197,39.64439],[-105.59068,39.64457],[-105.59036,39.64485],[-105.59023,39.64522],[-105.59027,39.64555],[-105.59043,39.64574],[-105.59094,39.64587],[-105.59184,39.646],[-105.59379,39.64583],[-105.59551,39.64592],[-105.59765,39.645],[-105.59935,39.64467],[-105.6009,39.64461],[-105.60103,39.64451],[-105.60128,39.64386],[-105.60171,39.64209],[-105.60232,39.64046],[-105.60378,39.63873],[-105.60466,39.63745],[-105.60515,39.63707],[-105.60641,39.63635],[-105.60677,39.63586],[-105.60684,39.63536],[-105.6058,39.63467],[-105.60502,39.6335],[-105.60379,39.6321],[-105.6035,39.63156],[-105.60347,39.63045],[-105.60395,39.62914],[-105.60407,39.62832],[-105.60408,39.62718],[-105.60385,39.62635],[-105.60345,39.62585],[-105.60137,39.62398],[-105.59991,39.62316],[-105.5986,39.62219],[-105.59831,39.62174],[-105.5984,39.62143],[-105.59859,39.62126],[-105.59903,39.62109],[-105.59973,39.62102],[-105.60204,39.6213],[-105.60418,39.62182],[-105.60777,39.62155],[-105.60835,39.62132],[-105.60903,39.62065],[-105.60916,39.62024],[-105.60908,39.61959],[-105.60748,39.61756],[-105.60706,39.61667],[-105.60696,39.61608],[-105.60707,39.6156],[-105.60795,39.61426],[-105.60817,39.61417],[-105.60878,39.61416],[-105.61031,39.61443],[-105.61139,39.61428],[-105.61222,39.61393],[-105.61428,39.61259],[-105.61518,39.61219],[-105.61566,39.61203],[-105.6167,39.61187],[-105.61752,39.61185],[-105.62123,39.61125],[-105.62195,39.61106],[-105.62389,39.61026],[-105.62424,39.60985],[-105.62474,39.60867],[-105.62531,39.60772],[-105.62666,39.60635],[-105.62716,39.6056],[-105.62721,39.6046],[-105.627,39.60302],[-105.62705,39.60278],[-105.62739,39.60243],[-105.62777,39.60228],[-105.62888,39.60207],[-105.63197,39.60186],[-105.63398,39.60063],[-105.63468,39.59988],[-105.63519,39.59954],[-105.63614,39.59925],[-105.63909,39.59865],[-105.63993,39.59828],[-105.64053,39.59784],[-105.64082,39.59738],[-105.64074,39.59701],[-105.64024,39.59672],[-105.63778,39.59569],[-105.63604,39.59417],[-105.63503,39.59307],[-105.63324,39.5905],[-105.63196,39.58925],[-105.63076,39.58731],[-105.62937,39.58557],[-105.62902,39.58525],[-105.62782,39.58451],[-105.62694,39.58376],[-105.62696,39.58365],[-105.62715,39.58368],[-105.62857,39.5845],[-105.6288,39.58446],[-105.627,39.58294],[-105.62667,39.58229],[-105.6267,39.58212],[-105.627,39.58184],[-105.62905,39.58071],[-105.63023,39.57994],[-105.6311,39.57959],[-105.63236,39.57942],[-105.63388,39.5794],[-105.6346,39.5795],[-105.63735,39.57931],[-105.63726,39.57941],[-105.63381,39.58047],[-105.63291,39.58056],[-105.63184,39.58044],[-105.63093,39.58084],[-105.62989,39.58154],[-105.62897,39.58183],[-105.62886,39.58206],[-105.62905,39.58232],[-105.63181,39.58399],[-105.63198,39.58392],[-105.63136,39.58338],[-105.63067,39.58222],[-105.63065,39.5818],[-105.63085,39.58167],[-105.63156,39.58163],[-105.63213,39.58174],[-105.63256,39.58199],[-105.63296,39.58275],[-105.6334,39.58303],[-105.63367,39.5829],[-105.63389,39.58249],[-105.63416,39.58226],[-105.63568,39.58175],[-105.63896,39.5812],[-105.63941,39.58129]]]}}
