{"type":"Feature","properties":{"id":"mount-wilson-red-box","name":"Mount Wilson Red Box Road","difficulty":3,"character":"Technical"},"geometry":{"type":"MultiLineString","coordinates":[[[-118.10523,34.25847],[-118.10516,34.25796],[-118.10482,34.25742],[-118.1041,34.25704],[-118.10383,34.2567],[-118.10306,34.25627],[-118.10226,34.25613],[-118.10203,34.25597],[-118.10185,34.25521],[-118.10188,34.25472],[-118.10161,34.25442],[-118.1011,34.25442],[-118.10037,34.25466],[-118.10006,34.25454],[-118.10009,34.25416],[-118.10095,34.25311],[-118.10089,34.25267],[-118.10017,34.25232],[-118.10014,34.25221],[-118.10041,34.25167],[-118.10017,34.25093],[-118.10063,34.2503],[-118.10055,34.25006],[-118.10041,34.24998],[-118.0997,34.25007],[-118.09936,34.25002],[-118.09876,34.25023],[-118.09847,34.2502],[-118.09837,34.24983],[-118.09841,34.24921],[-118.09829,34.24901],[-118.09797,34.24896],[-118.09716,34.24919],[-118.09645,34.24886],[-118.09625,34.24903],[-118.09612,34.24969],[-118.09572,34.24999],[-118.09532,34.25089],[-118.09493,34.251],[-118.09451,34.25073],[-118.09414,34.24989],[-118.09386,34.2495],[-118.09257,34.24898],[-118.0925,34.24877],[-118.0927,34.24801],[-118.09261,34.24762],[-118.09182,34.2468],[-118.09191,34.24644],[-118.09256,34.24603],[-118.09257,34.24572],[-118.09237,34.24537],[-118.09248,34.24489],[-118.09234,34.2446],[-118.09198,34.24428],[-118.09223,34.24368],[-118.09173,34.24301],[-118.09233,34.24231],[-118.09283,34.24215],[-118.09333,34.24165],[-118.09311,34.24114],[-118.09333,34.23956],[-118.09321,34.23933],[-118.09092,34.23879],[-118.0895,34.23901],[-118.08823,34.23869],[-118.08649,34.23838],[-118.08522,34.23771],[-118.08435,34.2376],[-118.08427,34.2371],[-118.08407,34.23673],[-118.08383,34.23654],[-118.08287,34.23648],[-118.08257,34.23662],[-118.08235,34.23662],[-118.08159,34.23643],[-118.08082,34.236],[-118.08044,34.23597],[-118.08003,34.23606],[-118.07944,34.23597],[-118.07828,34.23517],[-118.07774,34.2349],[-118.07733,34.23485],[-118.07681,34.23495],[-118.07656,34.23488],[-118.07624,34.23441],[-118.07552,34.23417],[-118.07543,34.23385],[-118.07522,34.23357],[-118.07473,34.23339],[-118.07423,34.23302],[-118.07396,34.23297],[-118.07337,34.23315],[-118.073,34.23297],[-118.07245,34.23292],[-118.07194,34.23259],[-118.07133,34.23257],[-118.07091,34.23209],[-118.07103,34.23106],[-118.07047,34.22961],[-118.07027,34.22943],[-118.06941,34.22926],[-118.06889,34.22903],[-118.06834,34.22849],[-118.06774,34.22769]]]}}
