{"type":"Feature","properties":{"id":"mulholland-highway-malibu","name":"Mulholland Highway \u00b7 Malibu mountains","difficulty":2,"character":"Medium speed"},"geometry":{"type":"MultiLineString","coordinates":[[[-118.87341,34.08857],[-118.8727,34.08899],[-118.87105,34.08935],[-118.87093,34.08957],[-118.87099,34.09021],[-118.87,34.09112],[-118.86949,34.0913],[-118.8688,34.09131],[-118.8672,34.09166],[-118.86575,34.09175],[-118.86519,34.09246],[-118.864,34.09308],[-118.86336,34.09394],[-118.86314,34.09483],[-118.86249,34.09553],[-118.86328,34.09662],[-118.86326,34.09679],[-118.86299,34.09697],[-118.86296,34.0972],[-118.86306,34.09752],[-118.86346,34.0979],[-118.86351,34.09807],[-118.86326,34.09825],[-118.8631,34.09854],[-118.86207,34.09888],[-118.86189,34.09955],[-118.86176,34.09973],[-118.8614,34.09992],[-118.86153,34.10014],[-118.86222,34.10031],[-118.8622,34.10047],[-118.86194,34.10074],[-118.86199,34.10094],[-118.86286,34.10135],[-118.86312,34.10162],[-118.86153,34.10265],[-118.86186,34.10293],[-118.86167,34.10325],[-118.86186,34.10346],[-118.86178,34.10361],[-118.861,34.10358],[-118.86046,34.10338],[-118.86016,34.10341],[-118.8599,34.10352],[-118.85932,34.10411],[-118.85874,34.10421],[-118.85843,34.10441],[-118.85751,34.10422],[-118.85613,34.10343],[-118.85536,34.10313],[-118.85483,34.10328],[-118.85369,34.10403],[-118.85278,34.10429],[-118.85201,34.10431],[-118.85105,34.10415],[-118.84972,34.10408],[-118.84628,34.10437],[-118.84549,34.10427],[-118.84519,34.10413],[-118.84504,34.10389],[-118.84558,34.10237],[-118.84551,34.10171],[-118.84509,34.10117],[-118.84332,34.09999],[-118.84299,34.09982],[-118.84152,34.09982],[-118.84039,34.10061],[-118.84016,34.10067],[-118.83852,34.10028],[-118.83824,34.10003],[-118.83807,34.09946],[-118.83763,34.09906],[-118.835,34.09815],[-118.83344,34.0975],[-118.83249,34.09686],[-118.8322,34.09663],[-118.83191,34.09599],[-118.83198,34.09469],[-118.83161,34.09336],[-118.83138,34.09314],[-118.83104,34.09319],[-118.82855,34.09439],[-118.82711,34.09487],[-118.8265,34.09494],[-118.82589,34.09486],[-118.82387,34.09393],[-118.82282,34.09387],[-118.81617,34.0959],[-118.8146,34.09649],[-118.81404,34.09656],[-118.81266,34.09648]]]}}
