{"type":"Feature","properties":{"id":"mulholland-drive","name":"Mulholland Drive","difficulty":2,"character":"Low speed"},"geometry":{"type":"MultiLineString","coordinates":[[[-118.34146,34.12363],[-118.34234,34.12293],[-118.34212,34.12272],[-118.34157,34.12174],[-118.34161,34.12142],[-118.34221,34.12114],[-118.34219,34.12101],[-118.34177,34.12055],[-118.34177,34.12038],[-118.34203,34.12029],[-118.34279,34.12058],[-118.3431,34.12057],[-118.34322,34.12035],[-118.34285,34.11973],[-118.34289,34.11954],[-118.34314,34.11943],[-118.34382,34.1195],[-118.34399,34.11942],[-118.34409,34.11921],[-118.34397,34.11882],[-118.34362,34.11831],[-118.34301,34.1176],[-118.34235,34.11705],[-118.34236,34.11659],[-118.34271,34.11643],[-118.34368,34.11676],[-118.34499,34.11768],[-118.34576,34.11783],[-118.34635,34.11821],[-118.34698,34.11828],[-118.34718,34.11871],[-118.34741,34.11954],[-118.34745,34.1201],[-118.34756,34.12023],[-118.34867,34.12023],[-118.35033,34.11998],[-118.35111,34.12005],[-118.3517,34.11978],[-118.35233,34.11978],[-118.35291,34.11952],[-118.35314,34.11953],[-118.35482,34.12112],[-118.35586,34.12127],[-118.3568,34.12195],[-118.35798,34.12206],[-118.35945,34.12292],[-118.35951,34.12304],[-118.35941,34.12321],[-118.35814,34.12356],[-118.358,34.12364],[-118.35796,34.12381],[-118.35916,34.12503],[-118.35921,34.12554],[-118.35932,34.12568],[-118.36069,34.12621],[-118.36073,34.12648],[-118.36033,34.12727],[-118.36032,34.12752],[-118.36059,34.12783],[-118.36127,34.12824],[-118.36181,34.1283],[-118.36236,34.12819],[-118.36359,34.12832],[-118.36566,34.1289],[-118.36689,34.12896],[-118.36761,34.12941],[-118.36959,34.12923],[-118.3698,34.12936],[-118.36986,34.12969],[-118.37,34.12985],[-118.37098,34.12997],[-118.37169,34.13062],[-118.37237,34.13109],[-118.37336,34.13098],[-118.37353,34.13085],[-118.37355,34.13069],[-118.37347,34.13056],[-118.37298,34.13024],[-118.37266,34.12937],[-118.37182,34.12874],[-118.37198,34.12823],[-118.37164,34.12732],[-118.37158,34.12672],[-118.37179,34.12653],[-118.37245,34.12642],[-118.37267,34.12645],[-118.37306,34.1268],[-118.3733,34.12689],[-118.37372,34.12686],[-118.37398,34.1267],[-118.37421,34.12569],[-118.37476,34.12485],[-118.37476,34.12398],[-118.37502,34.12368],[-118.37558,34.12342],[-118.37582,34.12312],[-118.37583,34.12279],[-118.3756,34.12223],[-118.37576,34.12191],[-118.37669,34.12206],[-118.37731,34.12238],[-118.37785,34.12221],[-118.37813,34.12223],[-118.37877,34.12256],[-118.37991,34.12266],[-118.3804,34.12297],[-118.3809,34.12314],[-118.38118,34.12302],[-118.38137,34.12258],[-118.38161,34.1224],[-118.38187,34.12241],[-118.38238,34.12266],[-118.38258,34.12267],[-118.38347,34.12202],[-118.38466,34.12188],[-118.38565,34.12145],[-118.38613,34.12138],[-118.38647,34.12145],[-118.38685,34.12172],[-118.38733,34.12331],[-118.3876,34.12346],[-118.38863,34.12321],[-118.38914,34.12323],[-118.39013,34.12285],[-118.39054,34.12222],[-118.39147,34.12216],[-118.39201,34.12157],[-118.39283,34.12117],[-118.3931,34.12039],[-118.39328,34.12014],[-118.39408,34.12021],[-118.39465,34.11987],[-118.39525,34.11968],[-118.39615,34.11911],[-118.39676,34.11901],[-118.39745,34.1191],[-118.39796,34.11957],[-118.39817,34.12006],[-118.3982,34.12137],[-118.39874,34.12193],[-118.39904,34.12255],[-118.39979,34.12305],[-118.40014,34.12351],[-118.40082,34.1241],[-118.40193,34.12452],[-118.40233,34.12493],[-118.40292,34.12534],[-118.40317,34.12579],[-118.40322,34.12643],[-118.40378,34.12711],[-118.40382,34.12763],[-118.40398,34.12795],[-118.40422,34.12799],[-118.40568,34.12757],[-118.40609,34.12758],[-118.40645,34.1278],[-118.40666,34.12805],[-118.40691,34.12904],[-118.4072,34.12928],[-118.40756,34.12945],[-118.40887,34.12969],[-118.41225,34.12955],[-118.41257,34.12946],[-118.41299,34.12905],[-118.41322,34.12895],[-118.41351,34.12894],[-118.41397,34.12908],[-118.41413,34.12904],[-118.4143,34.12876],[-118.41412,34.12796],[-118.41449,34.12756],[-118.41483,34.12658],[-118.41507,34.12642],[-118.41539,34.12637],[-118.41626,34.12667],[-118.41701,34.12718],[-118.41803,34.12711],[-118.41926,34.12746],[-118.41979,34.12793],[-118.42049,34.12831],[-118.42071,34.12853],[-118.4209,34.1288],[-118.42115,34.12963],[-118.42138,34.12985],[-118.42256,34.12977],[-118.42286,34.12985],[-118.42324,34.13023],[-118.42458,34.13016],[-118.42567,34.1306],[-118.4267,34.13117],[-118.42753,34.13116],[-118.42866,34.13147],[-118.42932,34.13133],[-118.42951,34.13148],[-118.42973,34.13197],[-118.42988,34.13204],[-118.43037,34.13201],[-118.43107,34.13168],[-118.43152,34.13198],[-118.43225,34.13197],[-118.43335,34.13159],[-118.43409,34.13088],[-118.43484,34.13059],[-118.43566,34.13062],[-118.438,34.13159],[-118.43874,34.13168],[-118.44002,34.13142],[-118.44299,34.13038],[-118.44341,34.13032],[-118.44639,34.13054],[-118.44872,34.13132],[-118.44889,34.13142],[-118.44937,34.13203],[-118.45112,34.1318],[-118.45337,34.13211],[-118.454,34.13245],[-118.45455,34.13301],[-118.45483,34.13307],[-118.45585,34.13291],[-118.4564,34.13239],[-118.45689,34.13219],[-118.45777,34.13157],[-118.45863,34.13072],[-118.45907,34.13057],[-118.46076,34.13038],[-118.4616,34.1308],[-118.46214,34.13092],[-118.46266,34.13116],[-118.46303,34.13119],[-118.46329,34.13104],[-118.46357,34.13055],[-118.46418,34.13011],[-118.46444,34.13007],[-118.46547,34.13024],[-118.46632,34.12974],[-118.46677,34.12967],[-118.46711,34.12936],[-118.46741,34.12926],[-118.46875,34.12967],[-118.46969,34.13008],[-118.47026,34.13015],[-118.4708,34.13005],[-118.4713,34.12981],[-118.47159,34.12951],[-118.47344,34.12697],[-118.47386,34.12666],[-118.47451,34.12645],[-118.47753,34.1262],[-118.47802,34.12626],[-118.4785,34.12645],[-118.47886,34.12675],[-118.47913,34.12722],[-118.47925,34.12855],[-118.47945,34.12916],[-118.47992,34.12957]]]}}
