{"type":"Feature","properties":{"id":"nicasio-valley","name":"Nicasio Valley Road","difficulty":2,"character":"Medium speed"},"geometry":{"type":"MultiLineString","coordinates":[[[-122.6638,38.0133],[-122.66379,38.01562],[-122.66392,38.01747],[-122.66374,38.01811],[-122.66329,38.01891],[-122.6603,38.02193],[-122.66018,38.02231],[-122.66029,38.02263],[-122.66062,38.02288],[-122.66103,38.02296],[-122.66321,38.02227],[-122.66358,38.02228],[-122.664,38.02248],[-122.66425,38.02281],[-122.66452,38.02353],[-122.66448,38.02483],[-122.66463,38.02524],[-122.66603,38.02629],[-122.66685,38.02758],[-122.67042,38.03098],[-122.6721,38.03304],[-122.6728,38.03338],[-122.6757,38.03386],[-122.6772,38.03472],[-122.6778,38.03513],[-122.67926,38.0366],[-122.68116,38.03764],[-122.68249,38.03866],[-122.68287,38.03923],[-122.68322,38.04054],[-122.68389,38.04159],[-122.68434,38.04183],[-122.68523,38.04211],[-122.68751,38.04254],[-122.68832,38.04308],[-122.6897,38.04509],[-122.6916,38.04901],[-122.69336,38.05472],[-122.69602,38.05821],[-122.69756,38.06096],[-122.69786,38.06106],[-122.69844,38.06089],[-122.69867,38.061],[-122.7025,38.06615],[-122.70351,38.06864],[-122.70746,38.0762],[-122.70798,38.07696],[-122.7089,38.0778],[-122.71025,38.07857],[-122.71971,38.08236],[-122.72035,38.08279],[-122.7208,38.08326],[-122.72247,38.08571],[-122.72367,38.0869],[-122.72507,38.08779],[-122.7282,38.08905],[-122.72962,38.08994],[-122.73032,38.09061],[-122.73099,38.09155],[-122.73348,38.0973]]]}}
