{"type":"Feature","properties":{"id":"niles-canyon","name":"Niles Canyon Road","difficulty":2,"character":"Medium speed"},"geometry":{"type":"MultiLineString","coordinates":[[[-121.97169,37.57648],[-121.96871,37.57922],[-121.96818,37.57951],[-121.96621,37.58026],[-121.96516,37.58104],[-121.96473,37.58156],[-121.96448,37.5823],[-121.96449,37.58278],[-121.96485,37.58453],[-121.9647,37.5852],[-121.96444,37.58562],[-121.96378,37.58614],[-121.96077,37.58735],[-121.95943,37.58802],[-121.95887,37.58838],[-121.95785,37.58925],[-121.95765,37.58951],[-121.95756,37.59008],[-121.95713,37.59131],[-121.95596,37.59274],[-121.95483,37.59399],[-121.95286,37.59592],[-121.9523,37.5969],[-121.95189,37.59735],[-121.95142,37.59767],[-121.9503,37.59804],[-121.94824,37.59815],[-121.94708,37.59791],[-121.94596,37.59747],[-121.94534,37.59745],[-121.94404,37.5976],[-121.94309,37.59786],[-121.94141,37.59875],[-121.94079,37.59898],[-121.93985,37.59902],[-121.93908,37.5988],[-121.93865,37.59856],[-121.9383,37.59822],[-121.93799,37.59757],[-121.93823,37.59516],[-121.93749,37.59265],[-121.93716,37.59207],[-121.93659,37.5914],[-121.93618,37.59108],[-121.93569,37.59096],[-121.93426,37.59114],[-121.93253,37.59183],[-121.93158,37.59282],[-121.93049,37.59535],[-121.93006,37.59596],[-121.92962,37.59629],[-121.92816,37.59702],[-121.92709,37.59816],[-121.92668,37.59848],[-121.926,37.59881],[-121.92497,37.59901],[-121.92408,37.59897],[-121.92258,37.59866],[-121.921,37.59798],[-121.91992,37.59722],[-121.91704,37.59487],[-121.91633,37.59444],[-121.91289,37.59371],[-121.91168,37.59373],[-121.90594,37.59556],[-121.90444,37.59568],[-121.90284,37.59548],[-121.89756,37.59416],[-121.89012,37.59343],[-121.8869,37.5926],[-121.88575,37.59254],[-121.88224,37.59289]]]}}
