{"type":"Feature","properties":{"id":"nine-mile-canyon-road","name":"Nine Mile Canyon Road","difficulty":3,"character":"High speed"},"geometry":{"type":"MultiLineString","coordinates":[[[-118.00847,35.86136],[-118.00748,35.86104],[-118.00627,35.85999],[-118.00523,35.85959],[-118.00479,35.85873],[-118.00406,35.85817],[-118.00363,35.85759],[-118.00333,35.85748],[-118.00257,35.85744],[-118.00185,35.85691],[-118.00094,35.85671],[-117.99991,35.85493],[-117.99959,35.8547],[-117.99838,35.85465],[-117.9971,35.85429],[-117.99633,35.85427],[-117.9954,35.85463],[-117.99394,35.85556],[-117.9934,35.85565],[-117.99252,35.8552],[-117.99176,35.85446],[-117.99053,35.85357],[-117.99001,35.85334],[-117.98944,35.85323],[-117.98892,35.85323],[-117.98779,35.85344],[-117.98733,35.85358],[-117.98683,35.85389],[-117.98644,35.85442],[-117.98629,35.85498],[-117.98632,35.85614],[-117.98655,35.85705],[-117.9865,35.85733],[-117.98624,35.85756],[-117.98545,35.85766],[-117.98483,35.85817],[-117.98434,35.85813],[-117.98411,35.85794],[-117.9839,35.8573],[-117.98298,35.85586],[-117.98131,35.85432],[-117.98093,35.8542],[-117.9804,35.8542],[-117.97856,35.85479],[-117.97808,35.85472],[-117.97775,35.85447],[-117.97764,35.8542],[-117.97767,35.85339],[-117.97751,35.85254],[-117.97649,35.85088],[-117.97644,35.8504],[-117.97609,35.8497],[-117.97543,35.84893],[-117.97529,35.84829],[-117.97492,35.8475],[-117.97416,35.84671],[-117.97152,35.84521],[-117.96949,35.8451],[-117.96932,35.84517],[-117.96926,35.84633],[-117.969,35.84695],[-117.96849,35.84743],[-117.96704,35.84821],[-117.96669,35.84852],[-117.96648,35.84886],[-117.96643,35.84928],[-117.96697,35.85095],[-117.96675,35.85133],[-117.96598,35.85182],[-117.96578,35.85208],[-117.96575,35.85279],[-117.96589,35.85332],[-117.96571,35.85359],[-117.96527,35.8537],[-117.96447,35.8537],[-117.96152,35.85328],[-117.96112,35.85331],[-117.9604,35.85354],[-117.96013,35.85343],[-117.95904,35.85218],[-117.95665,35.84975],[-117.95572,35.8487],[-117.95535,35.84802],[-117.95489,35.84761],[-117.95127,35.84601],[-117.95034,35.84545],[-117.94966,35.84529],[-117.94899,35.84526],[-117.94823,35.84541],[-117.94682,35.84587],[-117.94558,35.84555],[-117.94516,35.84555],[-117.94485,35.84564],[-117.94424,35.84624],[-117.94239,35.84677],[-117.94182,35.84723],[-117.94095,35.84821],[-117.94047,35.84894],[-117.93982,35.85047],[-117.93953,35.85062],[-117.93934,35.8505],[-117.93838,35.84903],[-117.93793,35.84872],[-117.93709,35.84834],[-117.93659,35.8482],[-117.93583,35.84828],[-117.93558,35.84839],[-117.93512,35.84888],[-117.93482,35.84892],[-117.93368,35.84831],[-117.93285,35.84767],[-117.93241,35.84748],[-117.93058,35.84742],[-117.92839,35.84693],[-117.92677,35.84687],[-117.92596,35.84672],[-117.92464,35.846],[-117.92285,35.84544],[-117.9221,35.84489],[-117.92128,35.84413],[-117.92076,35.84386],[-117.91728,35.84251],[-117.90986,35.83995],[-117.90526,35.83708],[-117.90484,35.83697],[-117.90188,35.83675],[-117.90091,35.83675],[-117.89942,35.83707],[-117.88317,35.84206],[-117.87483,35.84215],[-117.87317,35.84209],[-117.87186,35.84212],[-117.87157,35.8422],[-117.87141,35.84237],[-117.87138,35.84258],[-117.87191,35.84531],[-117.87264,35.84805],[-117.8735,35.85032],[-117.87373,35.85118],[-117.87361,35.85128],[-117.87273,35.85142]]]}}
