{"type":"Feature","properties":{"id":"north-cascades-highway","name":"North Cascades Highway \u00b7 SR 20","difficulty":2,"character":"Medium speed"},"geometry":{"type":"MultiLineString","coordinates":[[[-121.43064,48.53248],[-121.43046,48.53315],[-121.42853,48.53759],[-121.42801,48.53829],[-121.42593,48.54052],[-121.42561,48.54114],[-121.42527,48.54222],[-121.42522,48.54482],[-121.42479,48.54729],[-121.42411,48.549],[-121.42298,48.55063],[-121.42217,48.55231],[-121.41983,48.55479],[-121.41871,48.55627],[-121.41085,48.56427],[-121.41011,48.56653],[-121.4091,48.5734],[-121.40771,48.57508],[-121.4073,48.57737],[-121.40705,48.57806],[-121.40612,48.5795],[-121.40412,48.581],[-121.40258,48.58303],[-121.40198,48.5836],[-121.40116,48.58423],[-121.3956,48.58766],[-121.39474,48.58799],[-121.39358,48.58822],[-121.38767,48.58858],[-121.38492,48.58924],[-121.38317,48.58936],[-121.38188,48.58955],[-121.38122,48.58973],[-121.37864,48.59074],[-121.37588,48.59197],[-121.37321,48.59407],[-121.37275,48.59457],[-121.37111,48.59729],[-121.37051,48.5988],[-121.36914,48.60014],[-121.36849,48.60111],[-121.36614,48.60239],[-121.3652,48.60315],[-121.36395,48.60397],[-121.36224,48.60635],[-121.36198,48.60702],[-121.36189,48.60772],[-121.36193,48.60967],[-121.36217,48.61204],[-121.36172,48.61302],[-121.36168,48.61385],[-121.36139,48.61429],[-121.3596,48.61534],[-121.35831,48.61582],[-121.35699,48.61621],[-121.35513,48.61656],[-121.35392,48.61699],[-121.35296,48.61707],[-121.35246,48.61723],[-121.35075,48.61883],[-121.3471,48.6231],[-121.34639,48.62408],[-121.34575,48.62461],[-121.34484,48.62492],[-121.34368,48.62516],[-121.34086,48.62553],[-121.33807,48.62734],[-121.33692,48.62778],[-121.33463,48.6283],[-121.33265,48.62844],[-121.33096,48.6288],[-121.32828,48.62994],[-121.32569,48.63164],[-121.3244,48.63238],[-121.32326,48.6329],[-121.32203,48.6339],[-121.32148,48.63486],[-121.32101,48.63532],[-121.31688,48.63774],[-121.30537,48.64785],[-121.30355,48.64986],[-121.3029,48.65044],[-121.29927,48.65271],[-121.29399,48.65682],[-121.29051,48.65857],[-121.28732,48.66165],[-121.28498,48.6634],[-121.28296,48.66452],[-121.28067,48.66596],[-121.26897,48.67347],[-121.26811,48.67379],[-121.26713,48.67394],[-121.26333,48.67382],[-121.26228,48.6737],[-121.26034,48.6732],[-121.2531,48.67246],[-121.25132,48.67268],[-121.24322,48.67463],[-121.24262,48.675],[-121.24243,48.67548],[-121.24301,48.6773],[-121.24275,48.67887],[-121.24292,48.6806],[-121.24278,48.68136],[-121.24289,48.68218],[-121.24261,48.68299],[-121.24205,48.68376],[-121.24203,48.6844],[-121.24177,48.68483],[-121.24094,48.68536],[-121.23996,48.68571],[-121.23849,48.68641],[-121.23743,48.68744],[-121.23681,48.68781],[-121.23601,48.68796],[-121.23504,48.68778],[-121.23453,48.68777],[-121.23267,48.68822],[-121.2322,48.68841],[-121.23088,48.68926],[-121.22864,48.68975],[-121.22573,48.69085],[-121.2237,48.6922],[-121.22134,48.6934],[-121.22,48.69477],[-121.21903,48.69543],[-121.21672,48.69662],[-121.21603,48.69719],[-121.21433,48.69904],[-121.21341,48.69962],[-121.21256,48.69986],[-121.21117,48.70006],[-121.21051,48.70026],[-121.20996,48.70053],[-121.209,48.70122],[-121.20872,48.7013],[-121.20819,48.7012],[-121.20679,48.70049],[-121.20566,48.70031],[-121.20467,48.70045],[-121.1995,48.70153],[-121.19851,48.70166],[-121.19466,48.70139],[-121.19307,48.70147],[-121.19232,48.70177],[-121.19115,48.70288],[-121.19047,48.7031],[-121.18807,48.70357],[-121.18673,48.70446],[-121.18455,48.70519],[-121.18386,48.70522],[-121.18229,48.70484],[-121.18102,48.70494],[-121.17948,48.70472],[-121.17879,48.70479],[-121.17559,48.7058],[-121.17361,48.70678],[-121.1722,48.7071],[-121.16872,48.70833],[-121.1675,48.70891],[-121.16447,48.71011],[-121.162,48.71168],[-121.16108,48.71199],[-121.15982,48.71222],[-121.15836,48.71221],[-121.15182,48.71146],[-121.15106,48.71156],[-121.14961,48.71227],[-121.14881,48.71228],[-121.14818,48.712],[-121.14709,48.7105],[-121.14619,48.7099],[-121.14568,48.70978],[-121.14521,48.7098],[-121.14334,48.71044],[-121.14242,48.71044],[-121.14194,48.7102],[-121.14127,48.70934],[-121.14071,48.70892],[-121.13956,48.70825],[-121.1385,48.70794],[-121.13812,48.70795],[-121.13761,48.70813],[-121.13654,48.7089],[-121.13452,48.71137],[-121.13363,48.71179],[-121.13258,48.71185],[-121.13154,48.71158],[-121.13018,48.71112],[-121.12914,48.71037],[-121.12845,48.71016],[-121.12672,48.71043],[-121.12439,48.71058],[-121.12236,48.71094],[-121.12167,48.71083],[-121.12063,48.71002],[-121.11964,48.70952],[-121.11863,48.70882],[-121.11506,48.70736],[-121.11397,48.7062],[-121.11249,48.70541],[-121.1123,48.70509],[-121.11202,48.7039],[-121.11103,48.70251],[-121.11065,48.70166],[-121.10963,48.69599],[-121.10917,48.69519],[-121.10874,48.69481],[-121.10526,48.69253],[-121.10497,48.69214],[-121.10445,48.69083],[-121.10366,48.69004],[-121.10289,48.68966],[-121.1017,48.68936],[-121.10092,48.68932],[-121.0998,48.68947],[-121.09507,48.69127],[-121.09469,48.69153],[-121.09454,48.6918],[-121.09458,48.69218],[-121.09524,48.6931],[-121.09546,48.69369],[-121.09545,48.69437],[-121.09516,48.69538],[-121.09564,48.69896],[-121.09587,48.69954],[-121.09645,48.70032],[-121.09656,48.70069],[-121.09646,48.70125],[-121.09588,48.702],[-121.09571,48.7026],[-121.09633,48.70468],[-121.0962,48.70518],[-121.09569,48.70592],[-121.09573,48.70697],[-121.09593,48.70753],[-121.09651,48.70836],[-121.09666,48.70879],[-121.09653,48.70924],[-121.09625,48.70959],[-121.09575,48.70988],[-121.09521,48.71001],[-121.09282,48.70993],[-121.09238,48.70977],[-121.09196,48.70948],[-121.09141,48.70875],[-121.09074,48.70818],[-121.09012,48.70798],[-121.08938,48.70795],[-121.08866,48.70808],[-121.08694,48.70865],[-121.08542,48.70896],[-121.08423,48.70946],[-121.08293,48.70969],[-121.0811,48.71084],[-121.07925,48.71168],[-121.07889,48.71203],[-121.07894,48.71241],[-121.07947,48.7135],[-121.07954,48.71446],[-121.07925,48.71537],[-121.07817,48.71655],[-121.07743,48.71698],[-121.07692,48.71715],[-121.07445,48.7176],[-121.07198,48.71862],[-121.07001,48.71906],[-121.06923,48.71948],[-121.06898,48.71982],[-121.06862,48.72095],[-121.06761,48.72201],[-121.06663,48.7239],[-121.06553,48.72481],[-121.06372,48.72598],[-121.06319,48.72687],[-121.06267,48.72747],[-121.06204,48.7278],[-121.06111,48.72807],[-121.05474,48.72904],[-121.05327,48.72912],[-121.05248,48.72902],[-121.0499,48.72825],[-121.04845,48.72806],[-121.04249,48.72831],[-121.04145,48.72819],[-121.03752,48.72728],[-121.03191,48.72528],[-121.02957,48.72482],[-121.02532,48.72424],[-121.02237,48.72326],[-121.02019,48.72282],[-121.01926,48.7224],[-121.01821,48.7216],[-121.01719,48.72126],[-121.01529,48.72089],[-121.01102,48.71883],[-121.01011,48.71862],[-121.00837,48.7184],[-121.00762,48.71815],[-121.003,48.71559],[-120.99645,48.71374],[-120.99202,48.71221],[-120.99065,48.71189],[-120.9896,48.71151],[-120.9883,48.71079],[-120.9867,48.71023],[-120.97986,48.70853],[-120.977,48.70737],[-120.97578,48.70696],[-120.97206,48.70631],[-120.96887,48.70532],[-120.96691,48.70519],[-120.96395,48.70589],[-120.96208,48.70586],[-120.96094,48.70593],[-120.95977,48.70614],[-120.9582,48.70621],[-120.95718,48.70614],[-120.95453,48.70564],[-120.95369,48.70532],[-120.95267,48.70471],[-120.95199,48.70442],[-120.95076,48.70411],[-120.95021,48.70407],[-120.9493,48.70417],[-120.9473,48.70484],[-120.94527,48.70517],[-120.94279,48.70521],[-120.94074,48.70473],[-120.93972,48.70466],[-120.93873,48.70482],[-120.93748,48.70529],[-120.93661,48.70547],[-120.93568,48.7054],[-120.93274,48.70478],[-120.93213,48.70477],[-120.929,48.7056],[-120.9271,48.70584],[-120.92203,48.70612],[-120.91956,48.70587],[-120.91704,48.70618],[-120.91632,48.7062],[-120.91535,48.70591],[-120.91497,48.70569],[-120.91423,48.70496],[-120.91235,48.70413],[-120.91057,48.70297],[-120.91004,48.70273],[-120.90782,48.70217],[-120.90617,48.70084],[-120.90189,48.69931],[-120.90052,48.69799],[-120.90013,48.69776],[-120.89855,48.69713],[-120.89805,48.69671],[-120.89724,48.69526],[-120.89673,48.6946],[-120.89493,48.69364],[-120.89388,48.69244],[-120.89122,48.69097],[-120.89072,48.69039],[-120.89032,48.68939],[-120.88992,48.68899],[-120.88922,48.68865],[-120.88776,48.68839],[-120.88725,48.68815],[-120.88681,48.68772],[-120.88627,48.68615],[-120.88493,48.68487],[-120.88347,48.68248],[-120.88302,48.6814],[-120.88169,48.67986],[-120.88152,48.67815],[-120.87926,48.67423],[-120.8774,48.67207],[-120.8769,48.67076],[-120.87642,48.66997],[-120.8739,48.66806],[-120.8736,48.66769],[-120.87333,48.66667],[-120.8727,48.66582],[-120.86825,48.66252],[-120.8653,48.66159],[-120.86481,48.66132],[-120.86369,48.66023],[-120.86307,48.65981],[-120.86151,48.65908],[-120.86077,48.65862],[-120.86009,48.65789],[-120.85892,48.6558],[-120.85907,48.65389],[-120.85833,48.65231],[-120.85804,48.64949],[-120.85732,48.64829],[-120.85714,48.64719],[-120.85698,48.6469],[-120.85592,48.64597],[-120.85385,48.6429],[-120.85227,48.64101],[-120.85185,48.64036],[-120.85051,48.63732],[-120.85004,48.6366],[-120.84653,48.63272],[-120.84601,48.63186],[-120.84551,48.63068],[-120.84491,48.6299],[-120.84318,48.62873],[-120.8423,48.62793],[-120.83995,48.62392],[-120.83921,48.62325],[-120.83561,48.62159],[-120.83487,48.62103],[-120.83339,48.61892],[-120.83253,48.61816],[-120.83167,48.6177],[-120.82902,48.61657],[-120.82683,48.61496],[-120.82594,48.61394],[-120.82488,48.61184],[-120.82409,48.61106],[-120.8204,48.60892],[-120.81122,48.60208],[-120.80816,48.59972],[-120.80505,48.59663],[-120.8045,48.59585],[-120.80262,48.58923],[-120.80138,48.58752],[-120.79901,48.58474],[-120.79809,48.58389],[-120.79463,48.58116],[-120.79354,48.57999],[-120.79261,48.5784],[-120.79183,48.57642],[-120.79078,48.57508],[-120.78928,48.57418],[-120.78781,48.57363],[-120.78556,48.57245],[-120.78225,48.56937],[-120.7817,48.56868],[-120.78089,48.56706],[-120.78048,48.5665],[-120.77922,48.56537],[-120.77776,48.56461],[-120.7736,48.5632],[-120.77297,48.56285],[-120.77192,48.56183],[-120.76897,48.55797],[-120.76877,48.55716],[-120.76862,48.55528],[-120.76824,48.55445],[-120.76546,48.5506],[-120.76492,48.54793],[-120.76457,48.54714],[-120.76364,48.54625],[-120.76158,48.54501],[-120.7608,48.54417],[-120.75664,48.53712],[-120.75569,48.53589],[-120.75516,48.53543],[-120.75421,48.53489],[-120.74882,48.53288],[-120.74762,48.53235],[-120.73627,48.52463],[-120.73548,48.5239],[-120.73497,48.52322],[-120.73464,48.52254],[-120.7341,48.52057],[-120.73389,48.51268],[-120.73374,48.51127],[-120.73326,48.51039],[-120.73146,48.50844],[-120.73109,48.50772],[-120.73073,48.50624],[-120.73045,48.50578],[-120.72983,48.50526],[-120.72899,48.50489],[-120.72771,48.50475],[-120.7241,48.50494],[-120.71579,48.50437],[-120.71398,48.50406],[-120.71039,48.50307],[-120.7062,48.5014],[-120.70549,48.50133],[-120.70455,48.50143],[-120.70413,48.50158],[-120.70353,48.50198],[-120.70118,48.50388],[-120.69812,48.50519],[-120.69717,48.50568],[-120.69062,48.51153],[-120.68302,48.51657],[-120.68222,48.51699],[-120.67802,48.51864],[-120.67217,48.52039],[-120.67142,48.52076],[-120.66814,48.52299],[-120.66342,48.52439],[-120.66244,48.52459],[-120.66149,48.52464],[-120.65655,48.52429],[-120.65573,48.52417],[-120.65454,48.52374],[-120.64978,48.52088],[-120.64725,48.51699],[-120.64489,48.51469],[-120.64446,48.51441],[-120.64382,48.51427],[-120.64336,48.51429],[-120.64272,48.51446],[-120.6423,48.51491],[-120.64222,48.51514],[-120.64223,48.51541],[-120.64251,48.51584],[-120.64305,48.51611],[-120.64453,48.51649],[-120.64503,48.51677],[-120.64547,48.51718],[-120.6458,48.51777],[-120.64638,48.51893],[-120.64656,48.51981],[-120.64663,48.52068],[-120.64652,48.52154],[-120.64563,48.52439],[-120.64271,48.52975],[-120.64049,48.53195],[-120.63934,48.53355],[-120.63217,48.54506],[-120.63094,48.54888],[-120.63087,48.54986],[-120.63123,48.55216],[-120.63118,48.55452],[-120.63128,48.55533],[-120.63258,48.55955],[-120.63353,48.56143],[-120.63394,48.56183],[-120.63572,48.56279],[-120.63613,48.56316],[-120.63637,48.56383],[-120.63626,48.56431],[-120.63434,48.56694],[-120.6324,48.57],[-120.63123,48.57236],[-120.63102,48.57327],[-120.63085,48.57535],[-120.63055,48.57628],[-120.62959,48.57795],[-120.62909,48.57852],[-120.62252,48.58317],[-120.62009,48.58428],[-120.61956,48.58462],[-120.61915,48.58501],[-120.61639,48.58883],[-120.6154,48.58964],[-120.61392,48.59031],[-120.61298,48.59056],[-120.60998,48.59111],[-120.60917,48.59143],[-120.60158,48.59646],[-120.6005,48.59694],[-120.59871,48.5973],[-120.58956,48.59869],[-120.58746,48.59866],[-120.58319,48.59833],[-120.58094,48.59835],[-120.5745,48.59909],[-120.57372,48.59925],[-120.57112,48.6001],[-120.57043,48.60018],[-120.56692,48.60008],[-120.56011,48.60103],[-120.5584,48.60118],[-120.55568,48.60103],[-120.5472,48.59959],[-120.53875,48.59872],[-120.53782,48.59875],[-120.53449,48.59931],[-120.53328,48.59938],[-120.53251,48.59929],[-120.52533,48.59753],[-120.52386,48.59703],[-120.52298,48.5966],[-120.52015,48.59476],[-120.51611,48.5933],[-120.51258,48.59136],[-120.5117,48.591],[-120.50706,48.59015],[-120.50134,48.58842],[-120.49958,48.5882],[-120.49884,48.58825],[-120.49633,48.58879],[-120.49447,48.58887],[-120.49305,48.58865],[-120.48772,48.5872],[-120.48579,48.5869],[-120.4792,48.58682],[-120.47776,48.58692],[-120.47571,48.5875],[-120.47397,48.58823],[-120.47309,48.589],[-120.47233,48.58934],[-120.47007,48.58998],[-120.46868,48.59024],[-120.46511,48.59067],[-120.46412,48.59096],[-120.46078,48.59256],[-120.45861,48.5942],[-120.45766,48.59509],[-120.45661,48.59574],[-120.45534,48.59615],[-120.44453,48.5978],[-120.43958,48.59797],[-120.43751,48.59796],[-120.43482,48.5977],[-120.43141,48.59685],[-120.4288,48.59574],[-120.42546,48.59406],[-120.41549,48.58858],[-120.41437,48.58809],[-120.41349,48.58789],[-120.41083,48.58753],[-120.40921,48.5871],[-120.39242,48.57947],[-120.39163,48.579],[-120.39028,48.57781],[-120.3885,48.57605],[-120.38617,48.57407],[-120.38297,48.57099],[-120.38151,48.57022],[-120.37916,48.56954],[-120.37578,48.56871],[-120.37367,48.56789],[-120.3722,48.56685],[-120.36746,48.56186],[-120.36646,48.56123],[-120.36477,48.56041],[-120.36042,48.55885],[-120.35836,48.55792],[-120.35321,48.55446],[-120.35014,48.55255],[-120.347,48.55139],[-120.33971,48.54895],[-120.336,48.54715],[-120.33245,48.54559],[-120.33106,48.54524],[-120.32831,48.54517],[-120.32699,48.54504],[-120.32413,48.54436],[-120.32228,48.54356],[-120.32118,48.5428],[-120.32021,48.54177],[-120.31761,48.53754],[-120.31675,48.53663],[-120.31537,48.53569],[-120.30668,48.53253],[-120.30516,48.53214],[-120.3026,48.53174],[-120.30125,48.53139],[-120.29608,48.52918],[-120.29025,48.52702],[-120.27642,48.52169],[-120.27468,48.5209],[-120.27363,48.52014],[-120.27141,48.51789],[-120.27042,48.51719],[-120.26656,48.51495],[-120.26576,48.51458],[-120.26213,48.5133],[-120.2609,48.51274],[-120.25928,48.51162],[-120.25503,48.50675],[-120.25439,48.50574],[-120.25275,48.50259],[-120.25233,48.5021],[-120.25137,48.50134],[-120.25046,48.50081],[-120.24386,48.49763],[-120.23853,48.49537],[-120.23742,48.49478],[-120.23306,48.49229],[-120.22831,48.48882],[-120.22711,48.48817],[-120.22576,48.48761],[-120.22396,48.48714],[-120.21913,48.48663],[-120.21745,48.48626],[-120.2137,48.48477],[-120.21075,48.48392],[-120.19836,48.47957],[-120.19376,48.47809],[-120.1932,48.47796],[-120.19152,48.47784],[-120.18752,48.47711],[-120.18673,48.4772]]]}}
