{"type":"Feature","properties":{"id":"ojai-33","name":"Highway 33 \u00b7 Ojai","difficulty":3,"character":"Technical"},"geometry":{"type":"MultiLineString","coordinates":[[[-119.2609,34.44141],[-119.26129,34.44171],[-119.26179,34.44189],[-119.26442,34.44229],[-119.267,34.44292],[-119.26834,34.44357],[-119.26924,34.44433],[-119.27012,34.44557],[-119.27206,34.44987],[-119.27259,34.45086],[-119.273,34.45131],[-119.27342,34.45161],[-119.27524,34.45239],[-119.276,34.45283],[-119.27664,34.45351],[-119.27787,34.4551],[-119.27826,34.45596],[-119.27832,34.45824],[-119.27916,34.46032],[-119.27961,34.46071],[-119.28432,34.46357],[-119.28486,34.46414],[-119.28587,34.46703],[-119.2874,34.46913],[-119.28765,34.47091],[-119.2879,34.47128],[-119.28927,34.47258],[-119.28954,34.47299],[-119.2899,34.47386],[-119.29017,34.47523],[-119.29099,34.47682],[-119.29106,34.47732],[-119.29058,34.48052],[-119.29072,34.48121],[-119.29112,34.48188],[-119.29175,34.48243],[-119.29269,34.48287],[-119.29581,34.48342],[-119.29635,34.4836],[-119.29676,34.48392],[-119.29767,34.485],[-119.29843,34.48543],[-119.29913,34.48553],[-119.30053,34.48543],[-119.30271,34.48547],[-119.30327,34.48561],[-119.30369,34.48583],[-119.30445,34.48667],[-119.30519,34.48726],[-119.30543,34.48759],[-119.30563,34.48935],[-119.30545,34.49018],[-119.30611,34.49121],[-119.30642,34.49251],[-119.30641,34.49296],[-119.30552,34.49505],[-119.30512,34.49553],[-119.30425,34.49596],[-119.30186,34.49657],[-119.30115,34.4971],[-119.30108,34.49744],[-119.30146,34.49844],[-119.30133,34.49961],[-119.30018,34.50103],[-119.29876,34.502],[-119.29821,34.50268],[-119.29725,34.50421],[-119.29717,34.50462],[-119.29733,34.50526],[-119.29718,34.50562],[-119.29601,34.50619],[-119.29546,34.50697],[-119.29504,34.50731],[-119.29454,34.50742],[-119.29344,34.50738],[-119.29182,34.50801],[-119.28952,34.50801],[-119.28832,34.50863],[-119.28794,34.50873],[-119.2875,34.50872],[-119.28655,34.5085],[-119.28613,34.50852],[-119.28522,34.50899],[-119.28447,34.50908],[-119.28389,34.50882],[-119.28362,34.50844],[-119.28358,34.508],[-119.28395,34.50699],[-119.28376,34.50653],[-119.28348,34.50631],[-119.28251,34.50604],[-119.28149,34.50552],[-119.28116,34.50552],[-119.28014,34.50573],[-119.27843,34.50539],[-119.27785,34.50568],[-119.27736,34.50627],[-119.27473,34.50852],[-119.27458,34.50887],[-119.2746,34.50904],[-119.27497,34.50955],[-119.27509,34.50995],[-119.27495,34.51062],[-119.27138,34.51438],[-119.27079,34.51552],[-119.27077,34.51631],[-119.27102,34.51915],[-119.27119,34.51968],[-119.2716,34.52018],[-119.27192,34.5204],[-119.27252,34.52063],[-119.27301,34.52071],[-119.27363,34.52065],[-119.27425,34.5204],[-119.27701,34.51868],[-119.2775,34.51823],[-119.27765,34.51794],[-119.27757,34.51649],[-119.27765,34.51611],[-119.278,34.51565],[-119.27843,34.51538],[-119.27925,34.5152],[-119.28067,34.51553],[-119.28129,34.51551],[-119.28154,34.51538],[-119.28203,34.51478],[-119.28252,34.5146],[-119.28317,34.51481],[-119.28338,34.51511],[-119.28338,34.51539],[-119.28319,34.51575],[-119.28183,34.51651],[-119.28158,34.51683],[-119.28161,34.51741],[-119.2822,34.51814],[-119.28207,34.51857],[-119.28154,34.51879],[-119.28065,34.51849],[-119.27992,34.51863],[-119.279,34.51976],[-119.27866,34.52087],[-119.27843,34.52107],[-119.27777,34.52132],[-119.2774,34.52162],[-119.27725,34.52237],[-119.27706,34.52262],[-119.27682,34.52275],[-119.27475,34.52328],[-119.2742,34.52408],[-119.27346,34.52461],[-119.27309,34.52559],[-119.27268,34.52581],[-119.27147,34.52592],[-119.271,34.52623],[-119.2707,34.52697],[-119.2708,34.52796],[-119.2704,34.52842],[-119.27024,34.5288],[-119.27029,34.52912],[-119.2706,34.52969],[-119.27054,34.52996],[-119.27039,34.5301],[-119.26997,34.5302],[-119.26953,34.53007],[-119.26881,34.53011],[-119.2684,34.53],[-119.26817,34.5298],[-119.26787,34.52885],[-119.26769,34.52863],[-119.26715,34.52837],[-119.26655,34.52843],[-119.26556,34.52904],[-119.2653,34.52929],[-119.26515,34.52967],[-119.26523,34.53032],[-119.26508,34.53061],[-119.26395,34.53099],[-119.26353,34.53167],[-119.26324,34.53189],[-119.26235,34.53203],[-119.26197,34.53221],[-119.26171,34.53251],[-119.26159,34.5332],[-119.26137,34.5335],[-119.26104,34.53364],[-119.26018,34.53373],[-119.25956,34.53398],[-119.25826,34.53459],[-119.25719,34.53541],[-119.25635,34.53573],[-119.25537,34.53579],[-119.25282,34.5355],[-119.2519,34.53575],[-119.25143,34.53576],[-119.24942,34.53482],[-119.24875,34.53471],[-119.24816,34.53492],[-119.24701,34.5362],[-119.24572,34.53699],[-119.24542,34.53707],[-119.24511,34.53704],[-119.24461,34.53672],[-119.24449,34.53641],[-119.24464,34.53603],[-119.24487,34.53586],[-119.24558,34.53558],[-119.24582,34.53534],[-119.2463,34.53335],[-119.24664,34.53282],[-119.24715,34.53238],[-119.24792,34.53204],[-119.24835,34.53194],[-119.2493,34.53189],[-119.25033,34.53153],[-119.2507,34.53151],[-119.25167,34.53168],[-119.25204,34.53161],[-119.25234,34.53142],[-119.25264,34.53086],[-119.25263,34.53041],[-119.25228,34.53002],[-119.25175,34.52989],[-119.24873,34.53057],[-119.24781,34.53118],[-119.24686,34.53137],[-119.24534,34.53188],[-119.24495,34.53212],[-119.24447,34.53274],[-119.24278,34.53342],[-119.24144,34.53345],[-119.23694,34.53491],[-119.23608,34.53498],[-119.23522,34.53491],[-119.2346,34.53513],[-119.23435,34.53545],[-119.23432,34.53598],[-119.23447,34.53626],[-119.23507,34.53687],[-119.23522,34.5373],[-119.23508,34.53772],[-119.23448,34.53822],[-119.23427,34.53852],[-119.23424,34.53887],[-119.23441,34.53914],[-119.23475,34.53932],[-119.23568,34.5395],[-119.23764,34.54042],[-119.2382,34.54049],[-119.23903,34.54041],[-119.23948,34.54049],[-119.24098,34.54122],[-119.24129,34.5415],[-119.24142,34.54178],[-119.24136,34.54236],[-119.24093,34.543],[-119.23903,34.54423],[-119.23852,34.54484],[-119.238,34.54576],[-119.23743,34.54629],[-119.23711,34.54721],[-119.23726,34.54797],[-119.23756,34.54845],[-119.23919,34.55021],[-119.24151,34.55198],[-119.24175,34.55243],[-119.24194,34.5533],[-119.24213,34.55356],[-119.24241,34.55376],[-119.24283,34.55389],[-119.2442,34.55395],[-119.24474,34.55414],[-119.24516,34.55455],[-119.24591,34.55586],[-119.24633,34.55621],[-119.24676,34.5564],[-119.25072,34.55679],[-119.25611,34.55691],[-119.25697,34.5567],[-119.25989,34.55559],[-119.26066,34.5555],[-119.26483,34.55539],[-119.26556,34.55542],[-119.26645,34.55567],[-119.26703,34.55599],[-119.26763,34.55654],[-119.26797,34.55716],[-119.26845,34.55856],[-119.26853,34.55912],[-119.26841,34.55964],[-119.26816,34.56001],[-119.26772,34.56031],[-119.26559,34.56099],[-119.26503,34.56146],[-119.26476,34.56213],[-119.2649,34.56325],[-119.26466,34.56425],[-119.25904,34.57159],[-119.25881,34.57207],[-119.25877,34.57264],[-119.25931,34.57387],[-119.25928,34.57462],[-119.25899,34.57509],[-119.2576,34.57652],[-119.25724,34.57709],[-119.25741,34.57757],[-119.25813,34.57843],[-119.25902,34.57975],[-119.26032,34.58056],[-119.26043,34.58082],[-119.26042,34.58177],[-119.2606,34.5822],[-119.26211,34.58401],[-119.26294,34.58471],[-119.2636,34.58486],[-119.26469,34.58474],[-119.2652,34.58458],[-119.26592,34.58419],[-119.26659,34.58412],[-119.2672,34.5843],[-119.26814,34.58496],[-119.26853,34.58501],[-119.26902,34.5848],[-119.26956,34.58422],[-119.27,34.58357],[-119.2704,34.58334],[-119.271,34.58332],[-119.27222,34.58369],[-119.27305,34.58375],[-119.27351,34.58395],[-119.27385,34.58426],[-119.27442,34.58603],[-119.27462,34.58629],[-119.27498,34.5865],[-119.27658,34.58678],[-119.27744,34.58655],[-119.27792,34.58655],[-119.27887,34.58691],[-119.28007,34.58716],[-119.28119,34.58768],[-119.28221,34.58779],[-119.28251,34.58794],[-119.28273,34.5882],[-119.28279,34.5893],[-119.28315,34.58971],[-119.28367,34.58987],[-119.28554,34.58997],[-119.2861,34.59007],[-119.28655,34.59034],[-119.28728,34.59115],[-119.28765,34.59131],[-119.28836,34.59131],[-119.29089,34.59034],[-119.29175,34.59031],[-119.29231,34.59041],[-119.29303,34.59071],[-119.29413,34.59167],[-119.29499,34.59209],[-119.29563,34.59217],[-119.29823,34.59198],[-119.29918,34.5921],[-119.29983,34.59235],[-119.30042,34.5928],[-119.30091,34.59351],[-119.30115,34.59446],[-119.30138,34.59484],[-119.30158,34.59502],[-119.30208,34.59521],[-119.30279,34.59515],[-119.3046,34.59431],[-119.30544,34.59422],[-119.30646,34.5945],[-119.3079,34.59549],[-119.30828,34.5956],[-119.30872,34.59561],[-119.30944,34.59538],[-119.31032,34.59472],[-119.31081,34.59446],[-119.31172,34.59424],[-119.31389,34.59393],[-119.31475,34.59409],[-119.31664,34.59513],[-119.31706,34.59522],[-119.31872,34.59528],[-119.3193,34.59546],[-119.32064,34.59615],[-119.3217,34.5964],[-119.32258,34.5964],[-119.32627,34.59576],[-119.32728,34.5958],[-119.32913,34.59644],[-119.33599,34.59931],[-119.33665,34.5999],[-119.3386,34.60226],[-119.33921,34.60268],[-119.33999,34.60295],[-119.34082,34.60298],[-119.34151,34.6028],[-119.34211,34.60243],[-119.34333,34.60136],[-119.34538,34.60043],[-119.34672,34.60032],[-119.34746,34.60046],[-119.34844,34.60089],[-119.34884,34.6012],[-119.35259,34.60551],[-119.3534,34.60609],[-119.35462,34.60653],[-119.35537,34.60668],[-119.35769,34.60619],[-119.35934,34.60609],[-119.36038,34.60615],[-119.3613,34.60657],[-119.36225,34.60741],[-119.36258,34.6076],[-119.36306,34.60776],[-119.36454,34.60803],[-119.3653,34.60838],[-119.36573,34.6087],[-119.36745,34.61052],[-119.3686,34.61227],[-119.36941,34.6133],[-119.36997,34.61375],[-119.37117,34.61436],[-119.37163,34.61474],[-119.37203,34.61534],[-119.37219,34.61583],[-119.37202,34.61763],[-119.37247,34.61934],[-119.3725,34.62026],[-119.37235,34.6209],[-119.37189,34.62215],[-119.37156,34.62271],[-119.37139,34.62335],[-119.37134,34.62415],[-119.37186,34.62561],[-119.37205,34.6277],[-119.37184,34.62868],[-119.37134,34.62961],[-119.37128,34.63023],[-119.37143,34.63071],[-119.37211,34.63186],[-119.37275,34.63501],[-119.37278,34.63608],[-119.37296,34.63656],[-119.3734,34.63726],[-119.37337,34.63769],[-119.37299,34.63849],[-119.3731,34.63906],[-119.37335,34.6395],[-119.37431,34.64021],[-119.37469,34.64066],[-119.37712,34.64467],[-119.37728,34.64525],[-119.37707,34.64592],[-119.37641,34.64645],[-119.37578,34.64662],[-119.37418,34.64667],[-119.37373,34.64684],[-119.37331,34.64731],[-119.37332,34.64782],[-119.37362,34.64826],[-119.37385,34.64842],[-119.37541,34.64905],[-119.3759,34.64916],[-119.37638,34.64913],[-119.37808,34.64866],[-119.3797,34.64887],[-119.38035,34.64887],[-119.3835,34.64834],[-119.38423,34.64836],[-119.38485,34.64858],[-119.38522,34.6489],[-119.38545,34.64935],[-119.38551,34.64997],[-119.38532,34.65048],[-119.38488,34.65103],[-119.38433,34.65127],[-119.38307,34.65131],[-119.38257,34.65147],[-119.38123,34.6526],[-119.38047,34.65346],[-119.3804,34.65409],[-119.38066,34.65449],[-119.38116,34.65478],[-119.38247,34.65518],[-119.3831,34.65608],[-119.38302,34.65651],[-119.38216,34.65707],[-119.38163,34.65798],[-119.3813,34.65816],[-119.38057,34.65826],[-119.37955,34.6586],[-119.37917,34.65851],[-119.37849,34.65798],[-119.37794,34.65795],[-119.37748,34.65817],[-119.3762,34.65933],[-119.3757,34.66053],[-119.37498,34.66124],[-119.37481,34.66168],[-119.37483,34.66208],[-119.37512,34.66307],[-119.37588,34.66366],[-119.37606,34.66393],[-119.37605,34.66422],[-119.37588,34.6644],[-119.37532,34.66468],[-119.37484,34.66467],[-119.37457,34.66452],[-119.3742,34.66406],[-119.37326,34.66385],[-119.37297,34.66366],[-119.37243,34.66268],[-119.37235,34.66174],[-119.37186,34.66036],[-119.37153,34.66015],[-119.37116,34.66015],[-119.37091,34.6603],[-119.3708,34.6606],[-119.3713,34.66146],[-119.37108,34.66225],[-119.37108,34.66311],[-119.37071,34.66414],[-119.37142,34.66601],[-119.3714,34.66629],[-119.37123,34.66648],[-119.37086,34.66665],[-119.36866,34.66651],[-119.36821,34.66655],[-119.36767,34.66671],[-119.36605,34.66751],[-119.36555,34.66766],[-119.36488,34.66762],[-119.36438,34.66744],[-119.36378,34.66706],[-119.36308,34.66692],[-119.36261,34.6671],[-119.36208,34.66758],[-119.36202,34.66823],[-119.36218,34.66863],[-119.36281,34.66929],[-119.36337,34.66955],[-119.36431,34.66966],[-119.3658,34.66966],[-119.36875,34.66938],[-119.37019,34.66932],[-119.37215,34.66985],[-119.37283,34.67023],[-119.37297,34.67049],[-119.37297,34.67089],[-119.37223,34.67215],[-119.37158,34.67369],[-119.37153,34.67436],[-119.37162,34.6756],[-119.37138,34.67698],[-119.37104,34.67785],[-119.3707,34.67811],[-119.37037,34.67819],[-119.3666,34.67811],[-119.36385,34.67841],[-119.36001,34.67823],[-119.35913,34.67835],[-119.35847,34.6786],[-119.35811,34.67876],[-119.35755,34.6792],[-119.35566,34.6812],[-119.35536,34.68164],[-119.35504,34.6826],[-119.35499,34.68507],[-119.35522,34.68576],[-119.3555,34.68624],[-119.35589,34.6867],[-119.35655,34.68721],[-119.35735,34.68758],[-119.36054,34.68867],[-119.3621,34.68956],[-119.36418,34.69149],[-119.36973,34.697],[-119.37113,34.69796],[-119.37372,34.69942],[-119.37432,34.69992],[-119.37463,34.70049],[-119.37615,34.70507],[-119.37668,34.70629],[-119.38223,34.71538],[-119.38353,34.71864],[-119.38402,34.71957]]]}}
