{"type":"Feature","properties":{"id":"old-topanga-canyon","name":"Old Topanga Canyon Road","difficulty":3,"character":"Technical"},"geometry":{"type":"MultiLineString","coordinates":[[[-118.60438,34.08964],[-118.60461,34.08969],[-118.60502,34.09],[-118.60525,34.09084],[-118.60611,34.09139],[-118.60675,34.09201],[-118.60763,34.09236],[-118.60848,34.09286],[-118.60956,34.09311],[-118.60999,34.09357],[-118.61038,34.09379],[-118.61148,34.09411],[-118.61171,34.09428],[-118.61223,34.09503],[-118.61331,34.09579],[-118.61466,34.0963],[-118.61526,34.09688],[-118.61606,34.09715],[-118.61652,34.09741],[-118.61725,34.09823],[-118.61756,34.09905],[-118.61857,34.10011],[-118.61896,34.10033],[-118.62027,34.10071],[-118.62083,34.10121],[-118.62126,34.10185],[-118.62158,34.10321],[-118.62231,34.10394],[-118.62264,34.10412],[-118.62326,34.10416],[-118.62417,34.10437],[-118.62738,34.10405],[-118.6281,34.10414],[-118.62861,34.10439],[-118.62892,34.10469],[-118.6293,34.10557],[-118.62915,34.108],[-118.6293,34.10891],[-118.63043,34.1099],[-118.63123,34.11025],[-118.63205,34.11153],[-118.6337,34.11158],[-118.63405,34.11182],[-118.63414,34.11206],[-118.63409,34.11294],[-118.63431,34.11345],[-118.63378,34.11422],[-118.63365,34.11462],[-118.63367,34.11544],[-118.6338,34.11605],[-118.63349,34.11662],[-118.63351,34.11711],[-118.63362,34.11747],[-118.63404,34.11808],[-118.63447,34.11846],[-118.63502,34.11868],[-118.63508,34.11887],[-118.63496,34.11899],[-118.63466,34.11906],[-118.6339,34.11892],[-118.63371,34.11899],[-118.63363,34.11914],[-118.63379,34.1195],[-118.63375,34.11967],[-118.63303,34.11984],[-118.63272,34.12003],[-118.6324,34.1204],[-118.6321,34.12108],[-118.63137,34.12148],[-118.63117,34.12225],[-118.63077,34.12276],[-118.63045,34.12337],[-118.63045,34.12362],[-118.63164,34.12433],[-118.63186,34.12432],[-118.63195,34.1242],[-118.63192,34.12401],[-118.63143,34.12349],[-118.63124,34.1231],[-118.63143,34.12287],[-118.6317,34.12286],[-118.63227,34.12318],[-118.63263,34.12401],[-118.63323,34.12468],[-118.63401,34.12474],[-118.63514,34.12513],[-118.63537,34.1251],[-118.63581,34.12478],[-118.6361,34.12416],[-118.63639,34.12394],[-118.63664,34.12391],[-118.63711,34.12411],[-118.63793,34.12418],[-118.63819,34.1243],[-118.6382,34.12465],[-118.63775,34.12506],[-118.63793,34.12526],[-118.63856,34.12536],[-118.63903,34.12509],[-118.63934,34.12508],[-118.63954,34.12518],[-118.63983,34.12553],[-118.64111,34.12558],[-118.64198,34.12589],[-118.64211,34.12605],[-118.64203,34.12619],[-118.64182,34.12626],[-118.64142,34.12616],[-118.64095,34.12583],[-118.63927,34.12585],[-118.63826,34.12621],[-118.63729,34.12636],[-118.6372,34.12651],[-118.63721,34.12743],[-118.63624,34.12875],[-118.63589,34.12985],[-118.63565,34.13025],[-118.63576,34.13114],[-118.63559,34.13171],[-118.63567,34.13232],[-118.63555,34.13281],[-118.63486,34.13384],[-118.63428,34.13414],[-118.63344,34.13441],[-118.6332,34.13468]]]}}
