{"type":"Feature","properties":{"id":"old-la-honda","name":"Old La Honda Road","difficulty":3,"character":"Technical"},"geometry":{"type":"MultiLineString","coordinates":[[[-122.24896,37.38996],[-122.24939,37.38916],[-122.24911,37.38882],[-122.24899,37.38833],[-122.24867,37.3881],[-122.24864,37.38772],[-122.24868,37.38761],[-122.24908,37.38738],[-122.24914,37.38723],[-122.24895,37.38709],[-122.24808,37.38683],[-122.24805,37.38664],[-122.24868,37.38601],[-122.24862,37.38536],[-122.24818,37.38494],[-122.24841,37.38424],[-122.248,37.38386],[-122.24813,37.3836],[-122.24842,37.38343],[-122.2492,37.38335],[-122.24943,37.38324],[-122.2495,37.3831],[-122.24941,37.38262],[-122.24969,37.38212],[-122.25002,37.3818],[-122.25046,37.38164],[-122.25111,37.38162],[-122.25204,37.38115],[-122.25282,37.38122],[-122.25324,37.3816],[-122.25384,37.3818],[-122.25405,37.38204],[-122.25398,37.3827],[-122.2542,37.38293],[-122.25445,37.38289],[-122.25491,37.38262],[-122.25567,37.38242],[-122.25578,37.3823],[-122.25563,37.38192],[-122.2551,37.38169],[-122.2548,37.38141],[-122.25458,37.38087],[-122.25428,37.38063],[-122.25417,37.38008],[-122.25386,37.37967],[-122.25349,37.37949],[-122.2527,37.37931],[-122.25186,37.37888],[-122.25186,37.37826],[-122.25156,37.37681],[-122.25343,37.37542],[-122.25384,37.37439],[-122.25368,37.37386],[-122.25386,37.3734],[-122.25372,37.37282],[-122.25356,37.37264],[-122.25279,37.37226],[-122.25249,37.37178],[-122.25258,37.37155],[-122.25286,37.37127],[-122.25342,37.37105],[-122.25357,37.37049],[-122.25414,37.37047],[-122.25445,37.37024],[-122.2546,37.36974],[-122.25536,37.36959],[-122.25633,37.36887],[-122.25643,37.36867],[-122.25611,37.36805],[-122.25613,37.36784],[-122.25656,37.36746],[-122.25725,37.36722],[-122.25744,37.367],[-122.25757,37.36663],[-122.25745,37.36559],[-122.25731,37.36519],[-122.25666,37.36513],[-122.25646,37.36502],[-122.25655,37.36463],[-122.25697,37.36404],[-122.2567,37.36381],[-122.25673,37.36343],[-122.25649,37.36299],[-122.25567,37.36292],[-122.2548,37.36303],[-122.25465,37.36313],[-122.25452,37.36352],[-122.25433,37.3636],[-122.2542,37.36332],[-122.25386,37.36307],[-122.25343,37.36298],[-122.25285,37.36315],[-122.25203,37.36303],[-122.25205,37.36291],[-122.25268,37.36256],[-122.25307,37.36246],[-122.25305,37.36211],[-122.25318,37.36189],[-122.25437,37.36099],[-122.25432,37.36082],[-122.25376,37.36031],[-122.2531,37.3601],[-122.25304,37.35999],[-122.2535,37.35968],[-122.25445,37.35952],[-122.25658,37.36057],[-122.25705,37.36066],[-122.25831,37.36134],[-122.25878,37.36147],[-122.25898,37.36143],[-122.25934,37.3612],[-122.25948,37.36086],[-122.25917,37.36019],[-122.25996,37.35997],[-122.26012,37.35906],[-122.26048,37.35846],[-122.26071,37.35841],[-122.26114,37.35857],[-122.26185,37.35861],[-122.26259,37.35914],[-122.26309,37.35932],[-122.26364,37.35907],[-122.26393,37.35882],[-122.26419,37.35837],[-122.26421,37.35782],[-122.26431,37.35767],[-122.2645,37.3576],[-122.26531,37.35764],[-122.26588,37.35722],[-122.26613,37.35718]],[[-122.24464,37.38991],[-122.2447,37.38923],[-122.24454,37.38884],[-122.24481,37.38865],[-122.24486,37.38849],[-122.24446,37.3883],[-122.24435,37.38814],[-122.24441,37.38806],[-122.24518,37.38819],[-122.24592,37.38913],[-122.24652,37.38958]]]}}
