{"type":"Feature","properties":{"id":"old-santa-cruz","name":"Old Santa Cruz Highway","difficulty":2,"character":"Low speed"},"geometry":{"type":"MultiLineString","coordinates":[[[-121.99272,37.19104],[-121.99243,37.19066],[-121.99235,37.1898],[-121.99115,37.18785],[-121.99096,37.18718],[-121.99092,37.1865],[-121.99103,37.18581],[-121.99134,37.18504],[-121.99346,37.18133],[-121.99353,37.18088],[-121.99329,37.18055],[-121.99292,37.18041],[-121.99216,37.18053],[-121.98967,37.18063],[-121.98934,37.18054],[-121.98923,37.18039],[-121.98915,37.17958],[-121.98953,37.17822],[-121.98955,37.17748],[-121.98843,37.17571],[-121.98829,37.17467],[-121.98718,37.17345],[-121.9872,37.1733],[-121.98756,37.17285],[-121.98736,37.17242],[-121.98731,37.1719],[-121.9876,37.1715],[-121.98758,37.17125],[-121.98667,37.17101],[-121.98654,37.17094],[-121.98631,37.17044],[-121.98562,37.17023],[-121.98537,37.17005],[-121.9851,37.16971],[-121.98508,37.16902],[-121.98489,37.16888],[-121.98413,37.16864],[-121.98372,37.16837],[-121.9831,37.16678],[-121.98234,37.16608],[-121.9824,37.16574],[-121.98256,37.1656],[-121.98339,37.16538],[-121.98403,37.1648],[-121.98573,37.1643],[-121.98656,37.16434],[-121.98703,37.16401],[-121.98777,37.16392],[-121.98789,37.16368],[-121.98774,37.16357],[-121.98747,37.16354],[-121.98611,37.16369],[-121.98586,37.1636],[-121.98513,37.16307],[-121.98442,37.16313],[-121.98405,37.163],[-121.9839,37.1628],[-121.98375,37.16196],[-121.98275,37.16165],[-121.98217,37.1611],[-121.98195,37.16044],[-121.98008,37.15964],[-121.97998,37.15918],[-121.97914,37.1588],[-121.979,37.15854],[-121.97896,37.15806],[-121.97847,37.15764],[-121.97868,37.1572],[-121.9797,37.1569],[-121.97991,37.15676],[-121.97996,37.15663],[-121.97979,37.15608],[-121.9799,37.15579],[-121.98011,37.15558],[-121.98085,37.15516],[-121.98229,37.15358],[-121.98237,37.15327],[-121.98223,37.15255],[-121.98257,37.15193],[-121.98259,37.15143],[-121.98241,37.15128],[-121.98222,37.15127],[-121.98134,37.15149],[-121.98069,37.1513],[-121.98003,37.15131],[-121.97923,37.15113],[-121.97827,37.15156],[-121.97736,37.15128],[-121.97695,37.15137],[-121.97646,37.15165],[-121.97603,37.15205],[-121.97535,37.15187],[-121.97473,37.15183],[-121.97418,37.15124],[-121.97371,37.15091],[-121.97346,37.15014],[-121.97481,37.14759],[-121.97479,37.14727],[-121.97466,37.14715],[-121.97385,37.1469],[-121.97267,37.1467],[-121.97218,37.14645],[-121.97138,37.14576],[-121.97066,37.14477],[-121.97018,37.14429],[-121.9698,37.1435],[-121.96913,37.14312],[-121.96806,37.14285],[-121.96786,37.14249],[-121.968,37.14186],[-121.96846,37.14108],[-121.96856,37.14073],[-121.96825,37.13947],[-121.9673,37.13816],[-121.96718,37.13767],[-121.96811,37.13666],[-121.96856,37.13645],[-121.96954,37.13653],[-121.97002,37.13644],[-121.97053,37.13664],[-121.97071,37.13656],[-121.97113,37.13598],[-121.97154,37.13598],[-121.9726,37.13664],[-121.97424,37.13803],[-121.97465,37.13893],[-121.97482,37.139],[-121.97504,37.139],[-121.97557,37.1386],[-121.9762,37.1385],[-121.9772,37.13871],[-121.97728,37.13924],[-121.97739,37.1394],[-121.97786,37.13945],[-121.97837,37.13974],[-121.97964,37.1394],[-121.9798,37.13946],[-121.98004,37.13976],[-121.98022,37.13982],[-121.98088,37.13955],[-121.98143,37.13976],[-121.98176,37.13962],[-121.98244,37.13957],[-121.98253,37.13948],[-121.9825,37.13921],[-121.98171,37.13821],[-121.98174,37.13802],[-121.98214,37.13765],[-121.98212,37.1374],[-121.9818,37.13727],[-121.98072,37.13727],[-121.97994,37.13717],[-121.97958,37.13695],[-121.97946,37.13583],[-121.97871,37.13481],[-121.97865,37.13379],[-121.97826,37.13341],[-121.97828,37.13325],[-121.97859,37.13288],[-121.9786,37.13272],[-121.9784,37.13251],[-121.97776,37.13227],[-121.97773,37.13206],[-121.97797,37.1317],[-121.97799,37.13147],[-121.97766,37.1312],[-121.97746,37.13059],[-121.97648,37.12985],[-121.97613,37.12948],[-121.97567,37.12811],[-121.97579,37.1278]]]}}
