{"type":"Feature","properties":{"id":"ortega-highway","name":"Ortega Highway \u00b7 SR 74","difficulty":3,"character":"Technical"},"geometry":{"type":"MultiLineString","coordinates":[[[-117.65997,33.50167],[-117.65963,33.50206],[-117.65922,33.5023],[-117.65902,33.50229],[-117.65481,33.5036],[-117.65392,33.5039],[-117.65328,33.50423],[-117.65223,33.50509],[-117.65132,33.50638],[-117.65047,33.50716],[-117.64662,33.50954],[-117.64294,33.5115],[-117.64076,33.5124],[-117.63791,33.51313],[-117.63553,33.51417],[-117.63296,33.51499],[-117.63146,33.51582],[-117.62758,33.51837],[-117.62686,33.51871],[-117.62556,33.51902],[-117.62138,33.51938],[-117.61948,33.51966],[-117.61576,33.52074],[-117.61402,33.52169],[-117.61312,33.52198],[-117.61228,33.522],[-117.60987,33.52182],[-117.60917,33.52194],[-117.60818,33.52235],[-117.6074,33.52254],[-117.60653,33.52252],[-117.60558,33.52237],[-117.605,33.52218],[-117.6044,33.52186],[-117.60201,33.51974],[-117.60132,33.51933],[-117.59329,33.51682],[-117.59252,33.51647],[-117.5915,33.5158],[-117.59101,33.51558],[-117.58767,33.51467],[-117.5858,33.51468],[-117.58495,33.51457],[-117.58337,33.51386],[-117.58256,33.51367],[-117.58187,33.51365],[-117.57644,33.51422],[-117.57362,33.51473],[-117.57294,33.5147],[-117.57105,33.5144],[-117.56777,33.51443],[-117.56671,33.5146],[-117.56548,33.51507],[-117.56467,33.51562],[-117.56313,33.51739],[-117.56151,33.51863],[-117.56068,33.51945],[-117.56014,33.52036],[-117.55979,33.52143],[-117.55926,33.52219],[-117.55831,33.52284],[-117.55493,33.52448],[-117.55414,33.52521],[-117.55377,33.52574],[-117.55323,33.52686],[-117.55275,33.52901],[-117.55072,33.532],[-117.55003,33.53324],[-117.54954,33.53469],[-117.54922,33.53809],[-117.54856,33.54065],[-117.54871,33.54177],[-117.54929,33.54336],[-117.54948,33.5442],[-117.54872,33.54751],[-117.54916,33.55558],[-117.54893,33.55686],[-117.54494,33.56656],[-117.54112,33.5739],[-117.54073,33.57445],[-117.53817,33.57643],[-117.53728,33.57729],[-117.53682,33.57761],[-117.53581,33.57812],[-117.52417,33.58309],[-117.5227,33.58406],[-117.52234,33.58439],[-117.52214,33.58478],[-117.52196,33.58588],[-117.52146,33.58654],[-117.52084,33.58686],[-117.51841,33.58752],[-117.5173,33.58801],[-117.51651,33.58868],[-117.51516,33.58931],[-117.51461,33.58972],[-117.51428,33.59016],[-117.51393,33.59106],[-117.51368,33.59146],[-117.5129,33.59193],[-117.51174,33.59236],[-117.5113,33.59241],[-117.51075,33.59234],[-117.50858,33.59155],[-117.50804,33.5915],[-117.50706,33.59163],[-117.50647,33.59157],[-117.5041,33.5904],[-117.50348,33.59022],[-117.50267,33.59022],[-117.50089,33.5907],[-117.49983,33.5904],[-117.49939,33.59038],[-117.49812,33.59077],[-117.49771,33.59099],[-117.49745,33.59133],[-117.49718,33.592],[-117.49688,33.59224],[-117.49487,33.59278],[-117.49395,33.59262],[-117.49282,33.59225],[-117.49232,33.59233],[-117.49183,33.59257],[-117.49127,33.59321],[-117.49078,33.59344],[-117.48978,33.59338],[-117.48918,33.59343],[-117.48744,33.59414],[-117.4869,33.59411],[-117.48601,33.59386],[-117.48545,33.59395],[-117.48519,33.59412],[-117.48446,33.59488],[-117.48381,33.59524],[-117.48351,33.59529],[-117.48323,33.59527],[-117.48246,33.59498],[-117.48027,33.59445],[-117.47958,33.59407],[-117.47835,33.59308],[-117.47437,33.5919],[-117.47358,33.59188],[-117.47267,33.59221],[-117.47222,33.59223],[-117.47189,33.59217],[-117.47057,33.59156],[-117.46988,33.59157],[-117.46932,33.59187],[-117.46908,33.59219],[-117.46873,33.59304],[-117.4682,33.5934],[-117.46744,33.59349],[-117.46615,33.59331],[-117.46539,33.59363],[-117.46464,33.59452],[-117.46451,33.59479],[-117.46435,33.59543],[-117.46436,33.59652],[-117.46403,33.59696],[-117.46338,33.59712],[-117.46258,33.59685],[-117.46218,33.59682],[-117.46155,33.59707],[-117.46136,33.59732],[-117.46102,33.59835],[-117.46011,33.59975],[-117.45972,33.60108],[-117.45936,33.60148],[-117.45807,33.6021],[-117.45646,33.60245],[-117.45546,33.60297],[-117.45502,33.60309],[-117.45458,33.60311],[-117.45294,33.60288],[-117.45198,33.60326],[-117.45151,33.60333],[-117.45109,33.60322],[-117.4502,33.60278],[-117.44955,33.60284],[-117.44826,33.60404],[-117.44752,33.60521],[-117.44723,33.60543],[-117.44621,33.60583],[-117.44539,33.60658],[-117.44204,33.60745],[-117.4412,33.60785],[-117.44001,33.60869],[-117.43891,33.60898],[-117.43856,33.60916],[-117.4368,33.61135],[-117.43628,33.61258],[-117.43581,33.61292],[-117.43523,33.61299],[-117.43469,33.61284],[-117.4342,33.61221],[-117.4342,33.61131],[-117.43356,33.61016],[-117.43332,33.60846],[-117.43348,33.60738],[-117.43316,33.60612],[-117.43284,33.60581],[-117.43235,33.60561],[-117.43195,33.60558],[-117.43159,33.60569],[-117.43133,33.60606],[-117.43092,33.60775],[-117.43055,33.60839],[-117.42721,33.6114],[-117.42684,33.61193],[-117.42652,33.61292],[-117.42654,33.6152],[-117.42642,33.61562],[-117.42606,33.616],[-117.42493,33.6167],[-117.42441,33.61726],[-117.42376,33.61885],[-117.42307,33.61987],[-117.42311,33.62031],[-117.42327,33.62056],[-117.42367,33.6208],[-117.42426,33.62085],[-117.42462,33.62071],[-117.42494,33.62036],[-117.42512,33.61891],[-117.42548,33.6184],[-117.42608,33.61823],[-117.42659,33.61834],[-117.42691,33.61861],[-117.42705,33.61907],[-117.42687,33.6195],[-117.4262,33.62008],[-117.42579,33.6208],[-117.42502,33.62145],[-117.42484,33.62192],[-117.42487,33.62354],[-117.42592,33.62479],[-117.42616,33.62538],[-117.42587,33.62757],[-117.42524,33.62895],[-117.42506,33.63124],[-117.42506,33.63282],[-117.4244,33.63396],[-117.42416,33.63554],[-117.42395,33.63596],[-117.42362,33.63631],[-117.42245,33.63704],[-117.42203,33.6376],[-117.42171,33.64044],[-117.42047,33.64391],[-117.42014,33.64435],[-117.41702,33.64712],[-117.41668,33.64777],[-117.41655,33.64859],[-117.41634,33.64921],[-117.41592,33.64976],[-117.41496,33.65046],[-117.41429,33.65084],[-117.41382,33.65101],[-117.41217,33.65129],[-117.40888,33.65215],[-117.40362,33.65311],[-117.403,33.65355],[-117.40232,33.65504],[-117.40127,33.65595],[-117.40083,33.6571],[-117.40046,33.65749],[-117.40005,33.65773],[-117.3995,33.65784],[-117.39883,33.65777],[-117.39785,33.65743],[-117.39736,33.65698],[-117.39584,33.65447],[-117.39572,33.65396],[-117.39557,33.65169],[-117.39537,33.65137],[-117.39508,33.65117],[-117.39453,33.65102],[-117.39335,33.65122],[-117.39287,33.65116],[-117.39193,33.65066],[-117.39075,33.65046],[-117.39009,33.64995],[-117.38974,33.64981],[-117.38877,33.6498],[-117.38792,33.64951],[-117.38693,33.64975],[-117.3864,33.64969],[-117.38558,33.64934],[-117.38473,33.64854],[-117.38459,33.64829],[-117.38458,33.64789],[-117.38537,33.64629],[-117.38524,33.64525],[-117.38575,33.64424],[-117.38579,33.64391],[-117.38562,33.64346],[-117.38469,33.6428],[-117.38452,33.64243],[-117.38447,33.64178],[-117.3843,33.64152],[-117.38391,33.64127],[-117.38346,33.64122],[-117.38254,33.64154],[-117.38215,33.64154],[-117.38177,33.64136],[-117.381,33.64047],[-117.38054,33.64034],[-117.38014,33.6404],[-117.37906,33.64101],[-117.37838,33.64166],[-117.3774,33.64198],[-117.37717,33.64213],[-117.37619,33.64403],[-117.37367,33.64658],[-117.37305,33.6467],[-117.37168,33.64644],[-117.37125,33.64621],[-117.37063,33.64566],[-117.37006,33.64549],[-117.36966,33.64553],[-117.36937,33.64565],[-117.36916,33.64587],[-117.36906,33.64618]]]}}
