{"type":"Feature","properties":{"id":"page-mill","name":"Page Mill Road","difficulty":3,"character":"Technical"},"geometry":{"type":"MultiLineString","coordinates":[[[-122.18727,37.31498],[-122.1867,37.3149],[-122.18628,37.31494],[-122.18553,37.3154],[-122.18546,37.31562],[-122.18592,37.31623],[-122.1869,37.31662],[-122.18769,37.31758],[-122.18805,37.3183],[-122.1883,37.31838],[-122.18877,37.31832],[-122.18902,37.31843],[-122.18907,37.31881],[-122.18931,37.31925],[-122.18862,37.31968],[-122.18855,37.31981],[-122.18853,37.32015],[-122.18883,37.3206],[-122.18878,37.32087],[-122.18852,37.32126],[-122.18769,37.3226],[-122.18678,37.32295],[-122.18672,37.32335],[-122.18638,37.32369],[-122.18631,37.32405],[-122.18654,37.32509],[-122.18648,37.32533],[-122.18622,37.32551],[-122.18549,37.32559],[-122.1849,37.32591],[-122.18386,37.32582],[-122.18343,37.32586],[-122.18283,37.32632],[-122.18249,37.3264],[-122.18036,37.32597],[-122.17921,37.32602],[-122.17722,37.32587],[-122.17664,37.32577],[-122.17582,37.32539],[-122.17492,37.32516],[-122.17378,37.32472],[-122.1728,37.32511],[-122.1724,37.32577],[-122.172,37.3275],[-122.17205,37.32764],[-122.17271,37.32779],[-122.17277,37.32805],[-122.17269,37.32828],[-122.17231,37.3286],[-122.17239,37.32893],[-122.17225,37.32935],[-122.1724,37.32953],[-122.173,37.32973],[-122.17314,37.32998],[-122.17304,37.33035],[-122.17245,37.33045],[-122.17239,37.33066],[-122.17282,37.33123],[-122.1736,37.33183],[-122.1736,37.3325],[-122.17391,37.33294],[-122.17445,37.33315],[-122.17596,37.33321],[-122.17626,37.33334],[-122.1766,37.33391],[-122.17682,37.33452],[-122.17664,37.33606],[-122.17688,37.33629],[-122.17788,37.3366],[-122.17817,37.33694],[-122.17842,37.33751],[-122.17837,37.33802],[-122.17798,37.33918],[-122.17736,37.33955],[-122.17705,37.34],[-122.17615,37.34045],[-122.17637,37.34144],[-122.17628,37.34193],[-122.17636,37.34224],[-122.17611,37.34266],[-122.17639,37.34284],[-122.17678,37.34293],[-122.17705,37.34318],[-122.17792,37.3434],[-122.17889,37.3442],[-122.17938,37.3443],[-122.17981,37.3449],[-122.18042,37.34508],[-122.1807,37.3456],[-122.18065,37.34572],[-122.18042,37.34576],[-122.17988,37.34548],[-122.17827,37.3454],[-122.17757,37.34525],[-122.17723,37.34534],[-122.17679,37.34579],[-122.1763,37.34581],[-122.17582,37.34602],[-122.17588,37.34646],[-122.17574,37.34686],[-122.17583,37.34714],[-122.17546,37.34774],[-122.17572,37.34821],[-122.17522,37.34854],[-122.17504,37.34883],[-122.1755,37.3498],[-122.17544,37.3503],[-122.17534,37.35041],[-122.17523,37.35038],[-122.175,37.34992],[-122.17487,37.34985],[-122.17464,37.34994],[-122.17431,37.35063],[-122.17449,37.35163],[-122.17445,37.35185],[-122.17424,37.35198],[-122.17357,37.35201],[-122.17309,37.35151],[-122.17299,37.35109],[-122.17282,37.35112],[-122.17275,37.3514],[-122.17295,37.35183],[-122.17304,37.35246],[-122.17297,37.35298],[-122.17365,37.35368],[-122.17382,37.35431],[-122.17374,37.35447],[-122.17317,37.35488],[-122.17244,37.35527],[-122.17222,37.35592],[-122.17241,37.3561],[-122.17315,37.35614],[-122.17325,37.35626],[-122.17324,37.35674],[-122.17382,37.35695],[-122.17408,37.35714],[-122.17417,37.35741],[-122.17377,37.35783],[-122.17385,37.35817],[-122.1743,37.35838],[-122.17476,37.35835],[-122.17536,37.35845],[-122.17558,37.35867],[-122.17559,37.35894],[-122.17518,37.35977],[-122.17446,37.36043],[-122.17361,37.36064],[-122.17293,37.36113],[-122.17263,37.36116],[-122.17213,37.36095],[-122.17157,37.36091],[-122.1712,37.36077],[-122.17023,37.36075],[-122.16997,37.36092],[-122.16982,37.36132],[-122.17012,37.36212],[-122.17038,37.36225],[-122.17169,37.36254],[-122.17189,37.3627],[-122.17187,37.36288],[-122.17169,37.36298],[-122.17144,37.36298],[-122.16964,37.36281],[-122.16909,37.36293],[-122.16881,37.36323],[-122.16873,37.364],[-122.16783,37.36427],[-122.16746,37.36456],[-122.1674,37.36525],[-122.16704,37.3659],[-122.16712,37.36616],[-122.16798,37.36673],[-122.1688,37.36701],[-122.16894,37.36744],[-122.1688,37.36814],[-122.16929,37.36854],[-122.16962,37.3693],[-122.16949,37.36993],[-122.16932,37.37014],[-122.16899,37.3703],[-122.16882,37.37079],[-122.16834,37.37116],[-122.16888,37.37155],[-122.16883,37.37202],[-122.16861,37.37236],[-122.16791,37.37274],[-122.16586,37.37286],[-122.16641,37.37374],[-122.16673,37.37468],[-122.16674,37.37573],[-122.16634,37.37648],[-122.1644,37.37667],[-122.16355,37.37697],[-122.16241,37.3768],[-122.16204,37.37709],[-122.16197,37.37783],[-122.16222,37.37862],[-122.16394,37.38027],[-122.16487,37.3808],[-122.16545,37.38128],[-122.16562,37.38159],[-122.16551,37.38226],[-122.1662,37.38365],[-122.16616,37.38413],[-122.1653,37.38566],[-122.16413,37.38702],[-122.16391,37.38767],[-122.16361,37.38948]],[[-122.16391,37.38767],[-122.16356,37.38885]]]}}
