{"type":"Feature","properties":{"id":"palomares","name":"Palomares Road","difficulty":3,"character":"Technical"},"geometry":{"type":"MultiLineString","coordinates":[[[-122.02412,37.69551],[-122.02356,37.69389],[-122.02244,37.69246],[-122.02213,37.6916],[-122.01993,37.68854],[-122.01981,37.68819],[-122.02022,37.6873],[-122.01936,37.68628],[-122.01887,37.68513],[-122.01841,37.68441],[-122.0182,37.68342],[-122.01724,37.68214],[-122.01708,37.68143],[-122.01616,37.68067],[-122.01572,37.67992],[-122.01426,37.67842],[-122.01389,37.67679],[-122.01229,37.67518],[-122.01154,37.67486],[-122.00929,37.67464],[-122.00789,37.67421],[-122.00755,37.67426],[-122.00714,37.67453],[-122.00683,37.67455],[-122.00533,37.67362],[-122.0033,37.67201],[-122.00306,37.67162],[-122.00301,37.67098],[-122.00287,37.67071],[-122.00205,37.67003],[-122.00073,37.66856],[-121.99818,37.66761],[-121.99739,37.66741],[-121.99654,37.66693],[-121.99633,37.66616],[-121.99602,37.66564],[-121.99336,37.66343],[-121.99125,37.66084],[-121.98963,37.65867],[-121.98694,37.65434],[-121.98604,37.6534],[-121.98562,37.65322],[-121.98443,37.65295],[-121.98321,37.65228],[-121.98165,37.65166],[-121.98038,37.65129],[-121.97738,37.64981],[-121.97542,37.64906],[-121.97349,37.64778],[-121.97051,37.6461],[-121.97012,37.64601],[-121.96856,37.64599],[-121.96725,37.64567],[-121.96692,37.64544],[-121.96675,37.64513],[-121.96678,37.64473],[-121.96699,37.64441],[-121.96754,37.64417],[-121.96874,37.64417],[-121.96905,37.64413],[-121.96927,37.64397],[-121.96938,37.64351],[-121.96928,37.64331],[-121.96899,37.64314],[-121.96703,37.64323],[-121.96636,37.64305],[-121.96576,37.64236],[-121.96328,37.64068],[-121.96281,37.6401],[-121.96183,37.63828],[-121.9609,37.63771],[-121.96016,37.63698],[-121.95959,37.63662],[-121.95857,37.63622],[-121.95521,37.63604],[-121.9547,37.6359],[-121.95449,37.63567],[-121.95434,37.63522],[-121.95374,37.63478],[-121.95327,37.63397],[-121.95282,37.63347],[-121.95249,37.63329],[-121.95172,37.63316],[-121.95134,37.63242],[-121.95106,37.63214],[-121.94976,37.63147],[-121.94867,37.63047],[-121.94705,37.62975],[-121.9461,37.62906],[-121.94589,37.62855],[-121.94459,37.6273],[-121.94403,37.62664],[-121.94385,37.62631],[-121.94394,37.6256],[-121.9434,37.6246],[-121.94325,37.62403],[-121.94326,37.62381],[-121.94353,37.62327],[-121.94357,37.62207],[-121.94373,37.62151],[-121.94354,37.62096],[-121.94379,37.62046],[-121.94385,37.61974],[-121.94379,37.61913],[-121.94354,37.61833],[-121.94389,37.61779],[-121.94505,37.61695],[-121.94509,37.61655],[-121.94439,37.61537],[-121.94406,37.615],[-121.94358,37.61481],[-121.94252,37.61485],[-121.94194,37.61468],[-121.94101,37.61379],[-121.94091,37.61345],[-121.94122,37.6121],[-121.94149,37.61164],[-121.94138,37.61119],[-121.94148,37.61107],[-121.94212,37.6108],[-121.94261,37.6103],[-121.94407,37.61003],[-121.94527,37.60939],[-121.9454,37.60908],[-121.94523,37.60849],[-121.94559,37.60752],[-121.94564,37.60663],[-121.94774,37.6045],[-121.94818,37.60379],[-121.94829,37.60315],[-121.94804,37.60231],[-121.94792,37.60137],[-121.94624,37.59886],[-121.94589,37.59813],[-121.94609,37.5979],[-121.9467,37.59793],[-121.94687,37.59784]],[[-121.97651,37.64048],[-121.97531,37.64042],[-121.97499,37.64048],[-121.97422,37.641],[-121.97387,37.64139],[-121.97341,37.64155],[-121.97322,37.64184],[-121.97254,37.6423],[-121.9722,37.64266],[-121.97174,37.64292],[-121.971,37.64298],[-121.96982,37.64341],[-121.96957,37.64384],[-121.9694,37.64398],[-121.96927,37.64397]],[[-121.94695,37.63168],[-121.94723,37.63112],[-121.94646,37.6302],[-121.94699,37.62989],[-121.94705,37.62975]]]}}
