{"type":"Feature","properties":{"id":"palomar-south-grade","name":"Palomar South Grade \u00b7 S6","difficulty":3,"character":"Technical"},"geometry":{"type":"MultiLineString","coordinates":[[[-116.89025,33.29348],[-116.89007,33.29355],[-116.88998,33.29375],[-116.89026,33.29427],[-116.89021,33.29507],[-116.8903,33.29528],[-116.89075,33.29575],[-116.89143,33.29588],[-116.89153,33.29607],[-116.89148,33.29619],[-116.8911,33.29633],[-116.88934,33.29547],[-116.88906,33.29544],[-116.88885,33.29556],[-116.88888,33.29588],[-116.88912,33.29597],[-116.88944,33.29593],[-116.8898,33.29602],[-116.89003,33.29623],[-116.8901,33.29644],[-116.88993,33.29697],[-116.88962,33.29731],[-116.88923,33.29751],[-116.88881,33.29757],[-116.88686,33.29722],[-116.88662,33.29734],[-116.88657,33.29754],[-116.8867,33.29772],[-116.88729,33.29791],[-116.88764,33.29834],[-116.88795,33.29855],[-116.88982,33.29853],[-116.89,33.29868],[-116.88996,33.29895],[-116.88969,33.29905],[-116.88903,33.29884],[-116.88847,33.299],[-116.88807,33.29933],[-116.88766,33.30004],[-116.88721,33.30024],[-116.88612,33.30038],[-116.88506,33.30021],[-116.88462,33.30029],[-116.8838,33.30067],[-116.88357,33.30068],[-116.88306,33.30049],[-116.88277,33.30066],[-116.88276,33.3009],[-116.883,33.30104],[-116.88398,33.30107],[-116.88485,33.3008],[-116.88507,33.3009],[-116.88511,33.30106],[-116.88493,33.30128],[-116.88439,33.30142],[-116.88272,33.30151],[-116.88252,33.30172],[-116.88266,33.30197],[-116.88459,33.30196],[-116.88572,33.30185],[-116.88707,33.30222],[-116.88739,33.30241],[-116.88743,33.30272],[-116.88721,33.3035],[-116.88771,33.30395],[-116.88768,33.30422],[-116.88729,33.30432],[-116.88626,33.30385],[-116.88614,33.30343],[-116.88647,33.30291],[-116.88638,33.30275],[-116.88614,33.30268],[-116.88587,33.30281],[-116.88577,33.30337],[-116.88541,33.30405],[-116.88559,33.30454],[-116.88686,33.30552],[-116.8869,33.30577],[-116.88673,33.30594],[-116.88644,33.30592],[-116.88552,33.3054],[-116.88528,33.30497],[-116.88486,33.30476],[-116.88448,33.30441],[-116.88375,33.30438],[-116.88326,33.30421],[-116.88283,33.30418],[-116.88179,33.30462],[-116.88158,33.30488],[-116.88142,33.30542],[-116.88084,33.3056],[-116.88019,33.306],[-116.87984,33.3059],[-116.87951,33.3053],[-116.8793,33.30518],[-116.87878,33.30505],[-116.87847,33.30509],[-116.8783,33.30526],[-116.87792,33.30612],[-116.87773,33.30636],[-116.87746,33.30644],[-116.87726,33.30633],[-116.87667,33.30481],[-116.87651,33.30461],[-116.87596,33.30451],[-116.87533,33.30472],[-116.87488,33.30498],[-116.87461,33.30497],[-116.87433,33.3047],[-116.87369,33.30337],[-116.87237,33.30281],[-116.87213,33.3028],[-116.87196,33.30297],[-116.87181,33.30406],[-116.87144,33.30448],[-116.87108,33.30471],[-116.87076,33.30474],[-116.87051,33.30464],[-116.87022,33.30408],[-116.86986,33.30376],[-116.86942,33.30361],[-116.86913,33.30369],[-116.86904,33.30393],[-116.86914,33.30409],[-116.86979,33.30432],[-116.87029,33.30504],[-116.8712,33.30551],[-116.87154,33.3056],[-116.87174,33.30556],[-116.87244,33.30506],[-116.87262,33.30509],[-116.87276,33.30526],[-116.87261,33.30557],[-116.87164,33.30598],[-116.87113,33.306],[-116.8702,33.30577],[-116.87,33.30582],[-116.86988,33.306],[-116.87,33.307],[-116.87026,33.30777],[-116.87044,33.30797],[-116.87072,33.30808],[-116.87111,33.308],[-116.87145,33.30745],[-116.87181,33.3073],[-116.87218,33.30738],[-116.87249,33.30757],[-116.87267,33.30775],[-116.87277,33.30807],[-116.87254,33.30881],[-116.87238,33.30904],[-116.87105,33.30993],[-116.87079,33.31027],[-116.8707,33.31089],[-116.87085,33.31132],[-116.87109,33.31149],[-116.87193,33.3117],[-116.87209,33.31182],[-116.87214,33.31201],[-116.87199,33.31223],[-116.87147,33.31239],[-116.87124,33.31258],[-116.87099,33.31345],[-116.87102,33.3141],[-116.87085,33.31428],[-116.87045,33.31436]]]}}
