{"type":"Feature","properties":{"id":"palomar-east-grade","name":"Palomar East Grade \u00b7 S7","difficulty":2,"character":"Medium speed"},"geometry":{"type":"MultiLineString","coordinates":[[[-116.78674,33.28038],[-116.78767,33.28164],[-116.79092,33.28428],[-116.79152,33.28447],[-116.79285,33.28454],[-116.7932,33.28463],[-116.79351,33.28485],[-116.79393,33.28569],[-116.79432,33.28588],[-116.79514,33.28591],[-116.7958,33.28629],[-116.79633,33.2867],[-116.79745,33.28793],[-116.79776,33.28809],[-116.79826,33.28804],[-116.79899,33.28759],[-116.79977,33.28726],[-116.80018,33.28688],[-116.80051,33.28632],[-116.80071,33.28623],[-116.80113,33.28621],[-116.80176,33.28649],[-116.80225,33.28712],[-116.80267,33.28731],[-116.80309,33.28724],[-116.80372,33.28686],[-116.8043,33.28695],[-116.80455,33.28722],[-116.8047,33.28799],[-116.80508,33.2886],[-116.80558,33.28878],[-116.80616,33.28869],[-116.80649,33.28876],[-116.80763,33.2901],[-116.80789,33.29026],[-116.80838,33.29035],[-116.80898,33.29016],[-116.81293,33.28701],[-116.81377,33.28672],[-116.81451,33.28666],[-116.81508,33.28671],[-116.81602,33.28702],[-116.81757,33.28783],[-116.81907,33.28864],[-116.82032,33.28953],[-116.82114,33.28995],[-116.82229,33.29014],[-116.82458,33.28997],[-116.8254,33.29006],[-116.82601,33.2903],[-116.8265,33.29064],[-116.82744,33.29175],[-116.82782,33.29209],[-116.82861,33.29257],[-116.82935,33.2927],[-116.82967,33.29265],[-116.83044,33.29232],[-116.83112,33.29237],[-116.83421,33.29369],[-116.8345,33.29391],[-116.8349,33.2946],[-116.83573,33.29501],[-116.8359,33.29532],[-116.83575,33.29618],[-116.83589,33.29673],[-116.83643,33.29766],[-116.83676,33.29794],[-116.83733,33.298],[-116.83775,33.29779],[-116.83802,33.29739],[-116.8381,33.29687],[-116.83847,33.29651],[-116.83904,33.29644],[-116.83962,33.29666],[-116.84007,33.29702],[-116.84066,33.29802],[-116.84094,33.29819],[-116.84164,33.29837],[-116.84203,33.29868],[-116.84273,33.30016],[-116.84284,33.30062],[-116.84279,33.30135],[-116.84307,33.3017],[-116.84349,33.3018],[-116.84431,33.30175],[-116.84586,33.30212],[-116.84625,33.30238],[-116.84652,33.30318],[-116.84683,33.30339],[-116.84708,33.30343],[-116.8478,33.30327],[-116.84818,33.30331],[-116.8485,33.30347],[-116.8493,33.30411],[-116.84969,33.30425],[-116.84995,33.30428],[-116.85071,33.30413],[-116.8512,33.30418],[-116.85157,33.30442],[-116.85194,33.30508],[-116.85242,33.30536],[-116.85291,33.30537],[-116.8535,33.30523],[-116.85405,33.30521],[-116.85452,33.30538],[-116.855,33.30578],[-116.85538,33.30595],[-116.85618,33.306],[-116.85661,33.30614],[-116.85709,33.30656],[-116.85719,33.30718],[-116.85739,33.30753],[-116.85878,33.30809],[-116.85915,33.30845],[-116.85968,33.30937],[-116.86043,33.30992],[-116.86089,33.31047],[-116.86111,33.31061],[-116.86175,33.31077],[-116.86206,33.31101],[-116.86216,33.31119],[-116.86219,33.31177],[-116.86234,33.31204],[-116.86273,33.31221],[-116.86446,33.31234],[-116.86492,33.31262],[-116.86514,33.313]]]}}
