{"type":"Feature","properties":{"id":"panoramic","name":"Panoramic Highway","difficulty":2,"character":"Medium speed"},"geometry":{"type":"MultiLineString","coordinates":[[[-122.55373,37.88415],[-122.55428,37.8839],[-122.55436,37.88331],[-122.5545,37.88326],[-122.55464,37.88336],[-122.5546,37.88367],[-122.55478,37.88456],[-122.55475,37.88549],[-122.55447,37.88687],[-122.55468,37.88841],[-122.55516,37.88948],[-122.55625,37.89048],[-122.55633,37.8917],[-122.55658,37.89266],[-122.55708,37.89343],[-122.55775,37.8937],[-122.55843,37.89444],[-122.5587,37.89535],[-122.55902,37.89595],[-122.55981,37.89657],[-122.56096,37.89717],[-122.56127,37.89755],[-122.5617,37.89785],[-122.56247,37.89813],[-122.56258,37.89843],[-122.5624,37.89891],[-122.56243,37.8992],[-122.56261,37.8996],[-122.56303,37.89991],[-122.56386,37.90004],[-122.56439,37.90033],[-122.56463,37.90028],[-122.56507,37.90003],[-122.56529,37.90001],[-122.56665,37.90044],[-122.56714,37.90093],[-122.56839,37.90128],[-122.56951,37.90248],[-122.56966,37.90292],[-122.56969,37.9039],[-122.57015,37.90425],[-122.57036,37.90464],[-122.57119,37.90501],[-122.57274,37.90537],[-122.57312,37.90556],[-122.57333,37.90593],[-122.5743,37.90666],[-122.57607,37.90854],[-122.57697,37.90979],[-122.57713,37.91063],[-122.57895,37.91134],[-122.57926,37.91191],[-122.57986,37.91231],[-122.58037,37.91243],[-122.58076,37.91275],[-122.58126,37.91295],[-122.58161,37.91342],[-122.58232,37.91392],[-122.58255,37.91428],[-122.58262,37.91539],[-122.58292,37.91587],[-122.58308,37.91597],[-122.58341,37.91582],[-122.58371,37.91544],[-122.58384,37.91505],[-122.58451,37.91455],[-122.58509,37.91338],[-122.58499,37.9128],[-122.58505,37.91256],[-122.5856,37.91234],[-122.58625,37.91248],[-122.58648,37.91242],[-122.58686,37.91149],[-122.58683,37.91093],[-122.58692,37.91073],[-122.58717,37.91067],[-122.58773,37.91087],[-122.58792,37.91083],[-122.58828,37.9101],[-122.58873,37.90987],[-122.5896,37.90917],[-122.59053,37.90926],[-122.59157,37.90964],[-122.59241,37.90974],[-122.59328,37.91049],[-122.594,37.91081],[-122.5942,37.91075],[-122.59426,37.91038],[-122.59471,37.91041],[-122.59483,37.91052],[-122.59493,37.91105],[-122.59563,37.91179],[-122.5962,37.91224],[-122.59669,37.91287],[-122.59704,37.91305],[-122.59728,37.91305],[-122.59737,37.91274],[-122.59686,37.91126],[-122.59692,37.91083],[-122.59725,37.9108],[-122.59764,37.9112],[-122.59786,37.91128],[-122.59799,37.91119],[-122.59803,37.91085],[-122.59819,37.91073],[-122.59945,37.91046],[-122.6012,37.90995],[-122.60131,37.90935],[-122.60205,37.90817],[-122.60208,37.90764],[-122.60267,37.90715],[-122.60286,37.90684],[-122.60285,37.90613],[-122.60314,37.90572],[-122.60323,37.90535],[-122.60398,37.90451],[-122.60462,37.90335],[-122.60497,37.90328],[-122.60578,37.90355],[-122.60643,37.90361],[-122.607,37.90407],[-122.60728,37.90414],[-122.6076,37.90412],[-122.60807,37.90385],[-122.60832,37.90385],[-122.60856,37.904],[-122.60877,37.90436],[-122.60927,37.90479],[-122.60987,37.90473],[-122.61032,37.90494],[-122.61052,37.90492],[-122.61054,37.90478],[-122.60999,37.90392],[-122.60987,37.90355],[-122.6094,37.90308],[-122.60933,37.90173],[-122.60965,37.90138],[-122.60959,37.90099],[-122.60971,37.90076],[-122.61046,37.90031],[-122.61079,37.90038],[-122.61116,37.90061],[-122.61139,37.90061],[-122.61148,37.90044],[-122.61114,37.89991],[-122.61115,37.89971],[-122.61211,37.89892],[-122.61281,37.89888],[-122.61276,37.89831],[-122.61299,37.89773],[-122.613,37.89722],[-122.61328,37.89684],[-122.61395,37.89671],[-122.61429,37.89694],[-122.61447,37.89693],[-122.61501,37.89611],[-122.61567,37.89572],[-122.61614,37.89576],[-122.61726,37.89551],[-122.61762,37.89561],[-122.61815,37.89596],[-122.6187,37.89591],[-122.61882,37.89567],[-122.61842,37.8946],[-122.61862,37.89432],[-122.61978,37.89426],[-122.62023,37.89446],[-122.6205,37.89447],[-122.62073,37.89435],[-122.62109,37.89388],[-122.62212,37.89348],[-122.62334,37.89366],[-122.62363,37.89383],[-122.62389,37.89413],[-122.62404,37.89415],[-122.62412,37.894],[-122.62378,37.8931],[-122.62344,37.89262],[-122.62275,37.89221],[-122.62269,37.8921],[-122.62277,37.892],[-122.6251,37.89228],[-122.62572,37.89307],[-122.62601,37.89325],[-122.62736,37.89374],[-122.62843,37.89515],[-122.62965,37.89577],[-122.62988,37.8958],[-122.62996,37.89565],[-122.62921,37.89485],[-122.62919,37.8947],[-122.62934,37.89463],[-122.63045,37.89533],[-122.63153,37.89578],[-122.63171,37.89605],[-122.6315,37.89647],[-122.63152,37.89667],[-122.6326,37.89771],[-122.63264,37.89789],[-122.63249,37.89826],[-122.63255,37.89843],[-122.63326,37.89899],[-122.63451,37.89963],[-122.63478,37.8996],[-122.63487,37.89939],[-122.6344,37.89814],[-122.63444,37.89788],[-122.63545,37.89689],[-122.63671,37.89625]]]}}
