{"type":"Feature","properties":{"id":"patterson","name":"Patterson Pass Road","difficulty":3,"character":"Technical"},"geometry":{"type":"MultiLineString","coordinates":[[[-121.69694,37.69582],[-121.71519,37.6958],[-121.716,37.69557],[-121.71722,37.69462],[-121.71813,37.69444],[-121.72041,37.69448],[-121.72395,37.69527],[-121.72665,37.69523],[-121.73225,37.69407],[-121.73405,37.69351],[-121.73727,37.6922],[-121.7381,37.69174],[-121.73861,37.69128],[-121.74061,37.68867],[-121.74063,37.68882],[-121.7387,37.6914],[-121.73761,37.69217],[-121.73303,37.69404],[-121.72676,37.69534],[-121.72591,37.69541],[-121.72394,37.69539],[-121.72038,37.69459],[-121.71802,37.69455],[-121.7172,37.69477],[-121.71597,37.69573],[-121.71518,37.69592],[-121.6971,37.69589],[-121.69694,37.69582],[-121.69594,37.69573],[-121.69527,37.69558],[-121.69352,37.69464],[-121.69251,37.69436],[-121.67827,37.69434],[-121.67657,37.69429],[-121.67507,37.69401],[-121.67433,37.69378],[-121.67306,37.69316],[-121.67145,37.6928],[-121.67028,37.69224],[-121.66956,37.6916],[-121.66638,37.69018],[-121.66599,37.68986],[-121.66369,37.68707],[-121.66223,37.68644],[-121.65973,37.68591],[-121.65688,37.68599],[-121.6555,37.68617],[-121.65403,37.68624],[-121.65227,37.68655],[-121.65006,37.68722],[-121.64925,37.68731],[-121.64671,37.68686],[-121.64435,37.68692],[-121.63971,37.6866],[-121.63918,37.68644],[-121.63755,37.68561],[-121.63692,37.68542],[-121.63598,37.6853],[-121.63202,37.68554],[-121.63021,37.68581],[-121.63005,37.68602],[-121.63001,37.68659],[-121.62964,37.68682],[-121.62755,37.68662],[-121.62677,37.68664],[-121.62502,37.6864],[-121.62058,37.68677],[-121.61769,37.68671],[-121.61576,37.68679],[-121.61444,37.68668],[-121.61364,37.68675],[-121.61221,37.68702],[-121.6105,37.68697],[-121.6076,37.68751],[-121.60657,37.68735],[-121.60497,37.68732],[-121.60397,37.68702],[-121.60299,37.68652],[-121.6024,37.68637],[-121.60025,37.68634],[-121.59748,37.68692],[-121.59613,37.68781],[-121.59583,37.68822],[-121.59546,37.68926],[-121.59435,37.69044],[-121.59364,37.69092],[-121.59233,37.69133],[-121.59233,37.69214],[-121.59205,37.69311],[-121.59119,37.69412],[-121.59064,37.69455],[-121.59039,37.69523],[-121.58944,37.69595],[-121.58939,37.69615],[-121.58951,37.69662],[-121.5891,37.69735],[-121.58853,37.69744],[-121.58766,37.69727],[-121.58743,37.69729],[-121.58504,37.69864],[-121.58451,37.69926],[-121.58418,37.70047],[-121.58364,37.70134],[-121.58176,37.70301],[-121.58042,37.70379],[-121.57872,37.70498],[-121.57616,37.70618],[-121.57432,37.70823],[-121.57352,37.70951],[-121.57315,37.70971],[-121.57205,37.71007],[-121.57097,37.71059],[-121.56989,37.71159],[-121.56925,37.71243],[-121.56827,37.713],[-121.56808,37.71336],[-121.56811,37.71459],[-121.56802,37.71485],[-121.56772,37.71493],[-121.55886,37.7149]]]}}
