{"type":"Feature","properties":{"id":"pch-orange-county","name":"Pacific Coast Highway \u00b7 Orange County","difficulty":1,"character":"Low speed"},"geometry":{"type":"MultiLineString","coordinates":[[[-117.92313,33.61975],[-117.92071,33.61867],[-117.91914,33.61765],[-117.91786,33.61704],[-117.91425,33.61614],[-117.91346,33.616],[-117.91212,33.61593],[-117.90879,33.61607],[-117.90722,33.61625],[-117.9051,33.61675],[-117.90372,33.6167],[-117.90233,33.61629],[-117.90052,33.61616],[-117.8992,33.61579],[-117.89835,33.61541],[-117.89599,33.61387],[-117.89455,33.61333],[-117.88607,33.61189],[-117.88496,33.61157],[-117.88389,33.61108],[-117.87469,33.60475],[-117.87404,33.60417],[-117.87337,33.60303],[-117.87139,33.59693],[-117.87091,33.59629],[-117.87019,33.59565],[-117.86922,33.59491],[-117.85726,33.58869],[-117.85553,33.5876],[-117.84193,33.57824],[-117.84118,33.57765],[-117.84046,33.57685],[-117.83871,33.57377],[-117.83756,33.57253],[-117.83276,33.56858],[-117.82512,33.56366],[-117.82347,33.56194],[-117.82132,33.56044],[-117.81997,33.55936],[-117.81837,33.55774],[-117.8179,33.55739],[-117.81716,33.55697],[-117.81373,33.55549],[-117.8101,33.55336],[-117.80903,33.55305],[-117.8074,33.55291],[-117.80685,33.55269],[-117.80593,33.552],[-117.80524,33.5509],[-117.80485,33.55046],[-117.80424,33.55002],[-117.80344,33.54962],[-117.80029,33.54842],[-117.79544,33.54677],[-117.79369,33.54582],[-117.78532,33.54275],[-117.78425,33.54216],[-117.78334,33.54205],[-117.78027,33.53853],[-117.77576,33.53247],[-117.76881,33.52672],[-117.76569,33.52424],[-117.76306,33.52195],[-117.76163,33.52104],[-117.76006,33.51899],[-117.75689,33.5158],[-117.75413,33.51247],[-117.75191,33.51065],[-117.75151,33.51022],[-117.75047,33.50868],[-117.75007,33.50823],[-117.74895,33.50742],[-117.74575,33.50433],[-117.74435,33.5025],[-117.74277,33.50018],[-117.74189,33.49943],[-117.74028,33.49846],[-117.73948,33.49776],[-117.73852,33.4965],[-117.73742,33.49475],[-117.73681,33.49404],[-117.73185,33.49066],[-117.73165,33.49062],[-117.73037,33.48962],[-117.72112,33.48167],[-117.71986,33.48044],[-117.71858,33.47882],[-117.71055,33.46682],[-117.71003,33.46624],[-117.70889,33.46566],[-117.70799,33.4655],[-117.70732,33.46552],[-117.69721,33.46741],[-117.69637,33.46748],[-117.69588,33.46742],[-117.69305,33.46633],[-117.68951,33.4656]]]}}
