{"type":"Feature","properties":{"id":"pch-malibu","name":"Pacific Coast Highway \u00b7 Malibu","difficulty":1,"character":"Medium speed"},"geometry":{"type":"MultiLineString","coordinates":[[[-118.5793,34.04011],[-118.58042,34.03996],[-118.58388,34.03894],[-118.58492,34.03877],[-118.58556,34.03881],[-118.58795,34.03937],[-118.58947,34.03946],[-118.5922,34.03997],[-118.59342,34.0399],[-118.59487,34.04],[-118.59693,34.03957],[-118.60073,34.03937],[-118.60335,34.03944],[-118.6045,34.03918],[-118.60689,34.03831],[-118.60817,34.03742],[-118.60876,34.03711],[-118.60957,34.03689],[-118.61039,34.03683],[-118.61236,34.03718],[-118.61416,34.03723],[-118.62267,34.03816],[-118.62456,34.03808],[-118.62611,34.03758],[-118.62726,34.03735],[-118.6287,34.03737],[-118.63067,34.0376],[-118.63151,34.03761],[-118.63427,34.03726],[-118.63565,34.03694],[-118.63642,34.03693],[-118.63797,34.03714],[-118.64062,34.03778],[-118.64518,34.03862],[-118.64671,34.03859],[-118.64874,34.03808],[-118.64957,34.03802],[-118.65529,34.03889],[-118.66278,34.0396],[-118.66541,34.03967],[-118.67076,34.03937],[-118.67289,34.03898],[-118.67616,34.03778],[-118.67696,34.0374],[-118.67775,34.03689],[-118.67948,34.03549],[-118.68033,34.03507],[-118.68151,34.03474],[-118.68498,34.03439],[-118.68727,34.03435],[-118.69539,34.03521],[-118.69676,34.03526],[-118.71476,34.03391],[-118.7158,34.03386],[-118.72554,34.03418],[-118.72688,34.03409],[-118.73234,34.03343],[-118.73737,34.03354],[-118.742,34.03331],[-118.74327,34.03313],[-118.74689,34.03228],[-118.74947,34.03143],[-118.75406,34.03028],[-118.75594,34.02954],[-118.76005,34.02727],[-118.76165,34.02662],[-118.76306,34.02623],[-118.76575,34.02583],[-118.77111,34.02564],[-118.77298,34.02566],[-118.7781,34.02596],[-118.77996,34.02583],[-118.78335,34.02504],[-118.78626,34.02426],[-118.79401,34.02103],[-118.7956,34.02058],[-118.79688,34.02044],[-118.79866,34.02051],[-118.7999,34.02075],[-118.80513,34.02218],[-118.80674,34.02233],[-118.80831,34.02219],[-118.80974,34.02174],[-118.81095,34.02121],[-118.81515,34.018],[-118.81632,34.01732],[-118.81778,34.01683],[-118.81886,34.01659],[-118.8209,34.01646],[-118.82276,34.01676],[-118.82383,34.01715],[-118.82455,34.01755],[-118.83048,34.02243],[-118.83136,34.02301],[-118.83478,34.02489],[-118.83647,34.02594],[-118.83857,34.02771],[-118.84176,34.02975],[-118.84414,34.03158],[-118.84567,34.03254],[-118.84684,34.03318],[-118.85135,34.03498],[-118.85299,34.03552],[-118.85536,34.03598],[-118.86039,34.03644],[-118.86182,34.03667],[-118.86338,34.03709],[-118.86827,34.03884],[-118.86993,34.03927],[-118.8712,34.03949],[-118.87307,34.03967],[-118.88136,34.03997],[-118.88712,34.04054],[-118.89061,34.04094],[-118.91452,34.04421],[-118.91568,34.04445],[-118.92384,34.04683],[-118.92492,34.04704],[-118.92626,34.04709],[-118.92883,34.04701],[-118.92981,34.04689],[-118.93069,34.04668],[-118.93514,34.04509],[-118.93658,34.04488],[-118.93811,34.04496],[-118.94594,34.04699],[-118.95198,34.04905],[-118.96313,34.05313]]]}}
