{"type":"Feature","properties":{"id":"pescadero","name":"Pescadero Creek Road","difficulty":2,"character":"Medium speed"},"geometry":{"type":"MultiLineString","coordinates":[[[-122.27548,37.30264],[-122.27515,37.30267],[-122.27368,37.30232],[-122.27299,37.30234],[-122.27258,37.30219],[-122.27228,37.30187],[-122.27171,37.30087],[-122.27065,37.29963],[-122.27028,37.29956],[-122.26961,37.29969],[-122.26929,37.29939],[-122.26873,37.29915],[-122.26778,37.29854],[-122.26724,37.2978],[-122.26644,37.29742],[-122.26626,37.29621],[-122.266,37.29594],[-122.26574,37.29583],[-122.26521,37.29582],[-122.26482,37.296],[-122.26458,37.29642],[-122.26457,37.29689],[-122.26524,37.29762],[-122.26611,37.29828],[-122.26714,37.3],[-122.26764,37.3005],[-122.26773,37.30074],[-122.26768,37.30084],[-122.26743,37.30087],[-122.26561,37.2995],[-122.26528,37.29953],[-122.26509,37.29991]],[[-122.41319,37.25969],[-122.41107,37.25946],[-122.41008,37.25901],[-122.40959,37.25865],[-122.40918,37.25812],[-122.40734,37.25457],[-122.40689,37.25396],[-122.40645,37.25361],[-122.40581,37.25328],[-122.40294,37.25229],[-122.40257,37.252],[-122.40126,37.25049],[-122.40082,37.25017],[-122.39999,37.24984],[-122.39899,37.24972],[-122.39723,37.24988],[-122.37952,37.25207],[-122.37857,37.2523],[-122.37582,37.25341],[-122.37165,37.25466],[-122.37058,37.25485],[-122.36741,37.25519],[-122.36663,37.25506],[-122.36606,37.25463],[-122.36591,37.25419],[-122.36588,37.253],[-122.36578,37.2527],[-122.36487,37.25145],[-122.36414,37.25022],[-122.36355,37.24976],[-122.36284,37.24962],[-122.35976,37.24987],[-122.35667,37.24965],[-122.35538,37.24989],[-122.355,37.25009],[-122.35487,37.2503],[-122.35485,37.25089],[-122.35446,37.25185],[-122.35356,37.25273],[-122.35296,37.25314],[-122.35176,37.25338],[-122.34983,37.254],[-122.34911,37.25391],[-122.34856,37.25365],[-122.34834,37.25369],[-122.34748,37.25436],[-122.34593,37.25504],[-122.34484,37.25593],[-122.34362,37.25659],[-122.34269,37.25778],[-122.34234,37.25805],[-122.34183,37.25821],[-122.34001,37.25827],[-122.33965,37.25837],[-122.33933,37.25884],[-122.33924,37.26046],[-122.33895,37.26084],[-122.33851,37.26105],[-122.33726,37.26141],[-122.33624,37.26184],[-122.33506,37.26188],[-122.334,37.26178],[-122.33107,37.26106],[-122.32808,37.26105],[-122.32771,37.26114],[-122.3266,37.26177],[-122.32463,37.26177],[-122.32292,37.26256],[-122.32192,37.26339],[-122.3217,37.26369],[-122.32168,37.26403],[-122.32207,37.26562],[-122.32273,37.26725],[-122.32246,37.26772],[-122.32164,37.26813],[-122.32067,37.26808],[-122.31794,37.26823],[-122.31681,37.26887],[-122.3162,37.26947],[-122.31589,37.26958],[-122.31554,37.26954],[-122.31503,37.26911],[-122.31471,37.2685],[-122.31473,37.26769],[-122.31461,37.26727],[-122.31392,37.26677],[-122.3133,37.2658],[-122.31328,37.26518],[-122.31347,37.26438],[-122.31347,37.26294],[-122.31329,37.26272],[-122.31273,37.2626],[-122.31214,37.2629],[-122.31022,37.26467],[-122.30997,37.26528],[-122.30994,37.26603],[-122.30958,37.26714],[-122.30963,37.26764],[-122.30992,37.2685],[-122.30988,37.26881],[-122.30975,37.26911],[-122.30913,37.2698],[-122.30798,37.27053],[-122.30782,37.2709],[-122.30759,37.27232],[-122.30682,37.2739],[-122.30639,37.27407],[-122.30459,37.274],[-122.30177,37.27422],[-122.30078,37.27486],[-122.30018,37.27508],[-122.29974,37.27562],[-122.29911,37.27596],[-122.29864,37.27601],[-122.29791,37.27584],[-122.29769,37.27589],[-122.2975,37.276],[-122.29666,37.27713],[-122.29472,37.27832],[-122.29426,37.27829],[-122.2933,37.2779],[-122.29297,37.27773],[-122.29175,37.27661],[-122.29055,37.27615],[-122.28997,37.27619],[-122.28814,37.27673],[-122.28724,37.27682],[-122.28694,37.27708],[-122.28574,37.27878],[-122.28552,37.28018],[-122.28466,37.28139],[-122.2845,37.28288],[-122.2842,37.28321],[-122.28357,37.2834],[-122.28352,37.28349],[-122.28359,37.28366],[-122.28411,37.28384],[-122.28432,37.2841],[-122.28428,37.2844],[-122.28396,37.28494],[-122.28393,37.28584],[-122.2837,37.28599],[-122.2834,37.28582],[-122.28355,37.2851],[-122.28341,37.28475],[-122.28312,37.28456],[-122.28291,37.28454],[-122.2826,37.28465],[-122.28244,37.28558],[-122.28173,37.28674],[-122.28135,37.28716],[-122.27998,37.28919],[-122.27953,37.28959],[-122.27875,37.28979],[-122.27845,37.29007],[-122.2784,37.29093],[-122.2789,37.29183],[-122.27874,37.29277],[-122.27903,37.29304],[-122.2807,37.29398],[-122.28099,37.29426],[-122.28103,37.29443],[-122.28084,37.2947],[-122.28062,37.29479],[-122.27925,37.29513],[-122.2789,37.29559],[-122.2789,37.29583],[-122.27904,37.29604],[-122.28024,37.29669],[-122.28034,37.29685],[-122.28025,37.29708],[-122.28012,37.29716],[-122.27973,37.29715],[-122.27752,37.29678],[-122.27693,37.29685],[-122.27661,37.29709],[-122.2765,37.29778],[-122.27669,37.29833],[-122.27668,37.29867],[-122.27641,37.29929],[-122.27635,37.30002],[-122.27597,37.30068],[-122.27616,37.30152]]]}}
