{"type":"Feature","properties":{"id":"pinehurst","name":"Pinehurst Road","difficulty":3,"character":"Low speed"},"geometry":{"type":"MultiLineString","coordinates":[[[-122.18474,37.84075],[-122.18349,37.84012],[-122.18147,37.83983],[-122.18088,37.83921],[-122.17951,37.83836],[-122.17491,37.8367],[-122.17354,37.83612],[-122.17092,37.83395],[-122.16847,37.83226],[-122.16781,37.83163],[-122.16648,37.83069],[-122.16604,37.83019],[-122.16604,37.8299],[-122.16593,37.82974],[-122.16558,37.82953],[-122.16543,37.82915],[-122.16496,37.82858],[-122.16378,37.8274],[-122.16303,37.82693],[-122.16171,37.82578],[-122.16015,37.82505],[-122.15932,37.82498],[-122.15906,37.82489],[-122.15834,37.82444],[-122.15688,37.82331],[-122.15578,37.82272],[-122.15442,37.82162],[-122.1536,37.8215],[-122.15238,37.82081],[-122.15121,37.82039],[-122.15033,37.81979],[-122.14874,37.81938],[-122.14667,37.81849],[-122.1455,37.81698],[-122.14485,37.81666],[-122.14472,37.81609],[-122.14473,37.81526],[-122.14383,37.81376],[-122.14332,37.8125],[-122.14292,37.81216],[-122.14296,37.81164],[-122.14248,37.81115],[-122.14214,37.81103],[-122.14198,37.81087],[-122.14192,37.81063],[-122.14205,37.8101],[-122.14165,37.80976],[-122.14162,37.80934],[-122.14144,37.80914],[-122.14088,37.80886],[-122.14104,37.80846],[-122.14099,37.80828],[-122.13983,37.80769],[-122.13981,37.8076],[-122.14006,37.80731],[-122.14002,37.80706],[-122.13991,37.80688],[-122.13948,37.80675],[-122.13955,37.80638],[-122.13948,37.80625],[-122.13912,37.80614],[-122.13897,37.806],[-122.13891,37.80561],[-122.13858,37.80511],[-122.13866,37.80467],[-122.1381,37.80381],[-122.1376,37.80342],[-122.13732,37.80287],[-122.13684,37.80267],[-122.13664,37.80218],[-122.13602,37.80155],[-122.13555,37.7994],[-122.13537,37.79901],[-122.13552,37.79859],[-122.13547,37.79841],[-122.13525,37.79827],[-122.13384,37.79797],[-122.13213,37.7969],[-122.1314,37.79608],[-122.13117,37.79546],[-122.13135,37.79529]]]}}
