{"type":"Feature","properties":{"id":"piuma-road","name":"Piuma Road","difficulty":3,"character":"Technical"},"geometry":{"type":"MultiLineString","coordinates":[[[-118.70455,34.08213],[-118.70413,34.08219],[-118.70377,34.0821],[-118.70214,34.08124],[-118.70128,34.08047],[-118.7006,34.07957],[-118.69954,34.07876],[-118.69597,34.07853],[-118.69274,34.07731],[-118.69145,34.07712],[-118.68983,34.07707],[-118.68818,34.07672],[-118.68709,34.07616],[-118.68618,34.07618],[-118.68615,34.07592],[-118.68686,34.07574],[-118.68722,34.07551],[-118.68789,34.07558],[-118.68856,34.07532],[-118.68962,34.0756],[-118.68992,34.07544],[-118.68986,34.07521],[-118.6896,34.07514],[-118.68904,34.07519],[-118.68834,34.075],[-118.6878,34.07511],[-118.68637,34.07447],[-118.68599,34.07398],[-118.6849,34.07324],[-118.68457,34.07313],[-118.68403,34.07314],[-118.68368,34.07316],[-118.6831,34.07335],[-118.68293,34.0732],[-118.683,34.07302],[-118.68482,34.07246],[-118.68633,34.07297],[-118.68688,34.07306],[-118.68708,34.07291],[-118.68716,34.07254],[-118.6874,34.07227],[-118.68834,34.07179],[-118.68909,34.0721],[-118.68934,34.07209],[-118.68985,34.07145],[-118.69028,34.07125],[-118.69084,34.07126],[-118.69143,34.07166],[-118.69297,34.07203],[-118.69344,34.07277],[-118.69413,34.07284],[-118.69428,34.07292],[-118.69438,34.0731],[-118.69435,34.07346],[-118.69452,34.07359],[-118.69535,34.0736],[-118.6958,34.07335],[-118.69615,34.0733],[-118.69712,34.07358],[-118.69731,34.074],[-118.69751,34.07414],[-118.69783,34.07408],[-118.69786,34.07379],[-118.69754,34.07352],[-118.69659,34.073],[-118.69539,34.07261],[-118.69494,34.07201],[-118.6943,34.0717],[-118.69433,34.07101],[-118.69416,34.0707],[-118.69385,34.07062],[-118.69303,34.07063],[-118.69153,34.06953],[-118.6906,34.06941],[-118.68968,34.06864],[-118.68834,34.06832],[-118.68669,34.06893],[-118.68554,34.06892],[-118.6848,34.06874],[-118.68422,34.06889],[-118.68383,34.06886],[-118.68357,34.06869],[-118.68341,34.06811],[-118.68373,34.06751],[-118.68376,34.06729],[-118.68367,34.06699],[-118.6835,34.06684],[-118.68306,34.0667],[-118.68208,34.0666],[-118.68138,34.06629],[-118.68016,34.06601],[-118.67947,34.06554],[-118.67892,34.0653],[-118.67762,34.06516],[-118.67687,34.06528],[-118.67639,34.06505],[-118.67607,34.06501],[-118.6735,34.06534],[-118.67244,34.06596],[-118.67215,34.06637],[-118.67206,34.06667],[-118.67216,34.06822],[-118.67201,34.06829],[-118.67147,34.06822],[-118.67094,34.06802],[-118.67071,34.06806],[-118.67059,34.06823],[-118.67063,34.06878],[-118.67037,34.06922],[-118.66885,34.07004],[-118.66849,34.07008],[-118.6677,34.06988],[-118.66642,34.07035],[-118.66587,34.07034],[-118.66421,34.0697],[-118.66397,34.06945],[-118.66376,34.06898],[-118.66354,34.06882],[-118.66289,34.06884],[-118.66178,34.06912],[-118.6615,34.06933],[-118.66159,34.0701],[-118.66121,34.07048],[-118.66115,34.07078],[-118.66083,34.07114],[-118.66075,34.07156],[-118.66032,34.07194],[-118.66003,34.07203],[-118.6596,34.07203],[-118.65909,34.07184],[-118.65865,34.07185],[-118.65829,34.07194],[-118.65785,34.07223],[-118.65753,34.07224],[-118.65709,34.07198],[-118.65626,34.07121],[-118.65398,34.07042],[-118.65343,34.07001]]]}}
