{"type":"Feature","properties":{"id":"point-reyes-petaluma","name":"Point Reyes\u2013Petaluma Road","difficulty":2,"character":"Medium speed"},"geometry":{"type":"MultiLineString","coordinates":[[[-122.80144,38.07333],[-122.80044,38.07297],[-122.79987,38.07307],[-122.79876,38.07407],[-122.79809,38.07503],[-122.79767,38.07535],[-122.79664,38.07593],[-122.79572,38.07616],[-122.79403,38.07679],[-122.79315,38.07665],[-122.7891,38.07506],[-122.7885,38.07504],[-122.78658,38.07522],[-122.78556,38.0754],[-122.7852,38.07579],[-122.7845,38.07839],[-122.7845,38.07914],[-122.78486,38.08108],[-122.7847,38.08171],[-122.78435,38.08209],[-122.78326,38.08269],[-122.78258,38.0829],[-122.78188,38.0829],[-122.78115,38.08267],[-122.77857,38.08066],[-122.77816,38.0801],[-122.77738,38.07862],[-122.77703,38.07842],[-122.77613,38.07824],[-122.77542,38.07792],[-122.77397,38.07695],[-122.77133,38.07491],[-122.77087,38.07422],[-122.77031,38.07195],[-122.76972,38.07085],[-122.76938,38.07066],[-122.769,38.07059],[-122.76803,38.07072],[-122.76752,38.07065],[-122.76511,38.06946],[-122.76355,38.06906],[-122.7619,38.07091],[-122.76109,38.07126],[-122.75921,38.07169],[-122.75861,38.07198],[-122.75802,38.07244],[-122.75762,38.07297],[-122.75726,38.07372],[-122.75699,38.07497],[-122.75649,38.07598],[-122.75504,38.07753],[-122.75477,38.07799],[-122.75396,38.08129],[-122.75281,38.08527],[-122.75285,38.08622],[-122.75364,38.08865],[-122.75374,38.08927],[-122.75354,38.09032],[-122.75316,38.09098],[-122.75272,38.09145],[-122.75158,38.09215],[-122.75081,38.09239],[-122.74998,38.0925],[-122.73932,38.09214],[-122.73852,38.0922],[-122.73777,38.09238],[-122.73688,38.09278],[-122.73604,38.09347],[-122.73565,38.09401],[-122.73454,38.09624],[-122.73405,38.09683],[-122.73348,38.0973],[-122.73236,38.09796],[-122.73207,38.09823],[-122.73175,38.09878],[-122.73133,38.10019],[-122.73102,38.10079],[-122.73002,38.10219],[-122.72908,38.1028],[-122.72872,38.10314],[-122.72823,38.10415],[-122.72657,38.10641],[-122.72597,38.10679],[-122.72389,38.10755],[-122.72204,38.10899],[-122.72175,38.10927],[-122.72022,38.11178],[-122.71882,38.11295],[-122.71811,38.11324],[-122.71553,38.11366],[-122.71511,38.11392],[-122.71478,38.11431],[-122.71467,38.11488],[-122.71466,38.11744],[-122.71448,38.11794],[-122.71395,38.11884],[-122.71388,38.11951],[-122.71427,38.12022],[-122.71558,38.12128],[-122.71605,38.12222],[-122.71614,38.12306],[-122.71551,38.12398],[-122.71523,38.12499],[-122.71452,38.12642],[-122.7137,38.12742],[-122.71285,38.13129],[-122.70915,38.13678],[-122.70764,38.13843],[-122.7026,38.14905]]]}}
