{"type":"Feature","properties":{"id":"redwood","name":"Redwood Road","difficulty":2,"character":"Medium speed"},"geometry":{"type":"MultiLineString","coordinates":[[[-122.18998,37.7989],[-122.18679,37.79877],[-122.18568,37.79857],[-122.18422,37.79814],[-122.18338,37.79771],[-122.18291,37.79687],[-122.18254,37.79652],[-122.18197,37.7963],[-122.18072,37.79617],[-122.17999,37.79597],[-122.17926,37.79554],[-122.17795,37.79447],[-122.1774,37.79426],[-122.17699,37.79424],[-122.17632,37.79441],[-122.17585,37.79481],[-122.1749,37.79672],[-122.17439,37.79712],[-122.17399,37.79721],[-122.17354,37.79715],[-122.17231,37.7964],[-122.17176,37.79623],[-122.17114,37.79631],[-122.17075,37.79653],[-122.17043,37.79712],[-122.17086,37.79914],[-122.17083,37.79968],[-122.17017,37.80104],[-122.17009,37.80145],[-122.17036,37.80228],[-122.17113,37.80335],[-122.17146,37.80434],[-122.17138,37.8047],[-122.17084,37.80523],[-122.16932,37.80594],[-122.16782,37.80648],[-122.16712,37.80654],[-122.16505,37.80594],[-122.16408,37.8054],[-122.1636,37.80498],[-122.1625,37.8045],[-122.16196,37.80409],[-122.16084,37.80392],[-122.16046,37.80375],[-122.1598,37.80324],[-122.15766,37.80201],[-122.15602,37.80036],[-122.15465,37.79928],[-122.15284,37.79852],[-122.15235,37.79841],[-122.15159,37.79842],[-122.15052,37.79825],[-122.14987,37.79852],[-122.14925,37.79919],[-122.14802,37.79985],[-122.14671,37.79992],[-122.14598,37.80021],[-122.14554,37.80029],[-122.14409,37.80028],[-122.1433,37.79981],[-122.14191,37.79869],[-122.14097,37.79846],[-122.1405,37.79802],[-122.13959,37.79772],[-122.13926,37.79718],[-122.13904,37.797],[-122.13832,37.79693],[-122.13777,37.7967],[-122.13658,37.79664],[-122.13607,37.79637],[-122.13559,37.79568],[-122.13516,37.79531],[-122.13476,37.7948],[-122.13338,37.79366],[-122.13283,37.79253],[-122.13216,37.79182],[-122.13223,37.79136],[-122.13182,37.79072],[-122.13115,37.79039],[-122.13085,37.78998],[-122.13051,37.78922],[-122.12944,37.7882],[-122.129,37.78762],[-122.12893,37.7874],[-122.12901,37.78708],[-122.12872,37.78646],[-122.1286,37.78582],[-122.12817,37.78532],[-122.12798,37.7848],[-122.1275,37.78414],[-122.12739,37.78384],[-122.12742,37.78336],[-122.12718,37.78268],[-122.12696,37.78256],[-122.12639,37.78253],[-122.12601,37.78224],[-122.12605,37.78175],[-122.12572,37.78132],[-122.12571,37.7809],[-122.12523,37.78017],[-122.12469,37.77999],[-122.12445,37.77981],[-122.12444,37.77941],[-122.12398,37.77867],[-122.12404,37.77827],[-122.12472,37.77745],[-122.12477,37.77725],[-122.12467,37.77699],[-122.12355,37.77576],[-122.12208,37.77464],[-122.12168,37.77401],[-122.12078,37.77379],[-122.12042,37.77357],[-122.11924,37.77219],[-122.11922,37.77138],[-122.11867,37.7709],[-122.11836,37.77041],[-122.11794,37.77021],[-122.11754,37.77026],[-122.11698,37.77063],[-122.11588,37.77169],[-122.11553,37.77179],[-122.11518,37.77172],[-122.115,37.7716],[-122.11487,37.77133],[-122.11483,37.77047],[-122.11407,37.76975],[-122.11396,37.76955],[-122.11412,37.76934],[-122.11463,37.76917],[-122.11489,37.76892],[-122.11483,37.76864],[-122.11445,37.76824],[-122.11334,37.76773],[-122.11289,37.76707],[-122.11262,37.76694],[-122.11104,37.76664],[-122.11079,37.76674],[-122.11053,37.76712],[-122.1103,37.76727],[-122.10987,37.76728],[-122.10958,37.76712],[-122.10948,37.76681],[-122.10969,37.7662],[-122.10966,37.76588],[-122.10943,37.76564],[-122.10874,37.76526],[-122.10835,37.76461],[-122.1083,37.76378],[-122.1084,37.76309],[-122.10827,37.76275],[-122.10619,37.76068],[-122.10585,37.76019],[-122.10478,37.7591],[-122.10262,37.75796],[-122.10247,37.75762],[-122.10255,37.75686],[-122.10195,37.75626],[-122.10188,37.75529],[-122.10145,37.75485],[-122.10116,37.75436],[-122.09986,37.75396],[-122.09896,37.7534],[-122.09814,37.75312],[-122.09789,37.75268],[-122.09789,37.75213],[-122.09756,37.75168],[-122.09711,37.75145],[-122.09624,37.75149],[-122.09603,37.75143],[-122.09582,37.75117],[-122.09589,37.75056],[-122.09569,37.75028],[-122.09524,37.75004],[-122.09421,37.74978],[-122.09366,37.74889],[-122.09237,37.74839],[-122.09055,37.74729],[-122.0892,37.74612],[-122.08855,37.74578],[-122.08801,37.74438],[-122.08758,37.74392],[-122.08702,37.74353],[-122.08679,37.74269],[-122.08602,37.74198],[-122.08609,37.74138],[-122.0858,37.74071],[-122.0855,37.74039],[-122.08496,37.74003],[-122.08489,37.73962],[-122.08452,37.73915],[-122.08437,37.73855],[-122.08337,37.73776],[-122.08294,37.73755],[-122.08212,37.73735],[-122.08144,37.73685],[-122.08046,37.73659],[-122.07977,37.73677],[-122.07666,37.73821],[-122.07614,37.73818],[-122.07571,37.73785],[-122.07565,37.73768],[-122.07574,37.73735],[-122.07691,37.73618],[-122.07735,37.73593],[-122.07842,37.73573],[-122.07978,37.73497],[-122.08094,37.73374],[-122.08109,37.73317],[-122.08023,37.72916],[-122.07965,37.72728],[-122.07983,37.72507],[-122.07966,37.72452],[-122.07849,37.72324],[-122.0754,37.72091],[-122.07384,37.71863],[-122.07373,37.71696],[-122.07398,37.71005],[-122.07399,37.70889],[-122.07403,37.70547],[-122.07404,37.70412],[-122.07412,37.70465],[-122.07412,37.70538],[-122.07403,37.70547]],[[-122.07404,37.70412],[-122.07403,37.70269],[-122.07402,37.70076],[-122.07403,37.70269]],[[-122.17086,37.79914],[-122.17055,37.79712],[-122.17082,37.79659],[-122.17136,37.79633],[-122.17193,37.79634],[-122.17351,37.79724],[-122.174,37.7973],[-122.17446,37.79721],[-122.17478,37.79704],[-122.17502,37.79677],[-122.17603,37.79479],[-122.17645,37.79448],[-122.177,37.79435],[-122.17755,37.79441],[-122.17786,37.79456],[-122.17915,37.79561],[-122.17993,37.79606],[-122.18062,37.79626],[-122.18193,37.7964],[-122.18236,37.79655],[-122.18274,37.79686],[-122.18326,37.79777],[-122.18368,37.79803],[-122.18453,37.79837],[-122.18555,37.79866],[-122.18688,37.7989],[-122.18994,37.79901]],[[-122.07402,37.70076],[-122.07395,37.69811],[-122.07397,37.69274],[-122.0738,37.69009]],[[-122.07358,37.69005],[-122.07395,37.69811]],[[-122.07398,37.71005],[-122.07406,37.70896],[-122.07399,37.70889]]]}}
