{"type":"Feature","properties":{"id":"richard-russell-scenic-highway","name":"Richard B. Russell Scenic Highway \u00b7 GA 348","difficulty":2,"character":"Medium speed"},"geometry":{"type":"MultiLineString","coordinates":[[[-83.77055,34.69368],[-83.77128,34.6934],[-83.77178,34.69344],[-83.77221,34.69364],[-83.7744,34.69507],[-83.77631,34.69506],[-83.77756,34.6953],[-83.77792,34.69549],[-83.77812,34.69584],[-83.77832,34.69663],[-83.77851,34.69684],[-83.77953,34.6974],[-83.77995,34.69831],[-83.78065,34.69921],[-83.78076,34.70072],[-83.78044,34.70164],[-83.78043,34.70198],[-83.7806,34.70222],[-83.7811,34.70245],[-83.78216,34.7028],[-83.78292,34.70319],[-83.78328,34.70314],[-83.78348,34.70302],[-83.78406,34.70229],[-83.78496,34.70195],[-83.78526,34.70173],[-83.78576,34.70078],[-83.78604,34.70054],[-83.78645,34.70046],[-83.78693,34.70064],[-83.78714,34.70095],[-83.78732,34.70227],[-83.78754,34.70255],[-83.78821,34.70292],[-83.78841,34.70327],[-83.78837,34.70352],[-83.78767,34.70455],[-83.78732,34.70486],[-83.78703,34.70493],[-83.78627,34.70488],[-83.78593,34.70498],[-83.78573,34.70515],[-83.78566,34.70542],[-83.78599,34.70613],[-83.78603,34.70657],[-83.78576,34.70689],[-83.78403,34.70822],[-83.78403,34.70854],[-83.78437,34.70921],[-83.78361,34.71008],[-83.78356,34.71032],[-83.78366,34.71051],[-83.78528,34.71126],[-83.7855,34.71125],[-83.78581,34.71109],[-83.78637,34.71012],[-83.78683,34.70995],[-83.78712,34.70999],[-83.78823,34.71115],[-83.78859,34.71253],[-83.78878,34.71274],[-83.78927,34.7128],[-83.79001,34.71227],[-83.7902,34.71224],[-83.79049,34.71229],[-83.79121,34.71272],[-83.79132,34.71293],[-83.79119,34.71366],[-83.79193,34.71496],[-83.79202,34.71592],[-83.79219,34.71627],[-83.79283,34.71671],[-83.79398,34.71716],[-83.79488,34.71776],[-83.79521,34.71788],[-83.79603,34.71789],[-83.79629,34.71779],[-83.79675,34.71731],[-83.79705,34.71724],[-83.7973,34.71728],[-83.79758,34.71768],[-83.79809,34.7193],[-83.79874,34.71963],[-83.80033,34.71954],[-83.8008,34.71972],[-83.80097,34.72048],[-83.80113,34.72065],[-83.80239,34.72096],[-83.80264,34.72109],[-83.80297,34.72185],[-83.80404,34.72283],[-83.80624,34.72368],[-83.80775,34.72472],[-83.80855,34.72548],[-83.80856,34.72611],[-83.80893,34.72646],[-83.80948,34.72641],[-83.81022,34.72593],[-83.81099,34.72577],[-83.81141,34.72599],[-83.81382,34.72795],[-83.81423,34.72814],[-83.81457,34.72822],[-83.81657,34.72835],[-83.817,34.72863],[-83.81771,34.72945],[-83.81839,34.72975],[-83.81903,34.7297],[-83.81985,34.72949],[-83.82026,34.72945],[-83.82057,34.72952],[-83.82193,34.73016],[-83.82358,34.73119],[-83.82403,34.73109],[-83.82476,34.7306],[-83.82509,34.73048],[-83.8257,34.73043],[-83.82683,34.7306],[-83.8272,34.73054],[-83.82775,34.73016],[-83.82792,34.72983],[-83.82797,34.72938],[-83.82799,34.72675],[-83.82843,34.72618],[-83.82905,34.72582],[-83.83021,34.72579],[-83.83139,34.72613],[-83.83259,34.72658],[-83.83444,34.72781],[-83.8349,34.72792],[-83.83526,34.7279],[-83.83632,34.72774],[-83.83708,34.72737],[-83.83722,34.72723],[-83.83733,34.72684],[-83.83701,34.72604],[-83.83704,34.72569],[-83.83776,34.72501],[-83.83846,34.72497],[-83.84103,34.72638],[-83.84245,34.72737],[-83.84349,34.72794],[-83.84385,34.72869],[-83.84429,34.72883],[-83.84461,34.72874],[-83.84501,34.72847],[-83.84612,34.72711],[-83.8467,34.72664],[-83.84745,34.7263],[-83.84786,34.72637],[-83.84806,34.72653],[-83.84822,34.72701],[-83.84863,34.72977],[-83.84847,34.7315],[-83.84848,34.73316],[-83.84817,34.73417],[-83.84827,34.73515],[-83.84822,34.73536],[-83.84752,34.73642],[-83.84733,34.73763],[-83.84687,34.73873],[-83.84696,34.74044],[-83.84668,34.74186],[-83.84628,34.7426],[-83.84606,34.74332],[-83.84519,34.74439],[-83.84539,34.74544],[-83.84532,34.74563],[-83.84453,34.74635],[-83.84419,34.74684],[-83.8442,34.74822],[-83.84469,34.74904],[-83.84537,34.74985],[-83.84578,34.75009],[-83.84665,34.75031],[-83.84772,34.75045],[-83.84826,34.75067],[-83.84844,34.75081],[-83.84894,34.75173],[-83.84964,34.7523],[-83.85149,34.7535],[-83.8548,34.75493],[-83.85526,34.75525],[-83.85643,34.75645],[-83.85707,34.75673],[-83.85864,34.7568],[-83.85904,34.75694],[-83.85948,34.75751],[-83.85945,34.75846],[-83.85959,34.75879],[-83.86048,34.75977],[-83.86164,34.76076],[-83.86219,34.76093],[-83.86502,34.76064],[-83.86626,34.76081],[-83.86929,34.76161],[-83.86971,34.76179],[-83.87057,34.76242],[-83.87171,34.76267],[-83.87303,34.76317],[-83.87449,34.76392],[-83.87814,34.76648],[-83.87879,34.76664],[-83.88085,34.76669],[-83.88171,34.76705],[-83.88244,34.76773],[-83.88389,34.77014],[-83.88371,34.77076],[-83.88216,34.77219],[-83.88052,34.77515],[-83.87996,34.77821],[-83.87931,34.7852],[-83.87913,34.7859],[-83.87825,34.78757],[-83.87761,34.79106],[-83.87764,34.79148],[-83.87838,34.79263],[-83.87847,34.79315],[-83.87831,34.79346],[-83.87746,34.79447],[-83.87739,34.79507]]]}}
