{"type":"Feature","properties":{"id":"ridgecrest","name":"Pantoll & East Ridgecrest","difficulty":2,"character":"Low speed"},"geometry":{"type":"MultiLineString","coordinates":[[[-122.58084,37.92735],[-122.58245,37.92759],[-122.58401,37.92885],[-122.58438,37.92889],[-122.58516,37.928],[-122.58542,37.92786],[-122.58608,37.92784],[-122.5863,37.92775],[-122.58655,37.92716],[-122.58658,37.92579],[-122.58674,37.9257],[-122.5874,37.92567],[-122.5876,37.92504],[-122.58773,37.92494],[-122.58869,37.92544],[-122.58914,37.92593],[-122.59006,37.92612],[-122.59035,37.9266],[-122.59207,37.92728],[-122.59286,37.92719],[-122.59316,37.92696],[-122.5934,37.92649],[-122.59422,37.9263],[-122.59446,37.92614],[-122.59458,37.92585],[-122.59534,37.9256],[-122.59523,37.92405],[-122.59546,37.92351],[-122.59545,37.92291],[-122.59557,37.92273],[-122.5963,37.9227],[-122.59699,37.92305],[-122.59755,37.92308],[-122.59778,37.923],[-122.59801,37.92258],[-122.59868,37.92237],[-122.59919,37.92253],[-122.59976,37.92257],[-122.60062,37.92285],[-122.60086,37.92284],[-122.60177,37.92225],[-122.60243,37.92202],[-122.60319,37.92137],[-122.60324,37.92078],[-122.60374,37.92009],[-122.6042,37.91988],[-122.60471,37.91996],[-122.60497,37.91992],[-122.60642,37.91901],[-122.60671,37.91847],[-122.60706,37.91813],[-122.60751,37.91701],[-122.6076,37.91632],[-122.60805,37.91561],[-122.60793,37.91526],[-122.60798,37.91509],[-122.61059,37.91417],[-122.6108,37.91393],[-122.61104,37.91329],[-122.61171,37.91294],[-122.61175,37.91272],[-122.61123,37.91213],[-122.61112,37.91179],[-122.61173,37.91137],[-122.61203,37.91071],[-122.61262,37.91041],[-122.6127,37.91011],[-122.61262,37.90958],[-122.61276,37.90933],[-122.61321,37.90909],[-122.6134,37.90879],[-122.61422,37.90835],[-122.61427,37.90818],[-122.61411,37.90794],[-122.61414,37.90774],[-122.61486,37.9072],[-122.61484,37.90591],[-122.61442,37.90522],[-122.61426,37.90458],[-122.61411,37.90448],[-122.6137,37.90451],[-122.6136,37.90467],[-122.61373,37.90512],[-122.61368,37.90676],[-122.61344,37.90688],[-122.61277,37.9066],[-122.61233,37.90706],[-122.61138,37.90747],[-122.61073,37.90728],[-122.61054,37.90689],[-122.61034,37.9067],[-122.60955,37.90647],[-122.60924,37.90627],[-122.60883,37.90625],[-122.60841,37.90659],[-122.60801,37.90647],[-122.60771,37.90545],[-122.60702,37.90545],[-122.6069,37.90531],[-122.60689,37.905],[-122.60677,37.9049],[-122.60609,37.90488],[-122.60584,37.90446],[-122.60505,37.90382],[-122.60477,37.90383],[-122.6041,37.90432]]]}}
