{"type":"Feature","properties":{"id":"rim-of-the-world","name":"Rim of the World Highway \u00b7 SR 18","difficulty":2,"character":"Medium speed"},"geometry":{"type":"MultiLineString","coordinates":[[[-117.07847,34.21397],[-117.07679,34.21541],[-117.07641,34.21584],[-117.07587,34.21614],[-117.07497,34.21701],[-117.07356,34.21803],[-117.07181,34.21913],[-117.07107,34.21982],[-117.07023,34.22032],[-117.069,34.2207],[-117.06808,34.22145],[-117.06703,34.22155],[-117.06587,34.22205],[-117.06547,34.22239],[-117.06523,34.22303],[-117.06505,34.22324],[-117.06467,34.22332],[-117.06417,34.22325],[-117.06389,34.22334],[-117.06343,34.22377],[-117.06317,34.22432],[-117.06257,34.22436],[-117.0622,34.22478],[-117.06198,34.22486],[-117.06112,34.22435],[-117.06031,34.2244],[-117.05953,34.22478],[-117.05912,34.22516],[-117.05841,34.22504],[-117.0577,34.22531],[-117.05745,34.22547],[-117.05693,34.22605],[-117.05655,34.22623],[-117.05626,34.2262],[-117.05604,34.22602],[-117.05586,34.22517],[-117.05599,34.22497],[-117.0567,34.2245],[-117.05687,34.22315],[-117.05756,34.22229],[-117.05753,34.22197],[-117.05713,34.22154],[-117.0572,34.22076],[-117.05713,34.22045],[-117.05679,34.22016],[-117.05561,34.22021],[-117.05376,34.2199],[-117.05282,34.22],[-117.05148,34.22077],[-117.04982,34.22102],[-117.0487,34.22146],[-117.04664,34.2216],[-117.04578,34.22181],[-117.04272,34.22304],[-117.04186,34.224],[-117.04118,34.22446],[-117.03698,34.22549],[-117.03615,34.22555],[-117.033,34.22531],[-117.03247,34.22507],[-117.03174,34.22437],[-117.03076,34.22411],[-117.029,34.22401],[-117.0272,34.22416],[-117.0268,34.2243],[-117.02598,34.22498],[-117.02582,34.22522],[-117.02588,34.22578],[-117.02608,34.22621],[-117.02641,34.22653],[-117.02672,34.22661],[-117.02773,34.22661],[-117.0288,34.22627],[-117.02923,34.22638],[-117.02953,34.22692],[-117.02923,34.22787],[-117.02924,34.22809],[-117.02986,34.22875],[-117.02993,34.229],[-117.02976,34.22931],[-117.02898,34.22979],[-117.02802,34.23007],[-117.02766,34.23026],[-117.02669,34.23114],[-117.02683,34.23189],[-117.0266,34.23281],[-117.0269,34.23339],[-117.02706,34.23458],[-117.02753,34.23569],[-117.02715,34.23642],[-117.02599,34.23715],[-117.02589,34.23742],[-117.02611,34.23763],[-117.02715,34.23793],[-117.02736,34.23822],[-117.02748,34.23868],[-117.0278,34.23896],[-117.02835,34.239],[-117.02896,34.23873],[-117.02939,34.23868],[-117.03067,34.2392],[-117.03086,34.23942],[-117.03093,34.23972],[-117.03039,34.24084],[-117.03055,34.24168],[-117.02948,34.24303],[-117.02905,34.24326],[-117.02849,34.24329],[-117.02827,34.2434],[-117.02801,34.24456],[-117.02776,34.24494],[-117.02749,34.245],[-117.02607,34.24462],[-117.02575,34.24461],[-117.02551,34.2447],[-117.0253,34.24492],[-117.02501,34.24572],[-117.02476,34.24604],[-117.02447,34.24615],[-117.02356,34.24615],[-117.02316,34.24627],[-117.02261,34.247],[-117.02256,34.24781],[-117.02157,34.24863],[-117.02124,34.2492],[-117.02114,34.24974],[-117.02097,34.25005],[-117.02055,34.25032],[-117.01975,34.25042],[-117.01864,34.25096],[-117.01815,34.25099],[-117.01762,34.25075],[-117.0174,34.25046],[-117.01701,34.24893],[-117.0163,34.24841],[-117.01594,34.24832],[-117.01555,34.24838],[-117.01524,34.24855],[-117.0149,34.24923],[-117.01448,34.24965],[-117.01419,34.25012],[-117.01296,34.25093],[-117.0125,34.25107],[-117.01197,34.25103],[-117.01149,34.25077],[-117.0105,34.24901],[-117.0103,34.24884],[-117.01001,34.24876],[-117.00875,34.24892],[-117.0073,34.24864],[-117.00677,34.24866],[-117.00628,34.24883],[-117.00558,34.24932],[-117.0044,34.24984],[-117.00397,34.24996],[-117.00339,34.24994],[-117.003,34.24976],[-117.00264,34.24946],[-117.00248,34.24903],[-117.00239,34.2478],[-117.00218,34.24752],[-117.00175,34.24735],[-116.99985,34.24784],[-116.99819,34.24794],[-116.99789,34.24825],[-116.99714,34.25011],[-116.99685,34.25033],[-116.99631,34.25039],[-116.99593,34.25024],[-116.99454,34.24929],[-116.99374,34.24737],[-116.99318,34.24646],[-116.99288,34.24623],[-116.99242,34.2462],[-116.99091,34.2465],[-116.99056,34.24679],[-116.99034,34.24759],[-116.98995,34.24804],[-116.98942,34.24826],[-116.98881,34.24822],[-116.9877,34.24758],[-116.9859,34.24713],[-116.98536,34.24618],[-116.98459,34.24512],[-116.9841,34.24485],[-116.98252,34.24445],[-116.982,34.24389],[-116.98137,34.24352],[-116.98086,34.24256],[-116.98061,34.24233],[-116.98031,34.24225],[-116.97905,34.24218],[-116.97809,34.24197]]]}}
