{"type":"Feature","properties":{"id":"roan-mountain","name":"Roan Mountain \u00b7 NC 261 & TN 143","difficulty":3,"character":"Technical"},"geometry":{"type":"MultiLineString","coordinates":[[[-82.07287,36.19984],[-82.07343,36.19761],[-82.0735,36.19669],[-82.07314,36.19543],[-82.07213,36.19385],[-82.07181,36.19269],[-82.07147,36.18826],[-82.07177,36.18654],[-82.07182,36.1845],[-82.07216,36.18384],[-82.07244,36.18364],[-82.07366,36.18375],[-82.07467,36.18398],[-82.07528,36.18393],[-82.07551,36.18372],[-82.07566,36.18327],[-82.07538,36.18109],[-82.07548,36.1809],[-82.07699,36.17997],[-82.0774,36.17986],[-82.0784,36.17991],[-82.07901,36.1797],[-82.07917,36.17929],[-82.07924,36.17826],[-82.07978,36.17566],[-82.07948,36.17369],[-82.07957,36.17246],[-82.07982,36.17186],[-82.08053,36.17135],[-82.08111,36.17115],[-82.082,36.17122],[-82.08326,36.17164],[-82.0838,36.17168],[-82.08576,36.1715],[-82.08753,36.17111],[-82.08872,36.17111],[-82.08931,36.17135],[-82.09071,36.17231],[-82.09219,36.17291],[-82.09324,36.17403],[-82.09393,36.17441],[-82.0944,36.17446],[-82.09627,36.17426],[-82.09772,36.17392],[-82.09824,36.17368],[-82.09834,36.17355],[-82.09853,36.17119],[-82.0985,36.17046],[-82.09751,36.16902],[-82.09714,36.16829],[-82.09617,36.16764],[-82.09583,36.16729],[-82.09557,36.16651],[-82.09562,36.16566],[-82.09628,36.16411],[-82.09662,36.16194],[-82.0972,36.16074],[-82.09798,36.15967],[-82.09833,36.15892],[-82.09931,36.1553],[-82.09923,36.1544],[-82.09952,36.15246],[-82.10138,36.14909],[-82.10143,36.14848],[-82.10105,36.14611],[-82.1015,36.14412],[-82.10155,36.14209],[-82.10371,36.13735],[-82.10387,36.13679],[-82.10382,36.13618],[-82.10356,36.13561],[-82.10306,36.13514],[-82.10163,36.13418],[-82.10129,36.13373],[-82.1013,36.13355],[-82.10157,36.13305],[-82.10431,36.13083],[-82.10454,36.13045],[-82.10454,36.13018],[-82.10428,36.12982],[-82.10366,36.12964],[-82.10112,36.13051],[-82.10066,36.13035],[-82.10045,36.12999],[-82.10063,36.12964],[-82.10212,36.12871],[-82.10264,36.12823],[-82.10285,36.12783],[-82.1029,36.12741],[-82.10258,36.12658],[-82.1,36.12463],[-82.0992,36.12421],[-82.09808,36.12403],[-82.09722,36.12414],[-82.09655,36.12434],[-82.09603,36.12421],[-82.09587,36.12396],[-82.09566,36.12296],[-82.0952,36.12224],[-82.09488,36.12188],[-82.09431,36.12146],[-82.09338,36.12103],[-82.09219,36.12084],[-82.0891,36.12082],[-82.08866,36.12069],[-82.08773,36.12022],[-82.08707,36.12005],[-82.08644,36.12011],[-82.08558,36.12045],[-82.08503,36.12113],[-82.08434,36.12333],[-82.08416,36.12363],[-82.08345,36.12424],[-82.08327,36.12456],[-82.08323,36.1252],[-82.0836,36.1265],[-82.08418,36.12692],[-82.08521,36.12714],[-82.08566,36.12737],[-82.08593,36.12774],[-82.08594,36.12825],[-82.08534,36.12893],[-82.08486,36.12903],[-82.08434,36.12899],[-82.08335,36.12874],[-82.08255,36.12843],[-82.08216,36.12774],[-82.08196,36.12614],[-82.08114,36.12456],[-82.08103,36.12403],[-82.08174,36.12137],[-82.0817,36.12105],[-82.08114,36.11954],[-82.08114,36.11926],[-82.08131,36.11887],[-82.08171,36.11839],[-82.08186,36.11793],[-82.0817,36.1175],[-82.08139,36.11717],[-82.08131,36.11672],[-82.08204,36.11582],[-82.08207,36.11561],[-82.0819,36.11509],[-82.08196,36.11478],[-82.08275,36.11425],[-82.08309,36.11313],[-82.08359,36.11285],[-82.08479,36.11252],[-82.08515,36.11254],[-82.08562,36.11278],[-82.08621,36.11368],[-82.08675,36.11374],[-82.08708,36.11353],[-82.08838,36.11192],[-82.08895,36.11152],[-82.08973,36.11135],[-82.09083,36.1117],[-82.09241,36.11173],[-82.09278,36.11155],[-82.09322,36.11107],[-82.09527,36.10955],[-82.09616,36.10914],[-82.09662,36.10906],[-82.09715,36.10905],[-82.09789,36.10924],[-82.09911,36.11034],[-82.1003,36.11087],[-82.10113,36.11187],[-82.10156,36.1128],[-82.10186,36.11298],[-82.10225,36.11296],[-82.10257,36.11282],[-82.10347,36.11212],[-82.10484,36.11055],[-82.10535,36.11044],[-82.10671,36.11045],[-82.10885,36.10958],[-82.11016,36.1089],[-82.11057,36.10835],[-82.11073,36.10786],[-82.11074,36.10746],[-82.11059,36.10692],[-82.11015,36.10631],[-82.1097,36.106],[-82.10859,36.10552],[-82.10752,36.10447],[-82.10669,36.10402],[-82.10488,36.10368],[-82.10293,36.10358],[-82.1025,36.10335],[-82.1013,36.10235],[-82.10073,36.10212],[-82.09981,36.10214],[-82.0988,36.10268],[-82.09834,36.10283],[-82.09627,36.10294],[-82.09586,36.10276],[-82.09506,36.10155],[-82.09468,36.10125],[-82.09429,36.10115],[-82.09383,36.10116],[-82.0928,36.10166],[-82.09251,36.10158],[-82.09238,36.10145],[-82.09237,36.10034],[-82.09175,36.09914],[-82.09173,36.09825],[-82.09198,36.09765],[-82.09283,36.09663],[-82.09381,36.09614],[-82.0941,36.09586],[-82.09437,36.09471],[-82.09422,36.09427],[-82.09387,36.0939],[-82.09189,36.09309],[-82.09177,36.09281],[-82.09188,36.09259],[-82.09208,36.09247],[-82.09233,36.09246],[-82.09325,36.09291],[-82.09444,36.09307],[-82.09497,36.09322],[-82.09668,36.09425],[-82.0973,36.09496],[-82.0978,36.09509],[-82.09871,36.09513],[-82.09956,36.09496],[-82.10061,36.09442],[-82.10235,36.09315],[-82.10249,36.09288],[-82.10248,36.09256],[-82.10215,36.09215],[-82.10007,36.09114],[-82.09899,36.09041],[-82.09864,36.09005],[-82.09772,36.08843],[-82.0957,36.08554],[-82.09401,36.08266],[-82.09391,36.0821],[-82.0942,36.08122],[-82.094,36.08076],[-82.09301,36.08018],[-82.09191,36.07986],[-82.09069,36.07899],[-82.08983,36.07784],[-82.08973,36.07688],[-82.08947,36.07658],[-82.08899,36.07652],[-82.08816,36.07665],[-82.08797,36.07676],[-82.08761,36.07722],[-82.08713,36.07725],[-82.08608,36.07688],[-82.08578,36.07669],[-82.08557,36.07634],[-82.08561,36.07591],[-82.08585,36.07562],[-82.08783,36.07449],[-82.08874,36.07421],[-82.08966,36.0743],[-82.09048,36.07449],[-82.09095,36.07486],[-82.09143,36.07549],[-82.09185,36.07558],[-82.09218,36.07549],[-82.09301,36.07496],[-82.09556,36.07445],[-82.10203,36.07414],[-82.10275,36.07408],[-82.10326,36.07393],[-82.10828,36.07116],[-82.10862,36.07081],[-82.10878,36.07046],[-82.10885,36.07009],[-82.10876,36.06912],[-82.10901,36.0687],[-82.11015,36.06808],[-82.11097,36.06719],[-82.113,36.06654],[-82.11415,36.06522],[-82.1167,36.06322],[-82.11768,36.06302],[-82.11941,36.06333],[-82.12038,36.06336],[-82.12125,36.06317],[-82.12222,36.06281],[-82.12266,36.06279],[-82.12428,36.06358],[-82.12494,36.06368],[-82.1257,36.06349],[-82.13067,36.06169],[-82.13117,36.06112],[-82.13264,36.05725],[-82.13304,36.05685],[-82.13487,36.05583],[-82.13535,36.05584],[-82.13739,36.05636],[-82.14207,36.05626],[-82.14274,36.05637],[-82.14321,36.05656],[-82.14376,36.05699],[-82.14456,36.05831],[-82.14504,36.05878],[-82.1458,36.05912],[-82.14707,36.05936],[-82.14766,36.05916],[-82.14909,36.0577],[-82.14968,36.0573],[-82.15135,36.05644],[-82.15312,36.05503],[-82.15377,36.05439],[-82.15434,36.05319],[-82.15502,36.05224],[-82.15628,36.05089],[-82.15678,36.0502],[-82.15721,36.04993],[-82.15792,36.04966],[-82.15855,36.04902],[-82.15942,36.04847],[-82.16017,36.0477],[-82.16086,36.04729],[-82.16136,36.04675],[-82.16169,36.04625],[-82.16179,36.04567],[-82.16197,36.04539],[-82.16286,36.04461],[-82.16304,36.04383],[-82.16397,36.04335],[-82.16402,36.04302],[-82.16359,36.04248],[-82.16366,36.04205],[-82.16393,36.04186],[-82.1645,36.04169],[-82.1659,36.04156],[-82.16653,36.0414],[-82.16682,36.04128],[-82.16733,36.04086],[-82.16811,36.04057],[-82.16836,36.03983],[-82.16883,36.03927],[-82.16881,36.03909],[-82.16843,36.03854],[-82.16863,36.03801],[-82.16896,36.03776],[-82.16985,36.03769],[-82.17016,36.03732],[-82.17014,36.03708],[-82.16997,36.03684],[-82.1693,36.03663],[-82.16903,36.03643],[-82.16899,36.03623],[-82.16924,36.03576],[-82.16915,36.03549],[-82.16841,36.03517],[-82.16808,36.03476],[-82.16805,36.03443],[-82.16818,36.03413],[-82.16841,36.03393],[-82.16918,36.03355],[-82.16931,36.03336],[-82.16933,36.03307],[-82.16808,36.03091],[-82.16774,36.03067],[-82.1669,36.0304],[-82.16658,36.03009],[-82.16632,36.02917],[-82.16653,36.02808],[-82.16642,36.02769],[-82.16592,36.0273],[-82.16407,36.02672],[-82.1638,36.0265],[-82.1635,36.02597],[-82.16333,36.02542],[-82.16338,36.02407],[-82.16313,36.02322],[-82.16264,36.02015],[-82.16219,36.01894],[-82.16106,36.01733],[-82.16056,36.01637],[-82.15987,36.01577],[-82.15877,36.01541]]]}}
