{"type":"Feature","properties":{"id":"rock-creek-road","name":"Rock Creek Road","difficulty":2,"character":"Technical"},"geometry":{"type":"MultiLineString","coordinates":[[[-118.74683,37.43571],[-118.74669,37.43628],[-118.74625,37.43705],[-118.74614,37.43799],[-118.7458,37.43905],[-118.74592,37.43941],[-118.74589,37.43967],[-118.74562,37.44024],[-118.74565,37.4407],[-118.74546,37.44117],[-118.74535,37.44214],[-118.74502,37.44262],[-118.74427,37.44421],[-118.74431,37.44492],[-118.74325,37.44898],[-118.74327,37.44928],[-118.74348,37.44965],[-118.74331,37.45056],[-118.74303,37.4513],[-118.74237,37.45165],[-118.74214,37.45192],[-118.74069,37.45563],[-118.74038,37.45601],[-118.74004,37.45623],[-118.73887,37.45659],[-118.73745,37.45727],[-118.73651,37.45732],[-118.73522,37.45692],[-118.73485,37.45706],[-118.73439,37.45745],[-118.73397,37.45804],[-118.73369,37.45893],[-118.73342,37.45941],[-118.73104,37.46195],[-118.73032,37.46315],[-118.72842,37.46565],[-118.72726,37.46773],[-118.72626,37.46899],[-118.72562,37.47029],[-118.72484,37.47157],[-118.72352,37.47554],[-118.72322,37.4784],[-118.72253,37.48191],[-118.7221,37.48561],[-118.7207,37.49177],[-118.72019,37.4924],[-118.7188,37.49302],[-118.71824,37.49352],[-118.71613,37.49837],[-118.71585,37.50075],[-118.71399,37.50308],[-118.71382,37.50344],[-118.71381,37.50398],[-118.71422,37.50494],[-118.71429,37.5054],[-118.71325,37.50784],[-118.71319,37.51113],[-118.71247,37.51261],[-118.71211,37.51409],[-118.71214,37.51474],[-118.71248,37.51578],[-118.71247,37.51636],[-118.71211,37.51716],[-118.7109,37.51847],[-118.71065,37.51918],[-118.71076,37.52001],[-118.71202,37.52224],[-118.71219,37.52279],[-118.71137,37.52723],[-118.71111,37.5279],[-118.71,37.52953],[-118.70896,37.53177],[-118.70544,37.53677],[-118.70507,37.53714],[-118.70454,37.53741],[-118.70389,37.53752],[-118.70114,37.53728],[-118.69903,37.53777],[-118.69845,37.538],[-118.69658,37.5393],[-118.69507,37.53995],[-118.69465,37.5404],[-118.69429,37.54113],[-118.69403,37.54135],[-118.69356,37.54146],[-118.69246,37.54145],[-118.69191,37.54175],[-118.69176,37.54213],[-118.69186,37.54359],[-118.69143,37.54412],[-118.6913,37.5453],[-118.69098,37.54594],[-118.69076,37.54617],[-118.6854,37.54853],[-118.68272,37.5494],[-118.68184,37.5499],[-118.68129,37.55035],[-118.68079,37.55092],[-118.68043,37.55151],[-118.678,37.55681],[-118.67766,37.55841],[-118.67773,37.56097],[-118.67721,37.56197]]]}}
