{"type":"Feature","properties":{"id":"san-antonio","name":"San Antonio Valley Road","difficulty":3,"character":"Technical"},"geometry":{"type":"MultiLineString","coordinates":[[[-121.49039,37.39175],[-121.49145,37.38716],[-121.49149,37.38613],[-121.49139,37.38552],[-121.49103,37.38493],[-121.48863,37.38238],[-121.48767,37.38114],[-121.48476,37.3769],[-121.48447,37.37631],[-121.48437,37.37583],[-121.4842,37.36989],[-121.48428,37.36943],[-121.4845,37.3691],[-121.48478,37.36892],[-121.48639,37.36834],[-121.48722,37.36787],[-121.48775,37.36723],[-121.48791,37.36692],[-121.48791,37.36666],[-121.48682,37.36535],[-121.48494,37.36381],[-121.48429,37.3631],[-121.47833,37.35302],[-121.47822,37.34816],[-121.47768,37.34712],[-121.47772,37.34656],[-121.47812,37.34512],[-121.47769,37.34132],[-121.47773,37.34079],[-121.47655,37.3386],[-121.47615,37.33699],[-121.47615,37.33661],[-121.47645,37.33549],[-121.47625,37.33365],[-121.47626,37.33265],[-121.47508,37.33019],[-121.47476,37.32932],[-121.47475,37.32782],[-121.47526,37.32704],[-121.47558,37.32683],[-121.47665,37.32672],[-121.4771,37.32678],[-121.47904,37.32769],[-121.48034,37.32812],[-121.48112,37.32859],[-121.4822,37.32878],[-121.48363,37.32867],[-121.48451,37.32893],[-121.48539,37.32865],[-121.48561,37.32831],[-121.48578,37.32827],[-121.48622,37.32852],[-121.4867,37.32859],[-121.48692,37.32885],[-121.48742,37.32897],[-121.48819,37.32949],[-121.48871,37.32956],[-121.48913,37.32952],[-121.49032,37.32975],[-121.49095,37.33013],[-121.49113,37.33058],[-121.49205,37.33095],[-121.49234,37.33154],[-121.49286,37.33173],[-121.4933,37.33209],[-121.49522,37.33262],[-121.49559,37.33282],[-121.49628,37.33282],[-121.4973,37.33316],[-121.49868,37.33319],[-121.50057,37.33347],[-121.50147,37.33382],[-121.50194,37.33428],[-121.50315,37.33516],[-121.50438,37.33556],[-121.50651,37.33582],[-121.50747,37.33632],[-121.50863,37.33654],[-121.51001,37.3371],[-121.51167,37.33753],[-121.51293,37.33805],[-121.51503,37.33944],[-121.51571,37.34009],[-121.51663,37.34029],[-121.51716,37.3405],[-121.51852,37.34137],[-121.51991,37.34165],[-121.52113,37.34206],[-121.52154,37.34201],[-121.52274,37.34155],[-121.52307,37.3415],[-121.52552,37.34245],[-121.52593,37.34246],[-121.52683,37.34226],[-121.52708,37.34229],[-121.52753,37.34257],[-121.52775,37.34285],[-121.52812,37.34395],[-121.52911,37.34475],[-121.52994,37.34501],[-121.53051,37.34538],[-121.5319,37.34668],[-121.53245,37.34758],[-121.53397,37.34872],[-121.53472,37.35017],[-121.53502,37.3504],[-121.53591,37.35059],[-121.53888,37.35088],[-121.53931,37.35114],[-121.53964,37.35173],[-121.54005,37.35178],[-121.54082,37.3517],[-121.54155,37.35185],[-121.54203,37.35212],[-121.54264,37.35276],[-121.54282,37.35279],[-121.54312,37.35259],[-121.5434,37.35207],[-121.54356,37.35148],[-121.54375,37.35146],[-121.54413,37.35172],[-121.54495,37.35157],[-121.54505,37.35117],[-121.54485,37.35058],[-121.54494,37.35043],[-121.54521,37.35041],[-121.54574,37.351],[-121.54623,37.35134],[-121.54781,37.35193],[-121.5482,37.35252],[-121.54849,37.35273],[-121.54961,37.35326],[-121.55211,37.35414],[-121.55246,37.35417],[-121.55336,37.35395],[-121.55533,37.35372],[-121.55634,37.35368],[-121.55774,37.35399],[-121.55865,37.35446],[-121.55977,37.35438],[-121.56023,37.35448],[-121.56104,37.35489],[-121.56215,37.35503],[-121.56283,37.35547],[-121.56337,37.35618],[-121.56363,37.35634],[-121.56455,37.35644],[-121.56639,37.35607],[-121.56713,37.35605],[-121.56748,37.35619],[-121.56807,37.3566],[-121.5695,37.35706],[-121.57036,37.35768],[-121.57115,37.358],[-121.5715,37.35807],[-121.57252,37.35803],[-121.57318,37.35778],[-121.57435,37.35905],[-121.57437,37.35926],[-121.57408,37.35962],[-121.5742,37.35981],[-121.57447,37.35974],[-121.57466,37.3594],[-121.57465,37.35836],[-121.57493,37.35707],[-121.575,37.35689],[-121.57523,37.35679],[-121.57599,37.35706],[-121.57681,37.35686],[-121.57801,37.35706],[-121.57877,37.35695],[-121.57936,37.35732],[-121.57986,37.35745],[-121.58037,37.35776],[-121.58189,37.35787],[-121.58222,37.35815],[-121.58225,37.35858],[-121.58246,37.35884],[-121.58368,37.35957],[-121.58408,37.35952],[-121.58421,37.35935],[-121.58424,37.35885],[-121.58444,37.35821],[-121.5841,37.3578],[-121.58414,37.35735],[-121.58384,37.35681],[-121.58388,37.35663],[-121.58414,37.35647],[-121.58439,37.35648],[-121.58498,37.35688],[-121.58643,37.35738],[-121.58674,37.35731],[-121.58776,37.35679],[-121.58918,37.35657],[-121.58963,37.35636],[-121.58993,37.35603],[-121.59044,37.35475],[-121.59045,37.35335],[-121.5903,37.35315],[-121.58986,37.35306],[-121.58892,37.35262],[-121.58884,37.35244],[-121.58903,37.35205],[-121.58931,37.35193],[-121.59063,37.35195],[-121.59113,37.35113],[-121.59234,37.35073],[-121.59284,37.35018],[-121.59365,37.35023],[-121.59454,37.34955],[-121.59507,37.34939],[-121.59539,37.34875],[-121.59561,37.34879],[-121.59563,37.34894],[-121.59508,37.35009],[-121.59469,37.35061],[-121.59486,37.35086],[-121.59542,37.35107],[-121.59555,37.35098],[-121.59518,37.35066],[-121.59548,37.35033],[-121.59636,37.34985],[-121.59762,37.34891],[-121.59839,37.3488],[-121.59891,37.34836],[-121.5991,37.34831],[-121.59923,37.34844],[-121.59905,37.34891],[-121.59833,37.3497],[-121.59837,37.35],[-121.59861,37.35004],[-121.59909,37.34992],[-121.59983,37.35],[-121.60016,37.34977],[-121.60039,37.34975],[-121.60066,37.35021],[-121.60104,37.35048],[-121.6021,37.35085],[-121.60372,37.35105],[-121.60436,37.35135],[-121.60501,37.35193],[-121.60533,37.35209],[-121.60589,37.35199],[-121.60655,37.35114],[-121.60712,37.35133],[-121.60798,37.35114],[-121.60813,37.35088],[-121.60819,37.35024],[-121.60839,37.35002],[-121.60904,37.35025],[-121.60996,37.3501],[-121.61024,37.35091],[-121.61052,37.35113],[-121.61074,37.35114],[-121.6109,37.35094],[-121.61083,37.35013],[-121.61093,37.34983],[-121.61136,37.34951],[-121.61203,37.3494],[-121.61216,37.3495],[-121.61217,37.34989],[-121.61249,37.35017],[-121.61356,37.3503],[-121.61375,37.35041],[-121.61371,37.35082],[-121.61342,37.35135],[-121.61385,37.35191],[-121.61382,37.35218],[-121.61392,37.35227],[-121.61406,37.35215],[-121.61409,37.35193],[-121.61388,37.35139],[-121.61425,37.35088],[-121.61448,37.35023],[-121.61496,37.34985],[-121.61485,37.34895]]]}}
