{"type":"Feature","properties":{"id":"san-gabriel-canyon","name":"San Gabriel Canyon Road \u00b7 SR 39","difficulty":2,"character":"Medium speed"},"geometry":{"type":"MultiLineString","coordinates":[[[-117.91009,34.15105],[-117.91145,34.15666],[-117.91146,34.15718],[-117.91129,34.15787],[-117.91071,34.15871],[-117.90956,34.15944],[-117.90839,34.15971],[-117.9071,34.1596],[-117.90401,34.15859],[-117.90338,34.15859],[-117.90156,34.15902],[-117.90014,34.15968],[-117.89862,34.16056],[-117.89653,34.16339],[-117.89609,34.1638],[-117.89529,34.16407],[-117.89269,34.16415],[-117.89213,34.16435],[-117.8919,34.16481],[-117.89223,34.16578],[-117.89218,34.16654],[-117.89233,34.16771],[-117.89224,34.16878],[-117.89247,34.16945],[-117.89232,34.17041],[-117.89211,34.17077],[-117.89108,34.17152],[-117.8904,34.17178],[-117.88975,34.17169],[-117.88862,34.17109],[-117.88822,34.17109],[-117.88778,34.17132],[-117.88689,34.17327],[-117.88654,34.17436],[-117.88633,34.17467],[-117.88534,34.17553],[-117.88454,34.17574],[-117.88429,34.17589],[-117.88378,34.17644],[-117.88285,34.17656],[-117.8825,34.17683],[-117.88222,34.1776],[-117.88218,34.17851],[-117.88194,34.17931],[-117.88167,34.18],[-117.88122,34.18046],[-117.8811,34.18131],[-117.88089,34.18153],[-117.88031,34.18188],[-117.87951,34.18291],[-117.87815,34.18365],[-117.87785,34.18365],[-117.87718,34.18348],[-117.87663,34.18357],[-117.87635,34.18375],[-117.87581,34.18436],[-117.87532,34.18463],[-117.87484,34.18457],[-117.87393,34.18407],[-117.87356,34.18402],[-117.87301,34.18418],[-117.8721,34.18488],[-117.87183,34.18527],[-117.87193,34.18711],[-117.87169,34.18752],[-117.8712,34.1878],[-117.86759,34.189],[-117.86593,34.19021],[-117.86566,34.19065],[-117.86601,34.19173],[-117.8657,34.19281],[-117.86529,34.19322],[-117.86428,34.19372],[-117.86386,34.19416],[-117.86347,34.19547],[-117.86303,34.19615],[-117.86283,34.19761],[-117.86266,34.19815],[-117.86239,34.19859],[-117.86178,34.19946],[-117.86142,34.19977],[-117.86061,34.2],[-117.85935,34.20016],[-117.85893,34.20037],[-117.85872,34.2006],[-117.85862,34.20101],[-117.85874,34.20175],[-117.85894,34.20207],[-117.85926,34.20227],[-117.85981,34.20243],[-117.86093,34.20242],[-117.86163,34.20252],[-117.86363,34.20311],[-117.86452,34.20362],[-117.86579,34.20385],[-117.86661,34.20452],[-117.86676,34.20483],[-117.86676,34.20524],[-117.8666,34.20558],[-117.8659,34.20635],[-117.86527,34.20726],[-117.86527,34.20753],[-117.86556,34.20838],[-117.86548,34.20964],[-117.86486,34.21057],[-117.86374,34.21109],[-117.86348,34.21134],[-117.86335,34.21162],[-117.86332,34.21194],[-117.86345,34.21233],[-117.86414,34.21349],[-117.86434,34.21445],[-117.86435,34.215],[-117.86402,34.21535],[-117.86357,34.21538],[-117.86316,34.21517],[-117.86285,34.21479],[-117.86256,34.21461],[-117.86212,34.21452],[-117.86177,34.21457],[-117.86137,34.2148],[-117.86004,34.21637],[-117.85961,34.2167],[-117.85912,34.21682],[-117.85797,34.21685],[-117.85638,34.21676],[-117.85599,34.21686],[-117.85551,34.21715],[-117.85523,34.21751],[-117.85513,34.21787],[-117.85546,34.21909],[-117.85507,34.21998],[-117.85512,34.22121],[-117.85501,34.22156],[-117.85476,34.22179],[-117.85433,34.22192],[-117.85219,34.22183],[-117.85185,34.22196],[-117.85164,34.22217],[-117.85097,34.22418],[-117.84831,34.22616],[-117.84767,34.2274],[-117.84584,34.22944],[-117.84566,34.23003],[-117.84583,34.23075],[-117.84571,34.23167],[-117.84644,34.23267],[-117.84665,34.23316],[-117.84675,34.23418],[-117.84715,34.23468],[-117.84772,34.23494],[-117.84878,34.23501],[-117.84964,34.23521],[-117.85062,34.2358],[-117.85103,34.23625],[-117.85135,34.2369],[-117.85143,34.23734],[-117.85132,34.23952],[-117.85145,34.23982],[-117.85183,34.2401],[-117.85262,34.24024],[-117.8558,34.24018],[-117.85647,34.23986],[-117.85915,34.2377],[-117.86017,34.23724],[-117.86132,34.23715],[-117.86237,34.23742],[-117.86301,34.23786],[-117.86342,34.23834],[-117.8645,34.24024],[-117.86479,34.24064],[-117.86516,34.24093],[-117.8659,34.24117],[-117.86822,34.24116],[-117.86898,34.24136],[-117.86936,34.24159],[-117.86967,34.24195],[-117.86986,34.24242],[-117.86988,34.24287],[-117.86954,34.24412],[-117.86907,34.24495],[-117.86861,34.24536],[-117.86684,34.24652],[-117.86576,34.24807],[-117.86537,34.24882],[-117.86512,34.24898],[-117.86404,34.2492],[-117.86153,34.25069],[-117.86059,34.25102],[-117.86041,34.25118],[-117.85993,34.25207],[-117.85869,34.25368],[-117.85862,34.25429],[-117.85838,34.25493],[-117.85872,34.25606],[-117.85874,34.25643],[-117.85863,34.25678],[-117.85775,34.25754],[-117.8572,34.25834],[-117.85631,34.25908],[-117.85551,34.25944],[-117.85496,34.25984],[-117.85443,34.2601],[-117.85403,34.26044],[-117.85371,34.26089],[-117.85268,34.26125],[-117.85242,34.26148],[-117.85208,34.26207],[-117.85178,34.26234],[-117.85123,34.26262],[-117.851,34.2626],[-117.85047,34.26207],[-117.85017,34.26202],[-117.84892,34.26207],[-117.84569,34.26199],[-117.84508,34.26217],[-117.84485,34.26241],[-117.84434,34.26369],[-117.84432,34.26427],[-117.84659,34.26965],[-117.84696,34.27099],[-117.84703,34.27162],[-117.84701,34.27248],[-117.8459,34.27737],[-117.84561,34.27785],[-117.84487,34.27837],[-117.84418,34.27853],[-117.84189,34.27872],[-117.84103,34.27888],[-117.84012,34.27941],[-117.83968,34.27992],[-117.83814,34.28232],[-117.83793,34.28272],[-117.83787,34.28318],[-117.83811,34.28392],[-117.83859,34.28437],[-117.83906,34.28457],[-117.83987,34.28467],[-117.84059,34.28445],[-117.84298,34.28279],[-117.84374,34.28262],[-117.84434,34.28267],[-117.845,34.28289],[-117.84565,34.28345],[-117.84588,34.28409],[-117.84572,34.28489]]]}}
