{"type":"Feature","properties":{"id":"san-jacinto-243","name":"Banning\u2013Idyllwild Panoramic Highway \u00b7 SR 243","difficulty":3,"character":"Technical"},"geometry":{"type":"MultiLineString","coordinates":[[[-116.87667,33.91198],[-116.87633,33.91108],[-116.87441,33.90846],[-116.87402,33.90765],[-116.8726,33.90652],[-116.8722,33.90641],[-116.87187,33.90643],[-116.8704,33.90712],[-116.86973,33.90725],[-116.8694,33.90721],[-116.86848,33.90686],[-116.86773,33.90641],[-116.86727,33.90629],[-116.86679,33.90639],[-116.86607,33.9067],[-116.86544,33.90675],[-116.86321,33.90612],[-116.86221,33.90613],[-116.86176,33.90605],[-116.86136,33.90571],[-116.86103,33.9052],[-116.86067,33.90492],[-116.85971,33.90448],[-116.85888,33.9043],[-116.85855,33.90412],[-116.85838,33.90372],[-116.85871,33.9029],[-116.85862,33.90246],[-116.85789,33.90198],[-116.85741,33.90147],[-116.85673,33.90103],[-116.85601,33.90041],[-116.85518,33.90006],[-116.85487,33.89973],[-116.85488,33.89908],[-116.85517,33.89876],[-116.8555,33.89861],[-116.85633,33.89861],[-116.85676,33.89879],[-116.8571,33.89925],[-116.85722,33.90005],[-116.85758,33.90048],[-116.85806,33.90075],[-116.85907,33.90096],[-116.85964,33.90119],[-116.86054,33.90176],[-116.8612,33.90187],[-116.86295,33.90164],[-116.86348,33.90166],[-116.8646,33.90213],[-116.86566,33.90217],[-116.86769,33.90278],[-116.86802,33.90273],[-116.86834,33.90253],[-116.86866,33.90198],[-116.86892,33.90173],[-116.86997,33.90152],[-116.8705,33.90123],[-116.87067,33.90075],[-116.8705,33.9003],[-116.87017,33.90006],[-116.86941,33.89978],[-116.86898,33.89976],[-116.86855,33.89988],[-116.86819,33.90028],[-116.86817,33.90099],[-116.86806,33.90128],[-116.86782,33.90152],[-116.8673,33.90163],[-116.86693,33.90153],[-116.86526,33.90063],[-116.86465,33.89993],[-116.86411,33.89963],[-116.86365,33.89956],[-116.86229,33.89966],[-116.86159,33.8994],[-116.86109,33.89878],[-116.86089,33.89809],[-116.86046,33.89736],[-116.86033,33.89638],[-116.86004,33.89579],[-116.85996,33.89531],[-116.86024,33.89435],[-116.86025,33.89373],[-116.86043,33.89339],[-116.8608,33.89318],[-116.86199,33.89287],[-116.86257,33.8923],[-116.86268,33.89163],[-116.86259,33.89121],[-116.86237,33.89088],[-116.86171,33.89047],[-116.86055,33.89011],[-116.85924,33.8894],[-116.85869,33.88948],[-116.85838,33.88976],[-116.85807,33.89025],[-116.8576,33.89042],[-116.85641,33.89012],[-116.85513,33.89024],[-116.85454,33.89005],[-116.85427,33.8897],[-116.85407,33.88863],[-116.85414,33.88832],[-116.85435,33.88812],[-116.85461,33.88799],[-116.85498,33.88796],[-116.85606,33.88828],[-116.85658,33.88832],[-116.85711,33.88819],[-116.85755,33.88773],[-116.85757,33.88728],[-116.85721,33.88665],[-116.85692,33.88549],[-116.85672,33.88522],[-116.85622,33.88488],[-116.8547,33.88484],[-116.85413,33.88466],[-116.8537,33.88439],[-116.85264,33.88289],[-116.85179,33.88198],[-116.85112,33.88102],[-116.8508,33.88077],[-116.85019,33.8806],[-116.84925,33.88065],[-116.84824,33.88045],[-116.84725,33.88063],[-116.84675,33.88056],[-116.84471,33.87977],[-116.84305,33.87878],[-116.84255,33.87836],[-116.84226,33.8777],[-116.8419,33.87502],[-116.84162,33.87454],[-116.83993,33.87274],[-116.83965,33.87231],[-116.83964,33.87175],[-116.84036,33.87082],[-116.84047,33.87034],[-116.84035,33.86989],[-116.83989,33.86921],[-116.83942,33.86739],[-116.839,33.86674],[-116.83737,33.86531],[-116.83693,33.86449],[-116.83685,33.86369],[-116.83702,33.86293],[-116.83832,33.86092],[-116.83854,33.86043],[-116.83845,33.85976],[-116.83804,33.85926],[-116.83648,33.85815],[-116.83398,33.85588],[-116.83219,33.85493],[-116.83159,33.85404],[-116.83015,33.853],[-116.8292,33.85205],[-116.82871,33.85186],[-116.82759,33.85188],[-116.82684,33.85169],[-116.82639,33.85138],[-116.82586,33.85049],[-116.82536,33.85017],[-116.82473,33.8501],[-116.82331,33.85024],[-116.82265,33.84998],[-116.82239,33.84963],[-116.82222,33.84891],[-116.82198,33.84864],[-116.82024,33.84793],[-116.81981,33.84757],[-116.81962,33.84697],[-116.81967,33.84624],[-116.81951,33.84599],[-116.81897,33.84567],[-116.81733,33.84533],[-116.81661,33.84502],[-116.81628,33.84465],[-116.81562,33.84334],[-116.81512,33.84297],[-116.81406,33.84274],[-116.81378,33.84259],[-116.81348,33.84225],[-116.81329,33.84167],[-116.81303,33.84135],[-116.81241,33.84113],[-116.81208,33.84115],[-116.81125,33.84146],[-116.81084,33.84143],[-116.81046,33.84125],[-116.81018,33.8409],[-116.81014,33.84054],[-116.81023,33.84029],[-116.81067,33.83975],[-116.81073,33.83918],[-116.81048,33.83885],[-116.80927,33.83821],[-116.80908,33.83797],[-116.80868,33.83699],[-116.80816,33.83653],[-116.8076,33.83627],[-116.80317,33.83525],[-116.80209,33.8349],[-116.80088,33.83423],[-116.79651,33.83117],[-116.79627,33.83084],[-116.79612,33.83021],[-116.7963,33.82884],[-116.79623,33.82822],[-116.79362,33.82312],[-116.79401,33.82218],[-116.79405,33.82189],[-116.79393,33.82157],[-116.79351,33.82122],[-116.79274,33.82091],[-116.79159,33.8208],[-116.79108,33.82057],[-116.79037,33.82001],[-116.78931,33.81942],[-116.78897,33.81886],[-116.78892,33.81856],[-116.78906,33.81807],[-116.79006,33.81709],[-116.79025,33.81677],[-116.79028,33.81637],[-116.79009,33.8159],[-116.78937,33.81508],[-116.78922,33.81368],[-116.78793,33.8121],[-116.7879,33.8116],[-116.78854,33.81051],[-116.78862,33.80991],[-116.78854,33.80949],[-116.7872,33.80579],[-116.78679,33.80522],[-116.78622,33.80469],[-116.78517,33.80422],[-116.78415,33.80406],[-116.78128,33.8043],[-116.78063,33.80394],[-116.78046,33.80369],[-116.78038,33.8033],[-116.78066,33.80224],[-116.78038,33.80137],[-116.77943,33.79927],[-116.77862,33.79844],[-116.77807,33.79752],[-116.7777,33.79729],[-116.77731,33.79719],[-116.77588,33.7973],[-116.77462,33.79672],[-116.77368,33.79664],[-116.77316,33.79683],[-116.76807,33.79984],[-116.76725,33.7999],[-116.76633,33.79953],[-116.76581,33.79944],[-116.76524,33.79953],[-116.7646,33.79983],[-116.76415,33.79988],[-116.76367,33.79972],[-116.7629,33.79878],[-116.76218,33.79836],[-116.76046,33.79812],[-116.75789,33.79675],[-116.75733,33.79662],[-116.75547,33.79649],[-116.7541,33.79617],[-116.75364,33.79618],[-116.75253,33.79645],[-116.75161,33.79642],[-116.75124,33.79648],[-116.75088,33.79668],[-116.75053,33.79701],[-116.7502,33.79806],[-116.74982,33.79865],[-116.7493,33.79892],[-116.74853,33.79887],[-116.74799,33.79856],[-116.7473,33.79751],[-116.74699,33.79679],[-116.74626,33.79613],[-116.74617,33.79541],[-116.74597,33.79495],[-116.74568,33.79471],[-116.74526,33.7946],[-116.7444,33.79483],[-116.74371,33.79552],[-116.74285,33.79607],[-116.74241,33.79666],[-116.74209,33.79692],[-116.74152,33.79702],[-116.74111,33.79682],[-116.74093,33.79639],[-116.74099,33.79615],[-116.74187,33.79548],[-116.74239,33.79482],[-116.74314,33.7942],[-116.74338,33.79369],[-116.74349,33.79282],[-116.74367,33.7925],[-116.74515,33.79143],[-116.7455,33.79139],[-116.74643,33.79163],[-116.74783,33.79159],[-116.74822,33.79146],[-116.74897,33.791],[-116.74993,33.79065],[-116.7502,33.79041],[-116.75036,33.7901],[-116.75025,33.78936],[-116.75031,33.78912],[-116.75049,33.78888],[-116.75161,33.78804],[-116.75191,33.78752],[-116.75202,33.78687],[-116.75187,33.78637],[-116.75112,33.78575],[-116.75083,33.78527],[-116.75092,33.78487],[-116.7514,33.7843],[-116.75154,33.78377],[-116.75142,33.78337],[-116.75109,33.78302],[-116.75067,33.78287],[-116.74962,33.78274],[-116.74902,33.78252],[-116.74695,33.78051],[-116.74383,33.77878],[-116.74338,33.77868],[-116.74301,33.77871],[-116.74186,33.77921],[-116.74126,33.77931],[-116.74049,33.7792],[-116.7398,33.77881],[-116.73928,33.77824],[-116.73877,33.77788],[-116.73791,33.7775],[-116.73662,33.77717],[-116.73628,33.77699],[-116.73611,33.77674],[-116.73612,33.77645],[-116.73639,33.77609],[-116.73752,33.77567],[-116.73897,33.77485],[-116.73944,33.77435],[-116.73962,33.77397],[-116.73981,33.7728],[-116.74046,33.77193],[-116.74091,33.77043],[-116.74077,33.76934],[-116.74091,33.76842],[-116.74054,33.7674],[-116.74055,33.76683],[-116.7404,33.76639],[-116.73981,33.76573],[-116.7382,33.76497],[-116.73794,33.76473],[-116.73775,33.76435],[-116.73777,33.76112],[-116.73816,33.75996],[-116.73886,33.75889],[-116.73887,33.75851],[-116.73787,33.75704],[-116.73723,33.7559],[-116.73674,33.75563],[-116.736,33.75552],[-116.73553,33.75536],[-116.73526,33.75512],[-116.73513,33.75484],[-116.7352,33.7544],[-116.73593,33.75302],[-116.736,33.75258],[-116.73581,33.75197],[-116.73493,33.75092],[-116.73486,33.75023],[-116.73508,33.74973],[-116.73554,33.74933],[-116.73598,33.74915],[-116.73709,33.74904]]]}}
