{"type":"Feature","properties":{"id":"san-pablo-dam","name":"San Pablo Dam Road","difficulty":1,"character":"Medium speed"},"geometry":{"type":"MultiLineString","coordinates":[[[-122.30365,37.967],[-122.30255,37.96682],[-122.29823,37.96502],[-122.29575,37.96383],[-122.29488,37.96353],[-122.2941,37.96343],[-122.28965,37.96324],[-122.28644,37.96252],[-122.28589,37.96228],[-122.28537,37.96196],[-122.28439,37.96089],[-122.28187,37.95943],[-122.27503,37.95419],[-122.27459,37.95397],[-122.27224,37.95327],[-122.27105,37.95259],[-122.27072,37.9522],[-122.26919,37.94968],[-122.26885,37.94871],[-122.26682,37.94558],[-122.26671,37.94524],[-122.26657,37.94365],[-122.26643,37.94332],[-122.26595,37.94275],[-122.26544,37.94239],[-122.26264,37.94149],[-122.26202,37.94118],[-122.2615,37.94073],[-122.26067,37.93929],[-122.25927,37.93739],[-122.25758,37.93302],[-122.25701,37.93231],[-122.25546,37.93127],[-122.25487,37.93045],[-122.25468,37.92845],[-122.25443,37.92793],[-122.25401,37.92744],[-122.25302,37.92689],[-122.25101,37.92641],[-122.25035,37.92609],[-122.24976,37.92555],[-122.24953,37.92515],[-122.24912,37.92392],[-122.2489,37.92349],[-122.24849,37.92306],[-122.24491,37.92116],[-122.24401,37.92051],[-122.24328,37.91981],[-122.24239,37.91842],[-122.24169,37.91782],[-122.24075,37.91745],[-122.23806,37.9169],[-122.23702,37.91652],[-122.236,37.91596],[-122.2347,37.91494],[-122.23408,37.91398],[-122.23356,37.91119],[-122.23333,37.91057],[-122.23301,37.91012],[-122.23244,37.90958],[-122.22708,37.90567],[-122.22635,37.90536],[-122.22561,37.90517],[-122.22311,37.90524],[-122.22228,37.90518],[-122.21739,37.90377],[-122.2164,37.90336],[-122.21548,37.90271],[-122.21358,37.90082],[-122.2131,37.90048],[-122.2105,37.89952]]]}}
