{"type":"Feature","properties":{"id":"santiam-pass","name":"Santiam Pass \u00b7 US 20","difficulty":2,"character":"Medium speed"},"geometry":{"type":"MultiLineString","coordinates":[[[-122.73612,44.39763],[-122.73396,44.39735],[-122.73236,44.39738],[-122.73138,44.39751],[-122.65768,44.40976],[-122.65294,44.41007],[-122.65167,44.41001],[-122.64812,44.40951],[-122.64378,44.40808],[-122.64274,44.40794],[-122.6414,44.40798],[-122.64034,44.4082],[-122.63912,44.40873],[-122.63821,44.4094],[-122.63658,44.41113],[-122.63559,44.41174],[-122.63067,44.41327],[-122.62986,44.41344],[-122.62912,44.41347],[-122.62577,44.41301],[-122.61891,44.41331],[-122.6167,44.41267],[-122.6148,44.41242],[-122.61283,44.41181],[-122.61135,44.41165],[-122.60972,44.41125],[-122.60806,44.41121],[-122.60738,44.41111],[-122.60671,44.41077],[-122.60627,44.41017],[-122.60606,44.40916],[-122.60614,44.40834],[-122.60582,44.4078],[-122.60531,44.40753],[-122.60442,44.40741],[-122.60278,44.40699],[-122.60196,44.40707],[-122.60093,44.40758],[-122.59967,44.408],[-122.59928,44.40803],[-122.59799,44.40777],[-122.59739,44.40778],[-122.59478,44.40863],[-122.59387,44.40868],[-122.59366,44.40858],[-122.59341,44.40827],[-122.59317,44.40734],[-122.59372,44.40497],[-122.59366,44.40396],[-122.59333,44.40326],[-122.59197,44.4018],[-122.59133,44.40126],[-122.59069,44.40097],[-122.58751,44.40007],[-122.58696,44.40002],[-122.58628,44.40012],[-122.57866,44.40278],[-122.56866,44.40581],[-122.56795,44.40588],[-122.5674,44.40562],[-122.56723,44.40525],[-122.56791,44.40378],[-122.56781,44.40313],[-122.56741,44.40254],[-122.56695,44.40221],[-122.56636,44.40197],[-122.56552,44.40184],[-122.55792,44.40133],[-122.55471,44.40153],[-122.55345,44.40188],[-122.55275,44.40195],[-122.54494,44.40136],[-122.54385,44.40096],[-122.54082,44.39922],[-122.53914,44.39899],[-122.53821,44.39878],[-122.53378,44.39701],[-122.53256,44.39619],[-122.53224,44.39571],[-122.53216,44.39512],[-122.53197,44.39482],[-122.5311,44.39435],[-122.53061,44.39426],[-122.52932,44.39434],[-122.52865,44.39429],[-122.52435,44.39351],[-122.51917,44.39288],[-122.5165,44.39225],[-122.50869,44.39011],[-122.5076,44.38996],[-122.50266,44.39002],[-122.50109,44.39023],[-122.48311,44.39677],[-122.48228,44.39702],[-122.48102,44.39724],[-122.47886,44.39724],[-122.47249,44.39624],[-122.46569,44.39582],[-122.46423,44.39593],[-122.4537,44.39747],[-122.45219,44.39743],[-122.44886,44.39686],[-122.44739,44.39684],[-122.44553,44.39718],[-122.43823,44.39983],[-122.43676,44.40012],[-122.43539,44.40017],[-122.42496,44.39951],[-122.42345,44.39923],[-122.42132,44.39855],[-122.42072,44.39856],[-122.4198,44.3988],[-122.41935,44.39882],[-122.41834,44.39846],[-122.41762,44.39834],[-122.41707,44.3984],[-122.41613,44.39868],[-122.41555,44.39864],[-122.41514,44.39847],[-122.41484,44.39818],[-122.41366,44.39572],[-122.41322,44.3953],[-122.41269,44.39506],[-122.41092,44.39472],[-122.40908,44.39403],[-122.40836,44.39391],[-122.40755,44.39408],[-122.4044,44.39531],[-122.40047,44.39614],[-122.39978,44.39637],[-122.399,44.39685],[-122.39802,44.39785],[-122.39757,44.39807],[-122.39697,44.3982],[-122.39435,44.39847],[-122.39296,44.3989],[-122.39235,44.39921],[-122.3916,44.39974],[-122.391,44.40041],[-122.39019,44.40169],[-122.38983,44.402],[-122.38907,44.4024],[-122.38253,44.40388],[-122.38162,44.40391],[-122.37971,44.40373],[-122.37778,44.40404],[-122.37416,44.4041],[-122.37288,44.40379],[-122.37145,44.40302],[-122.37085,44.40298],[-122.3703,44.40315],[-122.36999,44.40338],[-122.36962,44.40421],[-122.3693,44.40457],[-122.36878,44.40476],[-122.36825,44.40474],[-122.36728,44.40441],[-122.3667,44.40403],[-122.3644,44.40174],[-122.36383,44.40149],[-122.36228,44.4012],[-122.36122,44.40052],[-122.36074,44.40033],[-122.35994,44.40021],[-122.35906,44.40021],[-122.35818,44.40031],[-122.35626,44.40074],[-122.35516,44.40069],[-122.3516,44.40014],[-122.35006,44.39892],[-122.34922,44.39862],[-122.34485,44.39838],[-122.34425,44.39845],[-122.34346,44.39869],[-122.34126,44.40008],[-122.33843,44.40103],[-122.33715,44.40155],[-122.3355,44.4028],[-122.33468,44.4031],[-122.33364,44.40309],[-122.32846,44.40222],[-122.32744,44.40223],[-122.32483,44.40273],[-122.32361,44.40282],[-122.32218,44.40273],[-122.31765,44.40209],[-122.31677,44.40204],[-122.31586,44.40225],[-122.31459,44.40297],[-122.31271,44.40341],[-122.3111,44.40443],[-122.31028,44.40475],[-122.3085,44.40523],[-122.30523,44.40563],[-122.30447,44.40558],[-122.3035,44.40525],[-122.30291,44.40486],[-122.30232,44.40408],[-122.30174,44.40373],[-122.30126,44.40363],[-122.29925,44.40354],[-122.29787,44.40359],[-122.29685,44.40377],[-122.29556,44.40427],[-122.29445,44.40504],[-122.29326,44.40639],[-122.29282,44.40663],[-122.2922,44.40676],[-122.28177,44.40602],[-122.2798,44.40578],[-122.2783,44.40518],[-122.27578,44.403],[-122.27441,44.40212],[-122.27402,44.40204],[-122.27343,44.40206],[-122.27165,44.4027],[-122.27075,44.40283],[-122.26991,44.4028],[-122.26917,44.40247],[-122.26827,44.40115],[-122.26752,44.40055],[-122.26644,44.40022],[-122.2641,44.4001],[-122.2621,44.39971],[-122.26164,44.39937],[-122.26148,44.39854],[-122.26101,44.39816],[-122.26044,44.39806],[-122.25931,44.39835],[-122.25858,44.39836],[-122.25664,44.3975],[-122.25424,44.39717],[-122.25148,44.39627],[-122.2503,44.39569],[-122.2495,44.39543],[-122.24826,44.39529],[-122.24497,44.39516],[-122.24418,44.39525],[-122.24039,44.39603],[-122.23873,44.39638],[-122.23828,44.39654],[-122.23784,44.397],[-122.2378,44.3973],[-122.23802,44.39808],[-122.23787,44.39844],[-122.23761,44.39863],[-122.23724,44.39877],[-122.236,44.39882],[-122.23479,44.39959],[-122.23374,44.40004],[-122.23315,44.40017],[-122.23222,44.40019],[-122.23169,44.4004],[-122.23115,44.40137],[-122.23021,44.40234],[-122.22866,44.40343],[-122.22846,44.4038],[-122.22844,44.40462],[-122.22826,44.40496],[-122.228,44.40518],[-122.22723,44.40533],[-122.22588,44.40491],[-122.22524,44.40494],[-122.22454,44.40529],[-122.22374,44.40623],[-122.22312,44.40656],[-122.22157,44.40691],[-122.21977,44.40667],[-122.21899,44.40679],[-122.21828,44.40725],[-122.21704,44.40892],[-122.21648,44.40921],[-122.21584,44.40928],[-122.21501,44.40904],[-122.21271,44.40721],[-122.21095,44.4061],[-122.21063,44.40553],[-122.21076,44.40494],[-122.21116,44.40454],[-122.21382,44.40319],[-122.21465,44.40237],[-122.21495,44.4015],[-122.21481,44.39955],[-122.21492,44.3987],[-122.21513,44.39847],[-122.21719,44.39741],[-122.21784,44.3972],[-122.21836,44.39716],[-122.22144,44.39741],[-122.22211,44.39726],[-122.22252,44.39695],[-122.22332,44.39604],[-122.2253,44.39513],[-122.2257,44.39473],[-122.2258,44.39422],[-122.2255,44.39385],[-122.22502,44.39368],[-122.22259,44.39386],[-122.22118,44.39371],[-122.21627,44.39247],[-122.2152,44.39202],[-122.21481,44.39163],[-122.21461,44.39122],[-122.21449,44.39009],[-122.21422,44.38955],[-122.21382,44.38921],[-122.21243,44.38854],[-122.212,44.38815],[-122.2118,44.3878],[-122.21168,44.38734],[-122.21173,44.38694],[-122.2123,44.3855],[-122.21222,44.38487],[-122.212,44.38442],[-122.21143,44.38384],[-122.21095,44.38357],[-122.21012,44.38331],[-122.20926,44.38325],[-122.20733,44.38346],[-122.20645,44.38375],[-122.20612,44.38394],[-122.20579,44.38436],[-122.20543,44.38578],[-122.20491,44.38638],[-122.20406,44.38702],[-122.2025,44.38762],[-122.20126,44.38765],[-122.20017,44.38789],[-122.19819,44.38868],[-122.19623,44.38876],[-122.19469,44.38871],[-122.19318,44.3891],[-122.19245,44.38915],[-122.18869,44.38842],[-122.18796,44.38836],[-122.18713,44.38851],[-122.18585,44.38908],[-122.18525,44.38916],[-122.18449,44.389],[-122.18314,44.38836],[-122.18264,44.38831],[-122.18212,44.38839],[-122.18136,44.38882],[-122.17945,44.39081],[-122.17932,44.39121],[-122.17935,44.39164],[-122.1799,44.39259],[-122.18,44.39299],[-122.17987,44.3934],[-122.17958,44.39367],[-122.1791,44.39385],[-122.17849,44.39389],[-122.17803,44.39385],[-122.17709,44.39356],[-122.17664,44.39356],[-122.17561,44.39391],[-122.17426,44.39405],[-122.17009,44.39482],[-122.16873,44.39538],[-122.16689,44.39692],[-122.16611,44.39722],[-122.16558,44.39724],[-122.16487,44.39701],[-122.16363,44.39601],[-122.16314,44.39577],[-122.15998,44.39505],[-122.15844,44.39425],[-122.15783,44.39404],[-122.15676,44.39404],[-122.15465,44.39458],[-122.15357,44.39471],[-122.15254,44.39465],[-122.15052,44.39422],[-122.14983,44.39421],[-122.14887,44.39441],[-122.14739,44.39524],[-122.14644,44.39553],[-122.14227,44.39564],[-122.14156,44.39574],[-122.14065,44.39618],[-122.13845,44.39806],[-122.13749,44.39866],[-122.13626,44.39907],[-122.13462,44.39916],[-122.13336,44.39891],[-122.13026,44.39785],[-122.12058,44.396],[-122.11258,44.39353],[-122.1112,44.39334],[-122.10975,44.39336],[-122.10869,44.39354],[-122.10732,44.394],[-122.10437,44.39576],[-122.10332,44.39622],[-122.10222,44.39654],[-122.09868,44.3971],[-122.0979,44.39733],[-122.09697,44.3978],[-122.09508,44.39916],[-122.09415,44.3996],[-122.08525,44.40254],[-122.08294,44.40311],[-122.05887,44.40769],[-122.05731,44.40806],[-122.05619,44.40849],[-122.05505,44.40915],[-122.05227,44.41157],[-122.05029,44.41271],[-122.0483,44.4134],[-122.04284,44.41482],[-122.04148,44.41497],[-122.0397,44.41499],[-122.02977,44.41415],[-122.02864,44.41386],[-122.02754,44.41335],[-122.02512,44.41143],[-122.02387,44.41074],[-122.0229,44.41043],[-122.02198,44.41028],[-122.02095,44.41024],[-122.01972,44.41038],[-122.01874,44.41064],[-122.01764,44.41117],[-122.0034,44.42027],[-122.00042,44.42191],[-121.99831,44.42275],[-121.97394,44.43116],[-121.9713,44.43202],[-121.96855,44.43253],[-121.95823,44.43295],[-121.95457,44.43332],[-121.95234,44.43379],[-121.94389,44.43614],[-121.94154,44.43654],[-121.93902,44.43654],[-121.93828,44.43643],[-121.92723,44.43408],[-121.92658,44.43388],[-121.92618,44.43366],[-121.92568,44.43306],[-121.92554,44.43231],[-121.92557,44.43164],[-121.92548,44.43128],[-121.92522,44.43089],[-121.92255,44.42892],[-121.9214,44.42863],[-121.9053,44.42935],[-121.90309,44.4292],[-121.90179,44.429],[-121.89897,44.42833],[-121.89763,44.42827],[-121.89253,44.42873],[-121.8916,44.42898],[-121.89037,44.42951],[-121.88918,44.42983],[-121.8885,44.4299],[-121.8849,44.42984],[-121.88427,44.42991],[-121.88076,44.43099],[-121.87997,44.43114],[-121.8783,44.43119],[-121.87632,44.43105],[-121.87567,44.43092],[-121.87519,44.43068],[-121.87483,44.43034],[-121.87464,44.43003],[-121.87462,44.4294],[-121.87508,44.42877],[-121.87703,44.42746],[-121.87773,44.42678],[-121.87791,44.42637],[-121.87853,44.42343],[-121.87847,44.42205],[-121.87784,44.42098],[-121.87664,44.41985],[-121.87617,44.41955],[-121.87519,44.41915],[-121.873,44.41887],[-121.87196,44.41903],[-121.86842,44.42052],[-121.86704,44.42089],[-121.85722,44.42215],[-121.84552,44.42475],[-121.84238,44.42534],[-121.84074,44.42527],[-121.83723,44.42439],[-121.83539,44.42383],[-121.83395,44.42299],[-121.83307,44.42279],[-121.83259,44.42276],[-121.83155,44.42291],[-121.82981,44.42344],[-121.8292,44.42348],[-121.82776,44.42335],[-121.82678,44.42344],[-121.82627,44.42361],[-121.82394,44.42475],[-121.8233,44.42496],[-121.82221,44.42522],[-121.82033,44.42538],[-121.81907,44.4253],[-121.81566,44.42447],[-121.81439,44.42443],[-121.81252,44.42458],[-121.81087,44.42443],[-121.80585,44.42325],[-121.80444,44.42301],[-121.80345,44.42311],[-121.80203,44.42366],[-121.80087,44.4239],[-121.8003,44.42391],[-121.79663,44.42343],[-121.79285,44.4225],[-121.79107,44.42138],[-121.78995,44.42087],[-121.78402,44.41916],[-121.7812,44.41862],[-121.77954,44.41856],[-121.77531,44.41884],[-121.7734,44.41886],[-121.76646,44.41839],[-121.7658,44.41841],[-121.7649,44.41849],[-121.76371,44.41877],[-121.76053,44.42014],[-121.75823,44.42089],[-121.75088,44.42285],[-121.73871,44.42551],[-121.7369,44.42604],[-121.73381,44.42723],[-121.7308,44.42804],[-121.72954,44.42819],[-121.72163,44.42841],[-121.72076,44.42852],[-121.71571,44.42975],[-121.71487,44.42983],[-121.71384,44.42967],[-121.71321,44.42941],[-121.71263,44.42902],[-121.71099,44.42751],[-121.7071,44.42383],[-121.70019,44.4169],[-121.68324,44.40042],[-121.67792,44.39542],[-121.65778,44.38175],[-121.65576,44.38058],[-121.65366,44.37985],[-121.62869,44.37311],[-121.62643,44.37222],[-121.62462,44.37118],[-121.62372,44.37053],[-121.62234,44.36919],[-121.62063,44.36721],[-121.5689,44.30662]]]}}
