{"type":"Feature","properties":{"id":"santiago-canyon","name":"Santiago Canyon Road","difficulty":2,"character":"High speed"},"geometry":{"type":"MultiLineString","coordinates":[[[-117.76122,33.79236],[-117.75742,33.79101],[-117.75403,33.78848],[-117.75228,33.78677],[-117.75136,33.78562],[-117.74889,33.78145],[-117.74724,33.77949],[-117.74647,33.77747],[-117.74578,33.77648],[-117.74296,33.77395],[-117.74097,33.77236],[-117.7393,33.77124],[-117.7363,33.76944],[-117.73509,33.76904],[-117.73091,33.76797],[-117.72618,33.7675],[-117.72478,33.76761],[-117.72087,33.76863],[-117.71961,33.76867],[-117.71864,33.76845],[-117.71719,33.76774],[-117.7159,33.76696],[-117.7154,33.76645],[-117.71375,33.76428],[-117.71252,33.76335],[-117.71142,33.76285],[-117.70932,33.7621],[-117.7074,33.76157],[-117.70456,33.76044],[-117.70233,33.75971],[-117.70173,33.75941],[-117.69963,33.75782],[-117.69621,33.75604],[-117.69386,33.75348],[-117.6934,33.75309],[-117.69263,33.75267],[-117.69166,33.75239],[-117.69074,33.75232],[-117.68479,33.75291],[-117.68354,33.75278],[-117.68264,33.75247],[-117.68178,33.7519],[-117.68126,33.75133],[-117.67987,33.74935],[-117.67866,33.74844],[-117.67802,33.74808],[-117.67736,33.74785],[-117.6761,33.7477],[-117.67536,33.74777],[-117.67308,33.74824],[-117.67169,33.7482],[-117.67086,33.74795],[-117.66983,33.7474],[-117.66921,33.74677],[-117.66878,33.74602],[-117.668,33.74272],[-117.66755,33.74193],[-117.66687,33.74128],[-117.66575,33.7407],[-117.66383,33.74026],[-117.66283,33.73983],[-117.66195,33.73916],[-117.66095,33.73807],[-117.66058,33.73779],[-117.65765,33.73631],[-117.65568,33.73568],[-117.65495,33.73532],[-117.65435,33.73486],[-117.65182,33.73244],[-117.65145,33.73181],[-117.65073,33.7301],[-117.65019,33.72822],[-117.64853,33.72399],[-117.64822,33.72148],[-117.64642,33.71809],[-117.64624,33.71729],[-117.64626,33.71553],[-117.64534,33.71318],[-117.64484,33.71058],[-117.64236,33.70672],[-117.64213,33.70617],[-117.64201,33.70557],[-117.64209,33.70344],[-117.64179,33.7023],[-117.63972,33.69985],[-117.63934,33.69952],[-117.63809,33.69884],[-117.63533,33.69824],[-117.63416,33.69771],[-117.63332,33.69699],[-117.63234,33.69565],[-117.63191,33.69524],[-117.62973,33.69404],[-117.62809,33.69268],[-117.62682,33.69107],[-117.62634,33.69061],[-117.62564,33.6902],[-117.62287,33.68904],[-117.62218,33.68856],[-117.62157,33.68786],[-117.62113,33.68684],[-117.62077,33.6855],[-117.62063,33.68334]]]}}
