{"type":"Feature","properties":{"id":"schueren-saddle-peak","name":"Schueren / Saddle Peak connector","difficulty":3,"character":"Technical"},"geometry":{"type":"MultiLineString","coordinates":[[[-118.64574,34.08111],[-118.64738,34.08007],[-118.64881,34.07938],[-118.64902,34.07917],[-118.64906,34.07896],[-118.6488,34.07857],[-118.6484,34.0785],[-118.64657,34.07922],[-118.646,34.07935],[-118.64528,34.07938],[-118.64432,34.07921],[-118.643,34.07872],[-118.64289,34.07844],[-118.64299,34.07806],[-118.64359,34.07749],[-118.64411,34.07617],[-118.64473,34.07556],[-118.64498,34.07465],[-118.64517,34.07446],[-118.64549,34.07435],[-118.64705,34.07431],[-118.64896,34.07469],[-118.64983,34.07462],[-118.65065,34.07473],[-118.65153,34.07511],[-118.65195,34.07505],[-118.65215,34.07487],[-118.65218,34.07455],[-118.65191,34.07396],[-118.65147,34.07352],[-118.65144,34.07319],[-118.6516,34.07298],[-118.65224,34.0727],[-118.65252,34.07245],[-118.65265,34.0719],[-118.65236,34.07129],[-118.65238,34.07094],[-118.65286,34.07021],[-118.65343,34.07001]]]}}
