{"type":"Feature","properties":{"id":"sherman-pass","name":"Sherman Pass \u00b7 SR 20","difficulty":1,"character":"Medium speed"},"geometry":{"type":"MultiLineString","coordinates":[[[-118.73863,48.64766],[-118.73803,48.64771],[-118.73735,48.64341],[-118.737,48.64267],[-118.73638,48.64192],[-118.73494,48.64072],[-118.73461,48.64054],[-118.73408,48.64046],[-118.72902,48.64225],[-118.72398,48.64418],[-118.72186,48.64551],[-118.72141,48.6459],[-118.71999,48.64764],[-118.71944,48.64809],[-118.71819,48.64888],[-118.71734,48.64926],[-118.71536,48.64982],[-118.7103,48.65046],[-118.70751,48.65092],[-118.7046,48.65172],[-118.70198,48.65268],[-118.70067,48.653],[-118.69924,48.6531],[-118.69799,48.653],[-118.69604,48.65259],[-118.69262,48.6516],[-118.69078,48.65119],[-118.68967,48.65106],[-118.68632,48.65107],[-118.68494,48.65068],[-118.6844,48.65026],[-118.68407,48.64978],[-118.68396,48.64905],[-118.68422,48.64841],[-118.68563,48.64671],[-118.68581,48.64584],[-118.68575,48.64535],[-118.68537,48.64462],[-118.67838,48.63776],[-118.6778,48.63704],[-118.67748,48.63612],[-118.67643,48.6292],[-118.67575,48.62732],[-118.67524,48.62642],[-118.67462,48.62551],[-118.66197,48.61084],[-118.65332,48.60062],[-118.652,48.59948],[-118.65059,48.59869],[-118.6492,48.59817],[-118.64441,48.59735],[-118.63298,48.59584],[-118.63212,48.59585],[-118.63112,48.59607],[-118.63034,48.59641],[-118.62872,48.59767],[-118.62764,48.59827],[-118.62552,48.59899],[-118.62376,48.59929],[-118.62131,48.59947],[-118.62046,48.5997],[-118.61903,48.60043],[-118.61751,48.60106],[-118.61597,48.60147],[-118.61419,48.60178],[-118.61133,48.60188],[-118.61047,48.60201],[-118.6097,48.60231],[-118.60853,48.60319],[-118.60781,48.60352],[-118.60683,48.6037],[-118.60444,48.60387],[-118.60228,48.60439],[-118.59271,48.60795],[-118.59139,48.60852],[-118.59014,48.60944],[-118.58837,48.61102],[-118.58727,48.61163],[-118.58622,48.61202],[-118.58517,48.61228],[-118.57854,48.6133],[-118.57765,48.61334],[-118.5768,48.61325],[-118.57507,48.61251],[-118.57441,48.61242],[-118.57388,48.61247],[-118.57312,48.61279],[-118.57212,48.61385],[-118.5715,48.6143],[-118.57072,48.6146],[-118.56784,48.61538],[-118.56701,48.61519],[-118.56655,48.61479],[-118.56646,48.61416],[-118.56685,48.61299],[-118.56662,48.61248],[-118.56615,48.61224],[-118.56561,48.6122],[-118.56509,48.61237],[-118.56411,48.61349],[-118.56335,48.6139],[-118.56244,48.61398],[-118.56093,48.61376],[-118.56013,48.61373],[-118.55742,48.61403],[-118.55409,48.61382],[-118.55327,48.61357],[-118.55191,48.61281],[-118.55104,48.61259],[-118.55006,48.61256],[-118.54837,48.61269],[-118.54746,48.61254],[-118.5438,48.61127],[-118.5414,48.6099],[-118.53992,48.60854],[-118.5377,48.60683],[-118.53738,48.60626],[-118.53727,48.60576],[-118.53754,48.60424],[-118.53743,48.60322],[-118.5366,48.60204],[-118.53604,48.60162],[-118.52902,48.59833],[-118.52796,48.59728],[-118.52745,48.597],[-118.52678,48.59681],[-118.52517,48.5968],[-118.52443,48.59665],[-118.52374,48.59632],[-118.52305,48.59562],[-118.52265,48.59543],[-118.52208,48.59536],[-118.52145,48.59551],[-118.52016,48.59622],[-118.51949,48.59635],[-118.51883,48.59632],[-118.51814,48.59613],[-118.51581,48.59531],[-118.51463,48.59517],[-118.51387,48.5952],[-118.51229,48.5956],[-118.51014,48.59655],[-118.50981,48.59684],[-118.50973,48.59712],[-118.51004,48.59761],[-118.51494,48.59902],[-118.5153,48.59919],[-118.51549,48.5994],[-118.5156,48.59989],[-118.51528,48.60046],[-118.51383,48.60157],[-118.51352,48.60282],[-118.51316,48.60315],[-118.50934,48.60384],[-118.50765,48.60397],[-118.50404,48.60327],[-118.50299,48.60327],[-118.50197,48.60339],[-118.49987,48.60407],[-118.49801,48.60439],[-118.4952,48.60449],[-118.49014,48.60527],[-118.48623,48.60541],[-118.48487,48.60571],[-118.48222,48.60679],[-118.48155,48.60696],[-118.4784,48.60722],[-118.47783,48.60721],[-118.47603,48.60669],[-118.47315,48.6057],[-118.47208,48.60508],[-118.47149,48.60495],[-118.46909,48.60496],[-118.46536,48.60442],[-118.46453,48.6044],[-118.46222,48.60449],[-118.46091,48.60473],[-118.45841,48.60476],[-118.45789,48.60503],[-118.45774,48.60546],[-118.45832,48.606],[-118.45905,48.60632],[-118.45976,48.6065],[-118.4631,48.60676],[-118.464,48.60699],[-118.46478,48.60731],[-118.46584,48.60796],[-118.46667,48.60883],[-118.46701,48.60972],[-118.46705,48.61061],[-118.4665,48.61187],[-118.46549,48.61272],[-118.46471,48.61308],[-118.46392,48.6133],[-118.46302,48.6134],[-118.46192,48.61334],[-118.46109,48.61313],[-118.46047,48.61292],[-118.45974,48.61247],[-118.45857,48.61201],[-118.45685,48.6116],[-118.45376,48.61135],[-118.45126,48.61063],[-118.4492,48.61017],[-118.44793,48.61017],[-118.44717,48.61028],[-118.44445,48.61126],[-118.44401,48.61151],[-118.44371,48.61218],[-118.44376,48.61272],[-118.44451,48.61448],[-118.44455,48.61528],[-118.44369,48.61802],[-118.44352,48.61907],[-118.44366,48.61996],[-118.44489,48.62286],[-118.44493,48.62384],[-118.44474,48.6244],[-118.44348,48.62579],[-118.44322,48.62637],[-118.44321,48.6269],[-118.44378,48.62828],[-118.44378,48.62908],[-118.44331,48.62955],[-118.44266,48.62984],[-118.4421,48.62993],[-118.44149,48.62991],[-118.44078,48.62971],[-118.4404,48.62948],[-118.43994,48.6288],[-118.43993,48.62787],[-118.43979,48.6275],[-118.43952,48.62723],[-118.43734,48.62591],[-118.43404,48.62248],[-118.43318,48.62195],[-118.43258,48.62175],[-118.43155,48.62163],[-118.43033,48.62165],[-118.42929,48.62178],[-118.42798,48.62207],[-118.42028,48.62463],[-118.41908,48.62461],[-118.4185,48.62445],[-118.41692,48.62366],[-118.41616,48.62353],[-118.41528,48.62353],[-118.41353,48.6237],[-118.41226,48.62362],[-118.41117,48.62334],[-118.40878,48.62234],[-118.40782,48.62203],[-118.40487,48.62141],[-118.40293,48.62084],[-118.39926,48.61941],[-118.3907,48.61697],[-118.39003,48.61652],[-118.38883,48.61524],[-118.38809,48.6149],[-118.3871,48.61468],[-118.38405,48.61459],[-118.38273,48.61442],[-118.37751,48.61278],[-118.37654,48.61224],[-118.37507,48.61109],[-118.37374,48.61041],[-118.3635,48.60711],[-118.36297,48.60681],[-118.36254,48.60631],[-118.36156,48.60469],[-118.36071,48.60401],[-118.35986,48.60361],[-118.35731,48.60306],[-118.35645,48.60268],[-118.34983,48.59892],[-118.34714,48.59757],[-118.34474,48.59687],[-118.31212,48.59016],[-118.30892,48.58916],[-118.30621,48.5878],[-118.30473,48.58648],[-118.30377,48.58488],[-118.30283,48.5837],[-118.30208,48.58318],[-118.29955,48.58179],[-118.29684,48.58039],[-118.29503,48.57957],[-118.29415,48.57934],[-118.2909,48.57889],[-118.28262,48.57804],[-118.28066,48.57813],[-118.27839,48.57865],[-118.27717,48.5787],[-118.27573,48.57852],[-118.274,48.57818],[-118.27223,48.57815],[-118.26966,48.57843],[-118.26653,48.5783],[-118.26523,48.57846],[-118.26304,48.57911],[-118.26206,48.57921],[-118.25483,48.57903],[-118.2511,48.57919],[-118.24845,48.5794],[-118.24537,48.57982],[-118.21713,48.5843],[-118.21411,48.58424],[-118.21186,48.58485],[-118.21078,48.58503],[-118.20958,48.58501],[-118.20693,48.58471],[-118.2045,48.58498],[-118.19686,48.58632],[-118.19527,48.58668],[-118.19441,48.58697],[-118.19304,48.58753],[-118.18895,48.58986],[-118.18827,48.59038],[-118.1873,48.59168],[-118.18651,48.59209],[-118.18576,48.59224],[-118.1665,48.59223],[-118.16455,48.59211],[-118.16368,48.59186],[-118.15898,48.5899],[-118.15562,48.58895],[-118.15207,48.58772],[-118.15127,48.58757],[-118.15077,48.58756],[-118.14963,48.58773],[-118.14855,48.58832],[-118.14808,48.58891],[-118.14682,48.5938],[-118.14643,48.59439],[-118.14406,48.59663],[-118.1432,48.59773],[-118.13917,48.60461],[-118.13857,48.60582],[-118.13839,48.60705],[-118.1385,48.61555],[-118.13845,48.61617],[-118.13819,48.61673],[-118.13757,48.61732],[-118.12975,48.62243],[-118.12859,48.623],[-118.12695,48.62352],[-118.12631,48.62389],[-118.12566,48.62466],[-118.12529,48.62568],[-118.12479,48.62635],[-118.12373,48.62703],[-118.12273,48.62738],[-118.12204,48.62689],[-118.12131,48.62662],[-118.11441,48.62505],[-118.11273,48.62439],[-118.11167,48.62367],[-118.10528,48.61702],[-118.10336,48.61563],[-118.1019,48.61483],[-118.09508,48.61213],[-118.07968,48.60623],[-118.0784,48.60597],[-118.07732,48.60593],[-118.07552,48.60616],[-118.07132,48.60762],[-118.06564,48.60975],[-118.06312,48.61038],[-118.0614,48.61059]]]}}
