{"type":"Feature","properties":{"id":"silverado-canyon","name":"Silverado Canyon Road","difficulty":2,"character":"Low speed"},"geometry":{"type":"MultiLineString","coordinates":[[[-117.67308,33.74824],[-117.67305,33.74881],[-117.67275,33.7492],[-117.6722,33.74941],[-117.67145,33.74929],[-117.67035,33.74885],[-117.66949,33.74815],[-117.66829,33.74761],[-117.66677,33.74673],[-117.66578,33.74603],[-117.66465,33.74563],[-117.66362,33.74501],[-117.66242,33.7447],[-117.6609,33.74399],[-117.65838,33.74366],[-117.65782,33.74375],[-117.65746,33.7439],[-117.6562,33.74469],[-117.65569,33.74489],[-117.65094,33.74536],[-117.64997,33.74581],[-117.64949,33.74595],[-117.64571,33.74614],[-117.64213,33.74782],[-117.64059,33.74809],[-117.63993,33.748],[-117.63612,33.74649],[-117.63571,33.74646],[-117.63508,33.74658],[-117.63429,33.74644],[-117.63245,33.74719],[-117.6299,33.7465],[-117.6292,33.74619],[-117.62805,33.74609],[-117.6275,33.74611],[-117.62547,33.74692],[-117.6231,33.7472],[-117.62209,33.7475],[-117.61762,33.74649],[-117.61643,33.74673],[-117.61509,33.74732],[-117.61393,33.74757],[-117.61289,33.74714],[-117.61222,33.74698],[-117.61161,33.74663],[-117.61075,33.74629],[-117.60958,33.74632],[-117.60864,33.74584],[-117.60836,33.74579],[-117.608,33.74581],[-117.6075,33.74613],[-117.60702,33.74625],[-117.60557,33.74608],[-117.6046,33.74616],[-117.60385,33.74631],[-117.6013,33.74582],[-117.60097,33.74594],[-117.60004,33.7466],[-117.59973,33.74656],[-117.59847,33.74596],[-117.59808,33.7459],[-117.59749,33.74617],[-117.59704,33.74627],[-117.59639,33.74604],[-117.59574,33.74595],[-117.59399,33.7462],[-117.58997,33.74599],[-117.58888,33.74621],[-117.58779,33.74611],[-117.58714,33.74617],[-117.58678,33.7461],[-117.58616,33.74577],[-117.58565,33.74561],[-117.58487,33.74598]]]}}
