{"type":"Feature","properties":{"id":"sir-francis-drake","name":"Sir Francis Drake Boulevard","difficulty":2,"character":"Medium speed"},"geometry":{"type":"MultiLineString","coordinates":[[[-122.80515,38.06425],[-122.80858,38.06456],[-122.80931,38.06452],[-122.81005,38.06421],[-122.81162,38.06328],[-122.81743,38.06159],[-122.81783,38.06165],[-122.8188,38.06233],[-122.82048,38.06304],[-122.82071,38.06335],[-122.82109,38.06453],[-122.82239,38.06634],[-122.82322,38.0682],[-122.82497,38.06978],[-122.82667,38.07234],[-122.82786,38.07332],[-122.82896,38.07447],[-122.82974,38.0751],[-122.83128,38.07688],[-122.83205,38.07757],[-122.83311,38.07934],[-122.83487,38.08073],[-122.83627,38.08276],[-122.83743,38.08349],[-122.83764,38.08388],[-122.83778,38.08485],[-122.83794,38.08508],[-122.83873,38.0858],[-122.84091,38.08721],[-122.8424,38.08871],[-122.84385,38.08977],[-122.84432,38.09036],[-122.84554,38.09114],[-122.84651,38.09256],[-122.84763,38.09362],[-122.84901,38.09422],[-122.85056,38.09524],[-122.85141,38.09614],[-122.85231,38.09761],[-122.85371,38.09912],[-122.85498,38.09995],[-122.85571,38.10075],[-122.85658,38.10113],[-122.85752,38.10282],[-122.85987,38.10436],[-122.86039,38.10482],[-122.86139,38.10503],[-122.86181,38.10528],[-122.86222,38.10608],[-122.86301,38.10683],[-122.86373,38.10782],[-122.86455,38.10865],[-122.86544,38.10932],[-122.86719,38.10956],[-122.86866,38.10938],[-122.86966,38.10936],[-122.87119,38.10905],[-122.87197,38.10872],[-122.87279,38.10867],[-122.87365,38.10844],[-122.87466,38.10835],[-122.87521,38.10837],[-122.87629,38.10863],[-122.87706,38.10817],[-122.87785,38.10799],[-122.87859,38.10765],[-122.8792,38.10757],[-122.87976,38.10762],[-122.88191,38.10817],[-122.88354,38.10931],[-122.88523,38.10992],[-122.88792,38.11057],[-122.88901,38.11039],[-122.88984,38.10993],[-122.89191,38.1093],[-122.89267,38.10927],[-122.89349,38.10964],[-122.89388,38.10968],[-122.89517,38.10925],[-122.89808,38.10895],[-122.89843,38.10873],[-122.89966,38.10749],[-122.90053,38.10617],[-122.90146,38.10571],[-122.90208,38.10517],[-122.90462,38.10176],[-122.90623,38.10053],[-122.90723,38.09904],[-122.90828,38.0984],[-122.90953,38.09797],[-122.91006,38.09766],[-122.91084,38.09699],[-122.91145,38.09628],[-122.91197,38.09533],[-122.9127,38.09467],[-122.91406,38.09404],[-122.91548,38.09303],[-122.91605,38.09279],[-122.91683,38.09266],[-122.91766,38.09283],[-122.91809,38.09282],[-122.91871,38.09259],[-122.91992,38.09237],[-122.92098,38.09197],[-122.92281,38.09173],[-122.92436,38.09125],[-122.92631,38.09152],[-122.92793,38.09122],[-122.92921,38.09174],[-122.93113,38.09163],[-122.93175,38.09177],[-122.93278,38.09235],[-122.93386,38.09268],[-122.93473,38.09307],[-122.93768,38.09507],[-122.93802,38.09517],[-122.93848,38.09516],[-122.93898,38.09494],[-122.93942,38.09442],[-122.93984,38.09413],[-122.94766,38.09086],[-122.95014,38.08847],[-122.95246,38.08659],[-122.95342,38.08629],[-122.95623,38.08597],[-122.95715,38.08561],[-122.95772,38.08525],[-122.95912,38.08362],[-122.96192,38.07946],[-122.96212,38.07895],[-122.96225,38.07755],[-122.96258,38.0769],[-122.96599,38.0739],[-122.96949,38.06996],[-122.97,38.06962],[-122.9716,38.06889],[-122.97205,38.0685],[-122.97222,38.06823],[-122.97234,38.06771],[-122.97222,38.06605],[-122.97143,38.06475],[-122.97132,38.06429],[-122.97156,38.06395],[-122.97264,38.0637],[-122.97291,38.06352],[-122.9731,38.0631],[-122.97313,38.06192],[-122.97358,38.06032],[-122.9739,38.05999],[-122.97513,38.05936],[-122.9754,38.05888],[-122.97536,38.05853],[-122.97492,38.05774],[-122.97485,38.05735],[-122.97494,38.05677],[-122.97549,38.0553],[-122.97563,38.0544],[-122.97397,38.04835],[-122.97392,38.04783],[-122.974,38.0474],[-122.97429,38.04705],[-122.97463,38.04686],[-122.97617,38.04647],[-122.97649,38.0465],[-122.97683,38.04677],[-122.97714,38.04686],[-122.9775,38.04685],[-122.97767,38.04674],[-122.97793,38.04457],[-122.97825,38.04385],[-122.98362,38.0376],[-122.98379,38.03708],[-122.98423,38.03204],[-122.98575,38.02907],[-122.98649,38.02462],[-122.98665,38.02431],[-122.98699,38.024],[-122.98736,38.02385],[-122.98865,38.02371],[-122.98895,38.02354],[-122.98913,38.02321],[-122.98799,38.01733],[-122.98801,38.01693],[-122.98832,38.01645],[-122.98934,38.01565],[-122.99158,38.01493],[-122.99321,38.01393],[-122.99351,38.01351],[-122.99416,38.01176],[-122.99463,38.01113],[-122.99503,38.01101],[-122.9957,38.01122],[-122.99587,38.01118],[-122.99557,38.01036],[-122.99577,38.01013],[-122.99682,38.00976],[-122.99703,38.00961],[-122.99701,38.00937],[-122.99653,38.00891],[-122.99646,38.0085],[-122.99666,38.0082],[-122.99753,38.00749],[-122.99829,38.00509]]]}}
