{"type":"Feature","properties":{"id":"skaggs-springs","name":"Skaggs Springs Road","difficulty":3,"character":"Technical"},"geometry":{"type":"MultiLineString","coordinates":[[[-122.99434,38.71332],[-122.9945,38.71282],[-122.99471,38.71254],[-122.99513,38.71221],[-122.99542,38.71211],[-122.99578,38.71203],[-122.99938,38.71184],[-122.9999,38.71163],[-123.00136,38.71052],[-123.00199,38.70924],[-123.00247,38.70867],[-123.00303,38.70839],[-123.00367,38.70831],[-123.00445,38.70846],[-123.00489,38.70876],[-123.00522,38.70927],[-123.00528,38.70991],[-123.00519,38.71034],[-123.00498,38.71063],[-123.00364,38.71148],[-123.00337,38.71202],[-123.0034,38.71239],[-123.00372,38.71287],[-123.00417,38.71313],[-123.00455,38.71322],[-123.00537,38.71321],[-123.00535,38.71192],[-123.00633,38.71033],[-123.00653,38.70954],[-123.00668,38.70802],[-123.0069,38.70738],[-123.00724,38.70691],[-123.00803,38.70636],[-123.00932,38.70579],[-123.01016,38.70565],[-123.01163,38.70575],[-123.01268,38.70536],[-123.01335,38.70493],[-123.01348,38.70441],[-123.01291,38.7035],[-123.01283,38.70315],[-123.01314,38.70192],[-123.01307,38.70112],[-123.01345,38.70043],[-123.01332,38.699],[-123.01296,38.6978],[-123.01309,38.69538],[-123.01333,38.694],[-123.01297,38.69353],[-123.01188,38.69319],[-123.01097,38.69263],[-123.01042,38.69213],[-123.00998,38.69135],[-123.00985,38.69021],[-123.00954,38.68986],[-123.00693,38.68868],[-123.00667,38.68824],[-123.00684,38.68702],[-123.0072,38.68631],[-123.00756,38.68594],[-123.008,38.68576],[-123.00915,38.68557],[-123.00954,38.68561],[-123.00984,38.68577],[-123.01032,38.68655],[-123.01083,38.68683],[-123.01268,38.6868],[-123.0144,38.68644],[-123.01461,38.68628],[-123.01476,38.68599],[-123.01467,38.68525],[-123.01518,38.68451],[-123.01536,38.68406],[-123.01551,38.68193],[-123.01574,38.68152],[-123.01701,38.68099],[-123.01785,38.67956],[-123.01825,38.6793],[-123.01868,38.67926],[-123.01937,38.67954],[-123.02075,38.67966],[-123.0213,38.67951],[-123.02225,38.67846],[-123.02251,38.67764],[-123.02293,38.67741],[-123.0238,38.67722],[-123.02437,38.67682],[-123.0245,38.67642],[-123.02438,38.67579],[-123.02484,38.67526],[-123.02504,38.67457],[-123.02603,38.67306],[-123.02598,38.67272],[-123.0258,38.67258],[-123.0254,38.67255],[-123.02379,38.67321],[-123.02246,38.67352],[-123.02182,38.6733],[-123.02164,38.67302],[-123.02162,38.67269],[-123.02185,38.67237],[-123.02274,38.67186],[-123.0234,38.67116],[-123.02452,38.671],[-123.02479,38.67086],[-123.02512,38.67058],[-123.02535,38.67002],[-123.02559,38.66973],[-123.02637,38.66949],[-123.02678,38.66921],[-123.02697,38.66881],[-123.02688,38.66843],[-123.02619,38.66782],[-123.0259,38.66695],[-123.02612,38.66644],[-123.02679,38.66616],[-123.02723,38.66618],[-123.02756,38.66634],[-123.0283,38.66718],[-123.02887,38.66812],[-123.02918,38.6684],[-123.03231,38.66978],[-123.03263,38.66981],[-123.03296,38.66972],[-123.03367,38.66918],[-123.0342,38.66892],[-123.03555,38.66864],[-123.03663,38.66815],[-123.0374,38.66803],[-123.0379,38.66825],[-123.03842,38.66881],[-123.03943,38.66931],[-123.03968,38.6698],[-123.04,38.67013],[-123.04065,38.67033],[-123.04135,38.67023],[-123.0419,38.6703],[-123.04225,38.67058],[-123.04256,38.671],[-123.04285,38.67114],[-123.04329,38.67117],[-123.04383,38.67097],[-123.04425,38.67094],[-123.04468,38.67108],[-123.04509,38.67145],[-123.04547,38.67161],[-123.04651,38.67172],[-123.04702,38.67205],[-123.04755,38.67276],[-123.048,38.67301],[-123.04859,38.6731],[-123.05137,38.67295],[-123.05215,38.67314],[-123.05309,38.67359],[-123.05381,38.67377],[-123.05457,38.67434],[-123.05567,38.67484],[-123.05648,38.67586],[-123.05824,38.67754],[-123.0587,38.67779],[-123.05943,38.67799],[-123.06028,38.67796],[-123.06196,38.67744],[-123.0631,38.6772],[-123.06338,38.67689],[-123.06358,38.67608],[-123.0639,38.67583],[-123.06418,38.67575],[-123.06467,38.6758],[-123.06603,38.67645],[-123.06633,38.6769],[-123.06631,38.67762],[-123.06659,38.67793],[-123.06698,38.678],[-123.06736,38.67789],[-123.06821,38.67682],[-123.06858,38.6767],[-123.06958,38.67689],[-123.07005,38.6768],[-123.07085,38.67601],[-123.07122,38.6759],[-123.07238,38.67595],[-123.07311,38.67537],[-123.07359,38.67516],[-123.07414,38.67513],[-123.07553,38.67542],[-123.07604,38.67532],[-123.07626,38.67516],[-123.07641,38.67489],[-123.07638,38.67405],[-123.07645,38.6737],[-123.0767,38.67337],[-123.07698,38.67322],[-123.07774,38.67305],[-123.07804,38.67285],[-123.07833,38.67239],[-123.07864,38.67219],[-123.07973,38.67192],[-123.08061,38.67125],[-123.08154,38.67099],[-123.08205,38.67102],[-123.08258,38.67124],[-123.08357,38.67204],[-123.08406,38.67225],[-123.08481,38.67221],[-123.08605,38.67184],[-123.08683,38.67188],[-123.08918,38.67281],[-123.08997,38.6738],[-123.09051,38.67411],[-123.091,38.67415],[-123.09198,38.67377],[-123.09239,38.67372],[-123.09389,38.67392],[-123.09414,38.67404],[-123.09435,38.67432],[-123.09437,38.67469],[-123.09422,38.67495],[-123.09345,38.6755],[-123.09322,38.67612],[-123.09334,38.67641],[-123.09373,38.67678],[-123.09397,38.67685],[-123.09443,38.67682],[-123.09516,38.67638],[-123.09607,38.67625],[-123.09669,38.67572],[-123.09782,38.67549],[-123.0982,38.6752],[-123.09837,38.67473],[-123.09821,38.67379],[-123.09841,38.67305],[-123.09822,38.67265],[-123.09782,38.67225],[-123.09777,38.67198],[-123.09792,38.67159],[-123.0981,38.67145],[-123.09851,38.67131],[-123.10184,38.67141],[-123.10257,38.67155],[-123.10419,38.67207],[-123.10698,38.67423],[-123.10735,38.6744],[-123.10821,38.67455],[-123.10889,38.67495],[-123.10951,38.67561],[-123.10968,38.67593],[-123.10967,38.67645],[-123.10933,38.67772],[-123.10947,38.67805],[-123.10974,38.67826],[-123.11036,38.67831],[-123.11115,38.67787],[-123.11224,38.67761],[-123.11297,38.67779],[-123.11372,38.67757],[-123.11429,38.67759],[-123.11495,38.67774],[-123.11536,38.67816],[-123.11637,38.67825],[-123.11664,38.67821],[-123.11722,38.67785],[-123.11752,38.67781],[-123.11766,38.67794],[-123.11766,38.67847],[-123.11806,38.67871],[-123.11851,38.67874],[-123.11905,38.67837],[-123.1193,38.67834],[-123.11962,38.67849],[-123.11989,38.67887],[-123.12007,38.67898],[-123.12178,38.67901],[-123.12224,38.67911],[-123.12373,38.68027],[-123.12398,38.68084],[-123.12432,38.68109],[-123.12568,38.68024],[-123.12616,38.67957],[-123.12612,38.67894],[-123.12652,38.67862],[-123.12791,38.67828],[-123.12897,38.67764],[-123.13001,38.67738],[-123.13081,38.6774],[-123.13132,38.67757],[-123.13183,38.67754],[-123.1323,38.67701],[-123.13236,38.67641],[-123.13271,38.6761],[-123.13287,38.67619],[-123.13272,38.67669],[-123.13294,38.67709],[-123.13315,38.67722],[-123.13378,38.67728],[-123.13539,38.67699],[-123.13641,38.67735],[-123.13674,38.67763],[-123.137,38.67818],[-123.13863,38.67923],[-123.13899,38.67996],[-123.13923,38.67991],[-123.13937,38.67963],[-123.13967,38.67941],[-123.1405,38.67931],[-123.14069,38.67914],[-123.14053,38.67873],[-123.14075,38.67836],[-123.14059,38.67779],[-123.1402,38.67725],[-123.13923,38.67647],[-123.1392,38.67628],[-123.13929,38.67597],[-123.13976,38.67558],[-123.13977,38.67535],[-123.13955,38.67491],[-123.13994,38.67458],[-123.14007,38.67354],[-123.14041,38.67332],[-123.14141,38.67368],[-123.14284,38.67441],[-123.14396,38.67424],[-123.14524,38.67465],[-123.14636,38.67471],[-123.14705,38.67507],[-123.14835,38.67466],[-123.14929,38.67449],[-123.14962,38.67393],[-123.14958,38.67341],[-123.14973,38.67325],[-123.1514,38.67358],[-123.15291,38.67337],[-123.15429,38.67368],[-123.15498,38.67369],[-123.15618,38.67344],[-123.15635,38.67328],[-123.15655,38.67276],[-123.1572,38.67261],[-123.1581,38.67279],[-123.15896,38.67373],[-123.16056,38.67436],[-123.1609,38.67437],[-123.16154,38.67399],[-123.16253,38.67381],[-123.1629,38.67412],[-123.16335,38.67429],[-123.16424,38.67502],[-123.16564,38.67529],[-123.16631,38.67529],[-123.16748,38.67493],[-123.1686,38.67443],[-123.17009,38.6741],[-123.17027,38.67392],[-123.17077,38.67238],[-123.17174,38.67187],[-123.17255,38.67177],[-123.17352,38.67186],[-123.17539,38.67167],[-123.17568,38.67177],[-123.17608,38.67211],[-123.17698,38.67238],[-123.17769,38.67197],[-123.17807,38.67194],[-123.17852,38.67238],[-123.17903,38.67228],[-123.18023,38.67242],[-123.18113,38.67288],[-123.18191,38.67358],[-123.18229,38.67374],[-123.1825,38.67365],[-123.1832,38.67287],[-123.18357,38.67267],[-123.18454,38.67265],[-123.18507,38.67238],[-123.18576,38.67223],[-123.18631,38.67197],[-123.18718,38.67214],[-123.18908,38.67132],[-123.18957,38.67125],[-123.18999,38.67163],[-123.19054,38.67192],[-123.19105,38.67244],[-123.19119,38.67283],[-123.19169,38.67309],[-123.19211,38.67354],[-123.19336,38.67368],[-123.19353,38.67378],[-123.19381,38.67428],[-123.19326,38.67534],[-123.19324,38.67555],[-123.19379,38.67597],[-123.19404,38.67656],[-123.195,38.67692],[-123.1951,38.67766],[-123.19525,38.6778],[-123.19716,38.67805],[-123.19783,38.67837],[-123.19916,38.6782],[-123.20031,38.67837],[-123.20063,38.67835],[-123.20142,38.67807],[-123.20221,38.67795],[-123.20245,38.67781],[-123.2028,38.67736],[-123.20282,38.6764],[-123.20296,38.67608],[-123.2038,38.67538],[-123.20482,38.67505],[-123.20653,38.67475],[-123.20688,38.67452],[-123.20692,38.67405],[-123.20718,38.67377],[-123.20878,38.67344],[-123.2095,38.67317],[-123.21089,38.67185],[-123.21146,38.67044],[-123.21179,38.67009],[-123.21247,38.66992],[-123.21404,38.66975],[-123.21477,38.66952],[-123.21566,38.66956],[-123.21613,38.66932],[-123.21614,38.66854],[-123.21648,38.66761],[-123.21721,38.66732],[-123.21737,38.667],[-123.21749,38.66586],[-123.21742,38.66412],[-123.2175,38.6634],[-123.21802,38.66243],[-123.21853,38.66197],[-123.21938,38.66157],[-123.21986,38.66157],[-123.22146,38.66207],[-123.22296,38.66311],[-123.22402,38.66361],[-123.22513,38.6639],[-123.22544,38.66389],[-123.22733,38.66325],[-123.22823,38.66273],[-123.22864,38.66238],[-123.23025,38.66],[-123.23094,38.65968],[-123.23165,38.6596],[-123.23195,38.65963],[-123.23256,38.65993],[-123.23342,38.66111],[-123.23403,38.66172],[-123.23424,38.66226],[-123.23416,38.66273],[-123.2337,38.66387],[-123.2333,38.66589],[-123.23338,38.66663],[-123.23325,38.66805],[-123.23321,38.67107],[-123.23338,38.67183],[-123.23395,38.67295],[-123.23436,38.67343],[-123.2361,38.67482],[-123.23695,38.67511],[-123.23795,38.67526],[-123.23943,38.67567],[-123.24045,38.67615],[-123.24223,38.6772],[-123.24286,38.67736],[-123.2434,38.67725],[-123.24446,38.67602],[-123.24479,38.67577],[-123.24564,38.67536],[-123.24634,38.67528],[-123.24882,38.67544],[-123.24926,38.67539],[-123.25033,38.67498],[-123.252,38.67458],[-123.25291,38.67441],[-123.25336,38.6744],[-123.25456,38.67494],[-123.25694,38.6765],[-123.26036,38.67798],[-123.26211,38.67835],[-123.26297,38.67823],[-123.26357,38.67794],[-123.26417,38.67736],[-123.26429,38.67668],[-123.26384,38.67549],[-123.26378,38.67478],[-123.26446,38.67397],[-123.26509,38.67254],[-123.26557,38.67207],[-123.26612,38.67172],[-123.26687,38.67149],[-123.26719,38.67148],[-123.26782,38.67174],[-123.26876,38.67263],[-123.2693,38.67336],[-123.26977,38.67436],[-123.26974,38.67519],[-123.26948,38.67688],[-123.26956,38.67823],[-123.26941,38.67881],[-123.26945,38.679],[-123.26975,38.67931],[-123.27005,38.67942],[-123.27035,38.67943],[-123.27069,38.67934],[-123.27216,38.67858],[-123.27493,38.67802],[-123.27566,38.6778],[-123.2786,38.67753],[-123.28039,38.67784],[-123.28187,38.67855],[-123.28287,38.67924],[-123.28339,38.67943],[-123.28438,38.67959],[-123.28472,38.67954],[-123.28496,38.67931],[-123.285,38.67882],[-123.28468,38.67788],[-123.28458,38.67682],[-123.2848,38.67607],[-123.28538,38.67525],[-123.28611,38.67468],[-123.2883,38.67399],[-123.28883,38.67373],[-123.28924,38.67337],[-123.29038,38.67147],[-123.29094,38.67091],[-123.29114,38.67086],[-123.29278,38.67105],[-123.29358,38.67089],[-123.2941,38.67088],[-123.29545,38.67116],[-123.29573,38.67114],[-123.29582,38.67088],[-123.29549,38.66972],[-123.2955,38.66946],[-123.29587,38.66843],[-123.29643,38.66796],[-123.29832,38.66755],[-123.29934,38.66704],[-123.30117,38.66656],[-123.30204,38.66672],[-123.3032,38.66711],[-123.30601,38.6671],[-123.30776,38.66741],[-123.30916,38.66753],[-123.31078,38.66754],[-123.31158,38.6671],[-123.31129,38.66635],[-123.31293,38.66519],[-123.31405,38.66495],[-123.31522,38.66491],[-123.31994,38.6621],[-123.32199,38.66138],[-123.32366,38.66134],[-123.32424,38.66123],[-123.32478,38.66041],[-123.32498,38.66029],[-123.32516,38.66031],[-123.32531,38.66048],[-123.32539,38.66118],[-123.32565,38.66156],[-123.32684,38.66258],[-123.32751,38.66337],[-123.32852,38.66409],[-123.32889,38.66415],[-123.32977,38.66301],[-123.33058,38.66249],[-123.33082,38.6622],[-123.33199,38.66173],[-123.33242,38.66141],[-123.33264,38.66082],[-123.3331,38.6606],[-123.33351,38.65998],[-123.33403,38.65998],[-123.33463,38.66025],[-123.33521,38.66011],[-123.33565,38.66018],[-123.33626,38.65965],[-123.33667,38.6591],[-123.3369,38.65907],[-123.33738,38.65928],[-123.33787,38.65904],[-123.33851,38.65782],[-123.33873,38.6578],[-123.33903,38.65792],[-123.33925,38.65781],[-123.33917,38.65626],[-123.33946,38.65595],[-123.33975,38.65582],[-123.3404,38.65589],[-123.34192,38.65662],[-123.34334,38.65709],[-123.34374,38.65713],[-123.34403,38.65695],[-123.34409,38.65643],[-123.34463,38.65599],[-123.34489,38.65548],[-123.34514,38.65528],[-123.3455,38.65514],[-123.34575,38.65515],[-123.34621,38.6553],[-123.34668,38.65568],[-123.34757,38.6558],[-123.34825,38.65527],[-123.34918,38.65512],[-123.35021,38.65444],[-123.35097,38.65417],[-123.35147,38.65379],[-123.35263,38.65352],[-123.35315,38.65326],[-123.35333,38.65339],[-123.3533,38.65396],[-123.35348,38.65415],[-123.35436,38.65387],[-123.35536,38.65377],[-123.35553,38.65382],[-123.35607,38.65454],[-123.35639,38.65412],[-123.35697,38.65386],[-123.35713,38.65395],[-123.35759,38.65462],[-123.35811,38.6549],[-123.35842,38.65544],[-123.3589,38.65543],[-123.35936,38.65557],[-123.35973,38.65551],[-123.36004,38.65564],[-123.36042,38.65541],[-123.36104,38.65538],[-123.36123,38.65527],[-123.36123,38.65491],[-123.36146,38.65442],[-123.36273,38.65388],[-123.36382,38.65312],[-123.36461,38.65225],[-123.36459,38.65136],[-123.3655,38.65045],[-123.3654,38.65005],[-123.36564,38.64933],[-123.36553,38.6489],[-123.36571,38.64839],[-123.36564,38.64778],[-123.36593,38.64767],[-123.36642,38.64791],[-123.36678,38.64794],[-123.36789,38.6477],[-123.36806,38.64759],[-123.36794,38.64701],[-123.36808,38.64692],[-123.36876,38.64757],[-123.36972,38.64794],[-123.37031,38.64846],[-123.37103,38.64876],[-123.37133,38.64921],[-123.37183,38.6493],[-123.37208,38.64897],[-123.3723,38.64898],[-123.37268,38.64928],[-123.37356,38.64957],[-123.37415,38.65017],[-123.37511,38.65022],[-123.37608,38.6498],[-123.3778,38.65017],[-123.37961,38.65163],[-123.38157,38.65243],[-123.3851,38.65476],[-123.38644,38.65548],[-123.38744,38.65532],[-123.38825,38.65541],[-123.38927,38.65535],[-123.39083,38.65504],[-123.39244,38.65492],[-123.39426,38.65459],[-123.39472,38.65438],[-123.39521,38.65395],[-123.39588,38.65372],[-123.39712,38.653],[-123.39863,38.6524],[-123.39947,38.65193]]]}}
