{"type":"Feature","properties":{"id":"skyline-oakland","name":"Skyline Boulevard \u00b7 Oakland","difficulty":2,"character":"Low speed"},"geometry":{"type":"MultiLineString","coordinates":[[[-122.11855,37.75401],[-122.1185,37.75429],[-122.11921,37.75531],[-122.12162,37.75818],[-122.122,37.75955],[-122.12297,37.76039],[-122.12313,37.76119],[-122.12384,37.76194],[-122.12474,37.76344],[-122.12523,37.76505],[-122.12691,37.76812],[-122.1285,37.76935],[-122.12976,37.77136],[-122.13169,37.77319],[-122.13197,37.77364],[-122.13249,37.77498],[-122.13312,37.77574],[-122.13532,37.77756],[-122.14087,37.78086],[-122.14143,37.78129],[-122.14178,37.78199],[-122.14198,37.78464],[-122.14232,37.78513],[-122.14281,37.78539],[-122.14341,37.78545],[-122.14455,37.78513],[-122.14507,37.78518],[-122.14544,37.78539],[-122.14582,37.78585],[-122.14625,37.78614],[-122.14869,37.78674],[-122.14911,37.78704],[-122.14943,37.7875],[-122.14966,37.78902],[-122.14988,37.78933],[-122.15104,37.78993],[-122.15186,37.79115],[-122.15296,37.79168],[-122.15381,37.79236],[-122.15472,37.79262],[-122.15529,37.79259],[-122.15634,37.79235],[-122.15697,37.7924],[-122.15735,37.79256],[-122.15785,37.79305],[-122.1583,37.79433],[-122.15882,37.79481],[-122.16199,37.79603],[-122.16415,37.79797],[-122.16475,37.7983],[-122.16535,37.79846],[-122.16593,37.7985],[-122.16772,37.79831],[-122.16834,37.79834],[-122.17145,37.79939],[-122.17515,37.80151],[-122.17884,37.80454],[-122.17918,37.805],[-122.17888,37.80508],[-122.17842,37.80546],[-122.17827,37.80586],[-122.17843,37.80622],[-122.17895,37.80672],[-122.179,37.80696],[-122.1789,37.80712],[-122.17835,37.8075],[-122.17848,37.80765],[-122.17917,37.80778],[-122.17922,37.808],[-122.17904,37.80804],[-122.17647,37.8072],[-122.17583,37.80732],[-122.17551,37.80765],[-122.17544,37.80827],[-122.17491,37.80941],[-122.17483,37.80986],[-122.17496,37.81038],[-122.17584,37.81153],[-122.17588,37.81195],[-122.17571,37.81262],[-122.17579,37.81314],[-122.1761,37.8135],[-122.17773,37.81484],[-122.18006,37.81595],[-122.18032,37.81628],[-122.18048,37.81725],[-122.18073,37.81767],[-122.18123,37.81804],[-122.18198,37.81823],[-122.18253,37.81848],[-122.18305,37.81912],[-122.18373,37.81953],[-122.18406,37.81966],[-122.1843,37.81961],[-122.1844,37.81943],[-122.18416,37.81905],[-122.18417,37.81883],[-122.18437,37.8187],[-122.18477,37.81866],[-122.18505,37.81872],[-122.18532,37.8193],[-122.18586,37.81961],[-122.1863,37.81953],[-122.18677,37.81889],[-122.18719,37.8187],[-122.18756,37.81881],[-122.18835,37.81933],[-122.18847,37.81949],[-122.18833,37.81983],[-122.18783,37.81999],[-122.1877,37.82012],[-122.18703,37.82146],[-122.1872,37.8223],[-122.18694,37.82334],[-122.18695,37.82397],[-122.18683,37.82448],[-122.1869,37.82464],[-122.18737,37.82502],[-122.18756,37.82586],[-122.18777,37.82619],[-122.18808,37.82647],[-122.18864,37.82644],[-122.18884,37.82652],[-122.18916,37.82736],[-122.18904,37.82753],[-122.18812,37.82772],[-122.18791,37.82787],[-122.18783,37.8286],[-122.18795,37.82923],[-122.1877,37.82969],[-122.18812,37.83011],[-122.18816,37.83035],[-122.18759,37.83067],[-122.18709,37.83045],[-122.18687,37.83047],[-122.18569,37.83136],[-122.18576,37.83217],[-122.186,37.8326],[-122.18601,37.83302],[-122.18644,37.83354],[-122.18634,37.83387],[-122.18639,37.83419],[-122.18617,37.83434],[-122.18515,37.8344],[-122.18452,37.83485],[-122.18447,37.83506],[-122.18486,37.83543],[-122.18484,37.83592],[-122.18539,37.8362],[-122.18581,37.83655],[-122.18656,37.83657],[-122.18736,37.83699],[-122.18787,37.83696],[-122.18837,37.83712],[-122.18911,37.83694],[-122.18938,37.83696],[-122.18981,37.83729],[-122.19052,37.83754],[-122.19104,37.83761],[-122.19131,37.83792],[-122.19179,37.83812],[-122.19259,37.83871],[-122.19346,37.8388],[-122.19391,37.83932],[-122.19655,37.83991],[-122.19787,37.84031],[-122.1986,37.8413],[-122.19854,37.84143],[-122.19815,37.84161],[-122.19797,37.84179],[-122.19791,37.84255],[-122.19766,37.84264],[-122.19544,37.84277],[-122.19525,37.84292],[-122.19531,37.84322],[-122.19551,37.84344],[-122.19637,37.84385],[-122.1966,37.84406],[-122.19657,37.84508],[-122.19685,37.84582],[-122.19744,37.84622],[-122.19871,37.84741],[-122.19947,37.84742],[-122.20057,37.84758],[-122.20147,37.84788],[-122.20184,37.84846],[-122.20293,37.84926],[-122.20387,37.85074],[-122.20475,37.85057],[-122.20568,37.85067],[-122.20635,37.85054],[-122.20656,37.85063],[-122.2069,37.8511],[-122.20815,37.85127],[-122.20854,37.85111],[-122.20863,37.8504],[-122.20887,37.85024],[-122.20994,37.8508],[-122.21017,37.85126],[-122.21037,37.85138],[-122.21117,37.85125],[-122.21176,37.85096],[-122.21201,37.85097],[-122.21236,37.85162],[-122.21219,37.85224],[-122.21232,37.8525],[-122.2127,37.85274],[-122.21337,37.85293],[-122.21442,37.85289],[-122.2146,37.85297],[-122.21451,37.85322],[-122.21397,37.85355],[-122.21315,37.85379],[-122.21287,37.85399],[-122.21269,37.85428],[-122.21279,37.8547],[-122.21361,37.8554],[-122.21403,37.85564],[-122.21419,37.85613]]]}}
