{"type":"Feature","properties":{"id":"skyline","name":"Skyline Boulevard \u00b7 Hwy 35","difficulty":2,"character":"High speed"},"geometry":{"type":"MultiLineString","coordinates":[[[-122.36892,37.49556],[-122.36835,37.49473],[-122.36685,37.49323],[-122.3662,37.49283],[-122.36487,37.49228],[-122.36457,37.49197],[-122.36455,37.49157],[-122.36487,37.49118],[-122.36517,37.49107],[-122.36599,37.49098],[-122.36637,37.49075],[-122.36647,37.49044],[-122.36633,37.49014],[-122.36608,37.48998],[-122.36577,37.48992],[-122.3636,37.48995],[-122.36331,37.48982],[-122.36311,37.4896],[-122.36305,37.48934],[-122.36313,37.48908],[-122.36378,37.48857],[-122.36392,37.4882],[-122.36325,37.48602],[-122.36299,37.48453],[-122.36268,37.48432],[-122.36221,37.48429],[-122.36073,37.48513],[-122.36024,37.4852],[-122.35983,37.48501],[-122.35883,37.48407],[-122.35868,37.48363],[-122.35871,37.48322],[-122.35954,37.48174],[-122.35978,37.48095],[-122.35984,37.48026],[-122.35972,37.47942],[-122.35682,37.47275],[-122.35529,37.47061],[-122.35483,37.47015],[-122.35422,37.46984],[-122.35355,37.46971],[-122.35202,37.46966],[-122.35121,37.46954],[-122.35032,37.46918],[-122.34963,37.46867],[-122.34603,37.46423],[-122.34584,37.46338],[-122.34613,37.462],[-122.34599,37.46159],[-122.34567,37.46125],[-122.34513,37.46096],[-122.33909,37.45869],[-122.33869,37.45847],[-122.33846,37.45822],[-122.33833,37.45781],[-122.33844,37.45739],[-122.34011,37.45586],[-122.34052,37.45511],[-122.34066,37.45432],[-122.34034,37.45323],[-122.33815,37.44991],[-122.33669,37.44859],[-122.33559,37.44808],[-122.33191,37.44677],[-122.33076,37.44619],[-122.32518,37.44215],[-122.32381,37.4406],[-122.3207,37.43548],[-122.31991,37.43502],[-122.31793,37.43461],[-122.31702,37.43406],[-122.31553,37.43269],[-122.31388,37.43064],[-122.31097,37.42798],[-122.31081,37.42759],[-122.3108,37.42716],[-122.31122,37.42633],[-122.31176,37.42595],[-122.31369,37.42507],[-122.31511,37.42413],[-122.31554,37.42399],[-122.31609,37.42394],[-122.31833,37.42422],[-122.31894,37.42409],[-122.3194,37.42373],[-122.31952,37.42338],[-122.3189,37.42155],[-122.31866,37.42005],[-122.31869,37.41953],[-122.31917,37.41837],[-122.31905,37.41788],[-122.31877,37.41752],[-122.31743,37.41719],[-122.3167,37.4169],[-122.31058,37.41355],[-122.30977,37.41337],[-122.30918,37.41345],[-122.30857,37.41341],[-122.30807,37.41326],[-122.30764,37.413],[-122.30634,37.41164],[-122.30613,37.41125],[-122.30623,37.41076],[-122.30706,37.40995],[-122.30746,37.40941],[-122.3076,37.40902],[-122.30755,37.40821],[-122.30699,37.40726],[-122.30606,37.40666],[-122.3034,37.40577],[-122.30279,37.40547],[-122.29856,37.40244],[-122.29775,37.40121],[-122.29746,37.40094],[-122.29645,37.40033],[-122.29442,37.39992],[-122.29351,37.39924],[-122.29324,37.3989],[-122.29315,37.39853],[-122.29327,37.39828],[-122.29388,37.39773],[-122.29402,37.39749],[-122.29385,37.39653],[-122.29341,37.39612],[-122.29212,37.3957],[-122.29186,37.3955],[-122.29171,37.39498],[-122.29206,37.39419],[-122.292,37.39363],[-122.29129,37.39286],[-122.29033,37.39217],[-122.28967,37.39191],[-122.2891,37.39201],[-122.28887,37.39224],[-122.28878,37.39247],[-122.28888,37.39337],[-122.2888,37.39355],[-122.28833,37.39383],[-122.28767,37.39374],[-122.28692,37.3934],[-122.28586,37.39236],[-122.28536,37.39228],[-122.2846,37.39242],[-122.28419,37.39231],[-122.28405,37.39213],[-122.284,37.39151],[-122.28379,37.39111],[-122.28202,37.38998],[-122.28182,37.38971],[-122.28153,37.38887],[-122.28127,37.38869],[-122.28092,37.38862],[-122.28048,37.38869],[-122.27975,37.38917],[-122.2794,37.38918],[-122.27858,37.38896],[-122.27743,37.38926],[-122.27707,37.38917],[-122.27637,37.38875],[-122.27585,37.38876],[-122.27536,37.3891],[-122.27473,37.39084],[-122.27441,37.39117],[-122.27399,37.39133],[-122.27356,37.39136],[-122.2722,37.39138],[-122.27147,37.39128],[-122.27027,37.39079],[-122.26624,37.38766],[-122.26285,37.3854],[-122.26249,37.38491],[-122.26242,37.38444],[-122.26253,37.38402],[-122.26292,37.38338],[-122.26302,37.38294],[-122.2628,37.37976],[-122.26253,37.37795],[-122.26261,37.37754],[-122.26306,37.37676],[-122.26298,37.37625],[-122.26271,37.37598],[-122.26232,37.37582],[-122.26121,37.37587],[-122.26077,37.37579],[-122.25968,37.37512],[-122.25867,37.37436],[-122.25804,37.37294],[-122.25767,37.37256],[-122.25709,37.37221],[-122.25649,37.37204],[-122.25451,37.37172],[-122.25275,37.37193],[-122.25206,37.37166],[-122.25121,37.37095],[-122.24792,37.36769],[-122.24768,37.36731],[-122.24759,37.36693],[-122.2479,37.36546],[-122.24789,37.36495],[-122.24768,37.36445],[-122.24707,37.36361],[-122.24693,37.36304],[-122.24764,37.36049],[-122.24768,37.35965],[-122.24743,37.35876],[-122.24685,37.35792],[-122.24632,37.35746],[-122.24472,37.35651],[-122.24409,37.35603],[-122.24045,37.35209],[-122.23963,37.35146],[-122.23631,37.34964],[-122.23564,37.34947],[-122.23314,37.3491],[-122.23177,37.34859],[-122.23098,37.34809],[-122.23044,37.34762],[-122.2299,37.34696],[-122.22888,37.34535],[-122.22832,37.34485],[-122.22659,37.34415],[-122.22433,37.34274],[-122.21865,37.34061],[-122.21766,37.33999],[-122.21712,37.33939],[-122.21702,37.33905],[-122.217,37.3384],[-122.21724,37.33596],[-122.21704,37.33535],[-122.21636,37.3349],[-122.21596,37.33441],[-122.2156,37.33371],[-122.21474,37.33293],[-122.21123,37.33091],[-122.21086,37.33055],[-122.20972,37.32885],[-122.20645,37.32618],[-122.20512,37.32486],[-122.20472,37.32461],[-122.20137,37.32326],[-122.20077,37.32294],[-122.19875,37.32158],[-122.19775,37.32066],[-122.19725,37.32036],[-122.1915,37.31848],[-122.19056,37.31804],[-122.18953,37.31727],[-122.18682,37.31454],[-122.18601,37.31402],[-122.18534,37.31378],[-122.18438,37.31367],[-122.18356,37.31376],[-122.18231,37.31417],[-122.18183,37.31417],[-122.18141,37.31405],[-122.18103,37.3138],[-122.18071,37.31292],[-122.18049,37.31263],[-122.17999,37.31239],[-122.1794,37.3124],[-122.17756,37.31293],[-122.17634,37.31291],[-122.1757,37.31271],[-122.16913,37.30974],[-122.16852,37.30942],[-122.16813,37.30902],[-122.16765,37.30789],[-122.16698,37.307],[-122.16619,37.30641],[-122.16357,37.30528],[-122.1632,37.305],[-122.16257,37.30425],[-122.16163,37.30217],[-122.16151,37.30159],[-122.16177,37.30095],[-122.16284,37.30015],[-122.16297,37.2999],[-122.16308,37.29913],[-122.16405,37.29837],[-122.16434,37.29798],[-122.16444,37.29763],[-122.16417,37.29649],[-122.16452,37.29542],[-122.16446,37.29492],[-122.16416,37.29445],[-122.16367,37.2941],[-122.15955,37.29304],[-122.15639,37.29177],[-122.1538,37.29004],[-122.15303,37.2893],[-122.15279,37.28876],[-122.15256,37.2876],[-122.15211,37.28458],[-122.15184,37.2839],[-122.15134,37.28322],[-122.15101,37.28296],[-122.14917,37.28186],[-122.14882,37.2813],[-122.14871,37.28091],[-122.14884,37.28004],[-122.14951,37.27903],[-122.14953,37.27855],[-122.14934,37.27799],[-122.14939,37.27763],[-122.14963,37.27732],[-122.15038,37.27672],[-122.15059,37.27634],[-122.15059,37.27592],[-122.15035,37.27549],[-122.14974,37.27513],[-122.14846,37.27503],[-122.14775,37.27471],[-122.14589,37.27196],[-122.14403,37.27011],[-122.14087,37.2692],[-122.13953,37.26856],[-122.13777,37.26669],[-122.13614,37.26588],[-122.13567,37.2655],[-122.13438,37.26293],[-122.134,37.26265],[-122.13299,37.26217],[-122.13225,37.26133],[-122.13125,37.26068],[-122.12865,37.25931],[-122.12821,37.25919],[-122.12763,37.25922],[-122.12693,37.2594],[-122.12558,37.25936],[-122.12442,37.2597],[-122.12377,37.25968],[-122.12191,37.25848],[-122.11996,37.25679],[-122.11888,37.25632],[-122.11826,37.25591],[-122.11786,37.25534],[-122.11754,37.25398],[-122.1171,37.25322],[-122.11414,37.25075],[-122.11286,37.2495],[-122.11004,37.24529],[-122.10757,37.24266],[-122.10618,37.24132],[-122.10526,37.24022],[-122.10488,37.2395],[-122.10474,37.23882],[-122.10473,37.23817],[-122.10523,37.23602],[-122.10513,37.23536],[-122.10481,37.23484],[-122.10417,37.23434],[-122.10346,37.23403],[-122.1003,37.23355]]]}}
