{"type":"Feature","properties":{"id":"sonora-pass","name":"Sonora Pass \u00b7 Hwy 108","difficulty":3,"character":"Technical"},"geometry":{"type":"MultiLineString","coordinates":[[[-119.74994,38.32121],[-119.74951,38.32111],[-119.74838,38.32109],[-119.74809,38.3212],[-119.74794,38.32162],[-119.74777,38.32175],[-119.74739,38.32178],[-119.74701,38.32163],[-119.74643,38.32079],[-119.7457,38.32046],[-119.74522,38.31979],[-119.74508,38.31931],[-119.74447,38.3188],[-119.74437,38.31818],[-119.74417,38.31783],[-119.74335,38.31733],[-119.74297,38.31606],[-119.74303,38.31531],[-119.74291,38.31512],[-119.7408,38.31485],[-119.73917,38.31426],[-119.73774,38.31406],[-119.73708,38.31378],[-119.73676,38.31375],[-119.73552,38.31424],[-119.73434,38.31508],[-119.73282,38.31556],[-119.73209,38.31607],[-119.73121,38.31623],[-119.73033,38.31655],[-119.73031,38.31673],[-119.73055,38.31691],[-119.73194,38.31727],[-119.7327,38.31728],[-119.73308,38.31697],[-119.73337,38.31689],[-119.73351,38.317],[-119.73344,38.31717],[-119.7328,38.31765],[-119.73118,38.31809],[-119.73021,38.31825],[-119.72869,38.31926],[-119.72813,38.31952],[-119.72683,38.31979],[-119.72556,38.32022],[-119.72355,38.32014],[-119.72098,38.32023],[-119.71826,38.32019],[-119.7179,38.32044],[-119.7176,38.32123],[-119.7176,38.32153],[-119.71783,38.32196],[-119.7177,38.32215],[-119.71618,38.32249],[-119.71561,38.32222],[-119.71543,38.32224],[-119.71434,38.32299],[-119.71377,38.32363],[-119.71242,38.32393],[-119.71085,38.32445],[-119.71047,38.32449],[-119.70953,38.3244],[-119.70813,38.32464],[-119.70592,38.32558],[-119.70546,38.32567],[-119.70444,38.32546],[-119.70258,38.32567],[-119.70158,38.32534],[-119.70097,38.32526],[-119.70029,38.32528],[-119.69958,38.32549],[-119.69879,38.32548],[-119.69683,38.32468],[-119.69606,38.32456],[-119.69166,38.32493],[-119.69092,38.32509],[-119.68979,38.32551],[-119.68779,38.32573],[-119.68694,38.32614],[-119.68663,38.32618],[-119.6861,38.32606],[-119.6847,38.32516],[-119.6839,38.32483],[-119.68366,38.32481],[-119.68319,38.32497],[-119.6826,38.32497],[-119.68134,38.32466],[-119.67911,38.32337],[-119.67276,38.3214],[-119.67166,38.32073],[-119.67131,38.32041],[-119.67049,38.31921],[-119.66924,38.31781],[-119.66886,38.31774],[-119.66804,38.31821],[-119.66771,38.31824],[-119.66702,38.31759],[-119.66699,38.31705],[-119.66677,38.31692],[-119.6662,38.31739],[-119.6652,38.31793],[-119.66435,38.31824],[-119.66402,38.3185],[-119.6633,38.31998],[-119.66271,38.32045],[-119.66268,38.32117],[-119.66254,38.32155],[-119.66181,38.32248],[-119.66142,38.32323],[-119.65969,38.32514],[-119.65975,38.326],[-119.65878,38.32708],[-119.65796,38.32724],[-119.65755,38.32747],[-119.65746,38.32772],[-119.65765,38.32843],[-119.6576,38.32867],[-119.65677,38.32936],[-119.65636,38.32987],[-119.65553,38.33127],[-119.65405,38.33336],[-119.65356,38.3348],[-119.65274,38.33597],[-119.65237,38.33619],[-119.65181,38.33619],[-119.65148,38.336],[-119.65094,38.33543],[-119.65029,38.33537],[-119.64922,38.33558],[-119.64824,38.33636],[-119.64782,38.33656],[-119.64538,38.33657],[-119.6434,38.33588],[-119.64216,38.33511],[-119.64168,38.33462],[-119.64134,38.33377],[-119.64105,38.33335],[-119.63978,38.33286],[-119.63695,38.33031],[-119.63672,38.33002],[-119.63669,38.32973],[-119.63739,38.32895],[-119.6374,38.32854],[-119.6371,38.32781],[-119.63621,38.32746],[-119.63575,38.32741],[-119.63446,38.32775],[-119.63373,38.32826],[-119.63296,38.32853],[-119.63234,38.3289],[-119.63072,38.32849],[-119.63016,38.32827],[-119.62914,38.32768],[-119.62865,38.32719],[-119.62801,38.32723],[-119.62753,38.3271],[-119.62714,38.32668],[-119.62634,38.3262],[-119.62618,38.32624],[-119.6261,38.32638],[-119.62626,38.32712],[-119.62579,38.32742],[-119.62486,38.32772],[-119.6213,38.32841],[-119.62004,38.32845],[-119.61805,38.32827],[-119.61683,38.32803],[-119.616,38.32772],[-119.6145,38.32617],[-119.61435,38.32554],[-119.61475,38.32482],[-119.61476,38.3246],[-119.61395,38.32361],[-119.61329,38.32305],[-119.61206,38.32226],[-119.61113,38.32172],[-119.61044,38.32149],[-119.60976,38.32112],[-119.60887,38.32022],[-119.60888,38.31967],[-119.60866,38.31918],[-119.60873,38.31844],[-119.60898,38.31826],[-119.60975,38.31825],[-119.60983,38.31805],[-119.60905,38.31699],[-119.60822,38.31628],[-119.60782,38.31545],[-119.60737,38.3151],[-119.60675,38.31481],[-119.60523,38.31443],[-119.60399,38.31369],[-119.60048,38.31272],[-119.59919,38.31211],[-119.59864,38.31159],[-119.59855,38.31091],[-119.59834,38.31071],[-119.59715,38.31063],[-119.59628,38.31025],[-119.59516,38.3101],[-119.59459,38.31013],[-119.59436,38.31003],[-119.59342,38.30871],[-119.59365,38.30779],[-119.59372,38.30676],[-119.59363,38.30615],[-119.5935,38.3056],[-119.59321,38.30503],[-119.59303,38.30488],[-119.5928,38.30485],[-119.5926,38.30495],[-119.59178,38.30604],[-119.59128,38.30733],[-119.5909,38.30769],[-119.5904,38.30783],[-119.58957,38.30792],[-119.58773,38.30756],[-119.58744,38.3076],[-119.58692,38.30806],[-119.58691,38.30887],[-119.58575,38.30957],[-119.58537,38.30973],[-119.5848,38.3097],[-119.58393,38.30986],[-119.58376,38.30977],[-119.58364,38.30945],[-119.58331,38.30945],[-119.57816,38.3129],[-119.57646,38.31365],[-119.57365,38.31511],[-119.57301,38.31555],[-119.57208,38.31587],[-119.57153,38.31625],[-119.57072,38.31659],[-119.57013,38.31721],[-119.56953,38.31764],[-119.568,38.31927],[-119.56664,38.31989],[-119.56491,38.32035],[-119.56456,38.32074],[-119.56345,38.3216],[-119.56283,38.32178],[-119.56232,38.32248],[-119.56109,38.32346],[-119.56068,38.3241],[-119.56052,38.32471],[-119.55993,38.32574],[-119.55865,38.32647],[-119.55826,38.32655],[-119.55722,38.3265],[-119.55632,38.32707],[-119.55541,38.32749],[-119.55521,38.32772],[-119.55506,38.32773],[-119.55492,38.32759],[-119.55494,38.32732],[-119.55527,38.32709],[-119.55587,38.32641],[-119.55632,38.32549],[-119.55653,38.32465],[-119.55671,38.32308],[-119.55645,38.32256],[-119.55621,38.32242],[-119.55595,38.32247],[-119.55573,38.32316],[-119.55548,38.32353],[-119.55498,38.32384],[-119.55476,38.32411],[-119.55425,38.32434],[-119.55293,38.32566],[-119.55261,38.32647],[-119.55226,38.32704],[-119.55222,38.32761],[-119.55198,38.32818],[-119.55227,38.33007],[-119.55339,38.33108],[-119.5538,38.3325],[-119.55372,38.33294],[-119.5525,38.33488],[-119.55132,38.33609],[-119.55104,38.33676],[-119.55001,38.33829],[-119.54905,38.34017],[-119.54768,38.34115],[-119.5473,38.34166],[-119.546,38.34435],[-119.54582,38.34452],[-119.54512,38.34492],[-119.54439,38.34494],[-119.54342,38.34529],[-119.54208,38.3467],[-119.54143,38.34682],[-119.5404,38.34755],[-119.53785,38.34853],[-119.53732,38.34888],[-119.53678,38.34971],[-119.53641,38.35009],[-119.53557,38.35053],[-119.53445,38.3507],[-119.53301,38.35055],[-119.53168,38.35057],[-119.51796,38.3554],[-119.51284,38.35683],[-119.51107,38.35746],[-119.50996,38.35764],[-119.50866,38.35754],[-119.50718,38.35764],[-119.50615,38.35795],[-119.50448,38.35888],[-119.50099,38.36019],[-119.49969,38.3608],[-119.49904,38.36126],[-119.49811,38.36231],[-119.49678,38.3635],[-119.49633,38.36379],[-119.4957,38.36403],[-119.48847,38.36581],[-119.48551,38.36568],[-119.48429,38.36597],[-119.48354,38.36601],[-119.47829,38.36566],[-119.47669,38.36527],[-119.47538,38.36463],[-119.47445,38.36391],[-119.47386,38.36322],[-119.47284,38.36145],[-119.47195,38.3603],[-119.46385,38.35266],[-119.4631,38.35204],[-119.46201,38.35139],[-119.46083,38.35091],[-119.45231,38.34852]]]}}
