{"type":"Feature","properties":{"id":"soquel","name":"Soquel\u2013San Jose Road","difficulty":2,"character":"Medium speed"},"geometry":{"type":"MultiLineString","coordinates":[[[-121.92538,37.11869],[-121.9261,37.11821],[-121.92834,37.11828],[-121.93005,37.11792],[-121.93054,37.11774],[-121.93075,37.11756],[-121.93117,37.11681],[-121.93138,37.11662],[-121.9325,37.11626],[-121.9341,37.11595],[-121.93509,37.11623],[-121.93569,37.11617],[-121.93599,37.11603],[-121.93759,37.11483],[-121.93955,37.11427],[-121.94061,37.1134],[-121.94296,37.11254],[-121.94417,37.11235],[-121.94501,37.11252],[-121.94656,37.11302],[-121.94733,37.11292],[-121.9476,37.11282],[-121.94832,37.11215],[-121.94869,37.11151],[-121.94869,37.11105],[-121.94782,37.10979],[-121.94747,37.10947],[-121.94639,37.10918],[-121.94598,37.10897],[-121.94512,37.10732],[-121.94507,37.10685],[-121.94533,37.10636],[-121.94811,37.10439],[-121.94828,37.10399],[-121.94824,37.10368],[-121.94751,37.10277],[-121.94753,37.10239],[-121.94782,37.10167],[-121.94741,37.09974],[-121.9475,37.09912],[-121.94776,37.09795],[-121.94844,37.09694],[-121.94856,37.09569],[-121.94874,37.09541],[-121.94915,37.09513],[-121.94996,37.0948],[-121.95034,37.09426],[-121.95033,37.09376],[-121.94954,37.09253],[-121.94953,37.09091],[-121.94995,37.09045],[-121.95113,37.09002],[-121.95159,37.08955],[-121.95163,37.08924],[-121.95145,37.08882],[-121.95092,37.08818],[-121.95094,37.08746],[-121.95121,37.08628],[-121.95107,37.08525],[-121.95027,37.08396],[-121.94962,37.08326],[-121.94931,37.08303],[-121.9486,37.08284],[-121.94812,37.08261],[-121.94711,37.08161],[-121.94589,37.08116],[-121.94536,37.08029],[-121.9449,37.07978],[-121.94246,37.07774],[-121.93999,37.07652],[-121.93874,37.07482],[-121.93824,37.07361],[-121.93822,37.07328],[-121.93845,37.07261],[-121.9385,37.07208],[-121.93824,37.0709],[-121.93858,37.07006],[-121.93859,37.06928],[-121.93869,37.06907],[-121.9399,37.06793],[-121.94009,37.06732],[-121.94091,37.06583],[-121.94091,37.06544],[-121.94058,37.06449],[-121.94066,37.06358],[-121.94133,37.0619],[-121.94104,37.06113],[-121.94103,37.06043],[-121.94128,37.05903],[-121.94192,37.05701],[-121.942,37.05648],[-121.94173,37.05604],[-121.9402,37.05535],[-121.93982,37.05494],[-121.93926,37.05277],[-121.9382,37.05091],[-121.93806,37.05023],[-121.93815,37.04659],[-121.93827,37.04625],[-121.93861,37.04592],[-121.94069,37.04512],[-121.94079,37.045],[-121.94224,37.04217],[-121.94256,37.04057],[-121.9431,37.0393],[-121.94433,37.03835],[-121.94458,37.03803],[-121.94459,37.03726],[-121.94447,37.03687],[-121.94396,37.03591],[-121.94403,37.03532],[-121.94531,37.03372],[-121.94569,37.0331],[-121.94615,37.03273],[-121.94688,37.03237],[-121.94784,37.03124],[-121.94819,37.03057],[-121.94808,37.02874],[-121.94826,37.02816],[-121.94874,37.02767],[-121.94918,37.02744],[-121.95057,37.02708],[-121.95111,37.02664],[-121.95129,37.02619],[-121.95134,37.02588],[-121.95113,37.0252],[-121.95113,37.02439],[-121.95167,37.02188],[-121.95173,37.02109],[-121.95153,37.01978],[-121.95184,37.0188],[-121.95234,37.01815],[-121.95252,37.01749],[-121.95189,37.01631],[-121.95187,37.01572],[-121.95312,37.01149],[-121.95328,37.01013],[-121.95359,37.00916],[-121.95344,37.00839],[-121.95265,37.00705],[-121.95263,37.00658],[-121.95331,37.00532],[-121.95474,37.0032],[-121.95502,37.00183],[-121.9557,37.00062],[-121.95592,36.99999],[-121.95606,36.99929],[-121.95606,36.9979],[-121.95718,36.99341],[-121.9573,36.99073]]]}}
