{"type":"Feature","properties":{"id":"stage","name":"Stage Road","difficulty":2,"character":"Low speed"},"geometry":{"type":"MultiLineString","coordinates":[[[-122.39418,37.33762],[-122.39239,37.33794],[-122.39185,37.33841],[-122.39165,37.33842],[-122.39149,37.33831],[-122.39152,37.33684],[-122.39135,37.33606],[-122.38998,37.3344],[-122.38983,37.33411],[-122.39009,37.33331],[-122.39041,37.33332],[-122.3907,37.33363],[-122.39094,37.33354],[-122.39077,37.33272],[-122.39041,37.33216],[-122.38945,37.33105],[-122.38854,37.33046],[-122.38731,37.32943],[-122.38683,37.32845],[-122.38645,37.32661],[-122.38643,37.32577],[-122.38656,37.32544],[-122.38855,37.32379],[-122.38836,37.32315],[-122.3878,37.32214],[-122.38731,37.32152],[-122.38728,37.32125],[-122.38766,37.32079],[-122.38771,37.32029],[-122.38881,37.31977],[-122.38916,37.3192],[-122.38996,37.31913],[-122.3904,37.3187],[-122.39095,37.31842],[-122.39103,37.31812],[-122.39069,37.31751],[-122.39114,37.31718],[-122.39112,37.31702],[-122.39068,37.31662],[-122.39038,37.31612],[-122.38961,37.31522],[-122.38827,37.31436],[-122.38733,37.3141],[-122.38687,37.31387],[-122.38547,37.31374],[-122.3852,37.31361],[-122.3854,37.31291],[-122.38508,37.31231],[-122.38511,37.3122],[-122.38537,37.31213],[-122.38587,37.31232],[-122.38614,37.31231],[-122.38683,37.31186],[-122.38696,37.31162],[-122.38675,37.31075],[-122.3865,37.3102],[-122.3862,37.31004],[-122.38557,37.30992],[-122.38507,37.30963],[-122.38521,37.30918],[-122.3858,37.30908],[-122.38598,37.30891],[-122.38624,37.30845],[-122.38643,37.30758],[-122.38638,37.30737],[-122.38621,37.30721],[-122.38519,37.3069],[-122.38489,37.3064],[-122.38523,37.30592],[-122.38539,37.30548],[-122.38604,37.3052],[-122.38598,37.30472],[-122.38443,37.3035],[-122.38428,37.30347],[-122.38394,37.30365],[-122.3839,37.30416],[-122.38362,37.30459],[-122.38332,37.30462],[-122.38325,37.30396],[-122.38248,37.30294],[-122.38208,37.30286],[-122.38102,37.30319],[-122.38055,37.30305],[-122.3803,37.30278],[-122.38027,37.30246],[-122.3804,37.30224],[-122.38174,37.30127],[-122.38284,37.30002],[-122.38331,37.29982],[-122.38384,37.30012],[-122.38438,37.29993],[-122.38442,37.29961],[-122.3843,37.2992],[-122.38444,37.2985],[-122.38393,37.29726],[-122.38416,37.29705],[-122.38487,37.29709],[-122.38516,37.29695],[-122.38551,37.29616],[-122.38603,37.29559],[-122.38636,37.29538],[-122.38642,37.29522],[-122.38618,37.29514],[-122.38462,37.29631],[-122.38362,37.29619],[-122.38274,37.29576],[-122.38262,37.29557],[-122.38267,37.29507],[-122.38258,37.29486],[-122.38208,37.29418],[-122.38159,37.29382],[-122.38129,37.29316],[-122.38139,37.29254],[-122.38106,37.29155],[-122.38063,37.29115],[-122.38014,37.29092],[-122.37983,37.29024],[-122.37986,37.29006],[-122.38033,37.28976],[-122.3805,37.28943],[-122.38016,37.28872],[-122.37978,37.28838],[-122.37948,37.2883],[-122.37868,37.28865],[-122.37788,37.28856],[-122.37743,37.28819],[-122.37737,37.28794],[-122.37752,37.2874],[-122.37776,37.28707],[-122.37774,37.28689],[-122.37662,37.28622],[-122.37602,37.28619],[-122.37577,37.28609],[-122.37557,37.28576],[-122.37561,37.28558],[-122.37599,37.28534],[-122.37626,37.285],[-122.37651,37.28404],[-122.37691,37.28337],[-122.37673,37.28224],[-122.37605,37.28116],[-122.37611,37.28088],[-122.38149,37.2782],[-122.38235,37.27756],[-122.38429,37.27443],[-122.38513,37.27356],[-122.38555,37.27264],[-122.38562,37.27188],[-122.38553,37.27102],[-122.38591,37.26891],[-122.38549,37.26766],[-122.38533,37.26677],[-122.38469,37.26148],[-122.38394,37.25957],[-122.38379,37.25859],[-122.3833,37.25734],[-122.38312,37.25292],[-122.38248,37.24929]]]}}
