{"type":"Feature","properties":{"id":"star-hill","name":"Star Hill Road & Swett Road","difficulty":3,"character":"Technical"},"geometry":{"type":"MultiLineString","coordinates":[[[-122.32783,37.42212],[-122.32796,37.42202],[-122.32748,37.42151],[-122.32747,37.42111],[-122.32798,37.42097],[-122.32822,37.42073],[-122.32905,37.4204],[-122.32932,37.41938],[-122.32953,37.41915],[-122.33013,37.41881],[-122.33108,37.41896],[-122.33209,37.41861],[-122.33239,37.41843],[-122.33192,37.41813],[-122.33182,37.41796],[-122.33155,37.41677],[-122.3316,37.41636],[-122.33218,37.41581],[-122.33246,37.41522],[-122.33245,37.41497],[-122.33198,37.41434],[-122.33197,37.41411],[-122.33258,37.41341],[-122.33274,37.41266],[-122.3325,37.41229],[-122.33249,37.41202],[-122.33286,37.41146],[-122.33349,37.41003],[-122.33336,37.40933],[-122.3326,37.40794],[-122.33269,37.40755],[-122.333,37.40708],[-122.33306,37.40679],[-122.33293,37.40638],[-122.33322,37.4055],[-122.3332,37.40472],[-122.33339,37.40441],[-122.33337,37.40427],[-122.333,37.4039],[-122.33309,37.40378],[-122.33428,37.40342],[-122.33442,37.40332],[-122.33462,37.40277],[-122.3358,37.40244],[-122.3361,37.40217],[-122.33642,37.40153],[-122.33633,37.40116],[-122.33574,37.40075],[-122.33548,37.4002],[-122.33562,37.39957],[-122.33537,37.399],[-122.33482,37.3987],[-122.33476,37.39842],[-122.3349,37.39789],[-122.33482,37.39764],[-122.33386,37.39744],[-122.33358,37.39763],[-122.33326,37.39764],[-122.33315,37.39745],[-122.33331,37.39696],[-122.33294,37.39629],[-122.33262,37.3961],[-122.3325,37.39578],[-122.33236,37.39576],[-122.33216,37.39595],[-122.3317,37.39593],[-122.33135,37.39641],[-122.33098,37.39656],[-122.32992,37.39667],[-122.32947,37.39663],[-122.32938,37.39653],[-122.32932,37.39614],[-122.32957,37.39587],[-122.33005,37.39576],[-122.33006,37.39529],[-122.33045,37.39478],[-122.33029,37.39427],[-122.33136,37.39351],[-122.33166,37.39293],[-122.33146,37.39262],[-122.33133,37.39198],[-122.33072,37.39174],[-122.33015,37.39129],[-122.32985,37.39084],[-122.32961,37.39071],[-122.32878,37.39063],[-122.32864,37.39044],[-122.32866,37.39012],[-122.32875,37.38985],[-122.32892,37.38969],[-122.32918,37.38962],[-122.33027,37.38979],[-122.33095,37.38978],[-122.33112,37.3897],[-122.33121,37.38949],[-122.33125,37.3886],[-122.33157,37.38829],[-122.33195,37.38814],[-122.33217,37.38782],[-122.33217,37.387],[-122.33225,37.3869]]]}}
