{"type":"Feature","properties":{"id":"stevens-canyon-road","name":"Stevens Canyon Road","difficulty":2,"character":"Technical"},"geometry":{"type":"MultiLineString","coordinates":[[[-121.73962,46.77907],[-121.73904,46.77858],[-121.739,46.7781],[-121.7404,46.77732],[-121.74099,46.77661],[-121.74205,46.77593],[-121.74319,46.77466],[-121.74388,46.77369],[-121.74383,46.772],[-121.74355,46.77036],[-121.74337,46.7698],[-121.74301,46.76947],[-121.74211,46.76934],[-121.73934,46.76984],[-121.73633,46.76952],[-121.7342,46.76965],[-121.73329,46.7694],[-121.73135,46.76838],[-121.73041,46.76811],[-121.72971,46.76804],[-121.7288,46.76806],[-121.72782,46.76823],[-121.72586,46.76898],[-121.72462,46.76901],[-121.72391,46.76878],[-121.72342,46.76849],[-121.72273,46.7676],[-121.72223,46.76723],[-121.72077,46.76677],[-121.71941,46.76613],[-121.71867,46.76595],[-121.71807,46.766],[-121.71771,46.76613],[-121.71633,46.76707],[-121.71534,46.76835],[-121.71419,46.77048],[-121.71378,46.77078],[-121.71314,46.77085],[-121.71275,46.77074],[-121.71242,46.77041],[-121.7121,46.76914],[-121.71182,46.76867],[-121.71146,46.7683],[-121.71074,46.76789],[-121.71023,46.76774],[-121.70932,46.76763],[-121.70668,46.76803],[-121.70329,46.76799],[-121.70271,46.7679],[-121.70213,46.76771],[-121.70151,46.76731],[-121.69974,46.76589],[-121.69897,46.76505],[-121.6984,46.76468],[-121.69689,46.76398],[-121.69625,46.76356],[-121.6957,46.76362],[-121.69567,46.76385],[-121.69672,46.76421],[-121.6976,46.7647],[-121.6984,46.76534],[-121.6988,46.76597],[-121.69964,46.76785],[-121.7004,46.76877],[-121.70105,46.76929],[-121.70178,46.76975],[-121.70283,46.77018],[-121.70375,46.77037],[-121.70522,46.77047],[-121.7057,46.7706],[-121.70605,46.77079],[-121.70638,46.77116],[-121.70648,46.77172],[-121.7061,46.77231],[-121.70548,46.77261],[-121.70422,46.77276],[-121.70387,46.77288],[-121.70331,46.77326],[-121.7031,46.77383],[-121.7032,46.77535],[-121.70282,46.77575],[-121.70205,46.77594],[-121.70141,46.77584],[-121.69998,46.77517],[-121.69838,46.77501],[-121.69775,46.77481],[-121.69298,46.77218],[-121.69008,46.77089],[-121.68891,46.77067],[-121.68747,46.77073],[-121.68567,46.77039],[-121.68394,46.7703],[-121.68268,46.77006],[-121.68108,46.77011],[-121.68071,46.76999],[-121.67993,46.76949],[-121.67931,46.76928],[-121.67786,46.76922],[-121.677,46.76904],[-121.67409,46.7677],[-121.673,46.76695],[-121.67249,46.76682],[-121.67108,46.76672],[-121.6679,46.7652],[-121.66689,46.76481],[-121.66659,46.76457],[-121.66612,46.76384],[-121.66557,46.76352],[-121.66412,46.76333],[-121.6619,46.7629],[-121.66087,46.76296],[-121.66,46.76286],[-121.65819,46.7623],[-121.65689,46.76164],[-121.65406,46.76128],[-121.65209,46.76073],[-121.64935,46.75957],[-121.64844,46.75932],[-121.64695,46.75906],[-121.64451,46.75889],[-121.64288,46.75887],[-121.64166,46.75909],[-121.64011,46.75963],[-121.63966,46.75998],[-121.63918,46.76062],[-121.6378,46.7641],[-121.63711,46.7649],[-121.63612,46.76546],[-121.63495,46.76578],[-121.6341,46.76576],[-121.63316,46.76547],[-121.63275,46.76519],[-121.63198,46.76403],[-121.63105,46.76313],[-121.63007,46.7615],[-121.62943,46.76106],[-121.62796,46.76053],[-121.62733,46.7601],[-121.62448,46.75512],[-121.62399,46.75463],[-121.62257,46.75365],[-121.62201,46.75315],[-121.62091,46.75171],[-121.62052,46.75099],[-121.61972,46.7485],[-121.61942,46.74694],[-121.61949,46.74443],[-121.61888,46.74352],[-121.61764,46.74274],[-121.6158,46.7422],[-121.61503,46.74182],[-121.61238,46.73964],[-121.6121,46.73872],[-121.61222,46.73787],[-121.6128,46.73702],[-121.61453,46.73558],[-121.61473,46.73516],[-121.61473,46.73473],[-121.61445,46.73422],[-121.61324,46.73333],[-121.61262,46.73254],[-121.60623,46.72652],[-121.60517,46.72523],[-121.60495,46.72421],[-121.60494,46.72316],[-121.60425,46.7216],[-121.60438,46.72067],[-121.60431,46.72027],[-121.60258,46.71736],[-121.60196,46.71604],[-121.59999,46.70907],[-121.59981,46.70878],[-121.5995,46.70857],[-121.59873,46.70834],[-121.59816,46.70831],[-121.59512,46.70883],[-121.59422,46.70923],[-121.59368,46.70983],[-121.59359,46.71011],[-121.59363,46.71396],[-121.59274,46.71777],[-121.59207,46.71931],[-121.59139,46.7203],[-121.59034,46.72141],[-121.58842,46.72209],[-121.5879,46.72233],[-121.58768,46.72259],[-121.58705,46.7245],[-121.5861,46.72685],[-121.58547,46.72767],[-121.58453,46.72935],[-121.58347,46.73051],[-121.58226,46.73228],[-121.58005,46.735],[-121.57962,46.73572],[-121.57885,46.73763],[-121.57784,46.73886],[-121.57776,46.73938],[-121.57784,46.7404],[-121.57771,46.74085],[-121.57616,46.74315],[-121.57489,46.74584],[-121.57436,46.7467],[-121.57419,46.74686],[-121.57366,46.74701],[-121.57297,46.74693],[-121.5726,46.74668],[-121.57253,46.74625],[-121.57327,46.745],[-121.57333,46.74453],[-121.57314,46.74431],[-121.57274,46.74416],[-121.57222,46.74413],[-121.57192,46.74423],[-121.5711,46.74487],[-121.57062,46.74567],[-121.57051,46.74884],[-121.57022,46.74952],[-121.56976,46.74988],[-121.569,46.75017],[-121.56594,46.75056],[-121.56546,46.75077],[-121.56505,46.75114],[-121.56491,46.75145],[-121.56493,46.75185],[-121.5657,46.75359],[-121.56552,46.75403],[-121.56523,46.75418],[-121.56481,46.75424],[-121.56442,46.75416],[-121.56416,46.754],[-121.56407,46.75366],[-121.56448,46.75246],[-121.56453,46.75174],[-121.56416,46.75148],[-121.5636,46.75154],[-121.56335,46.75168],[-121.56319,46.75211],[-121.56366,46.75505],[-121.56351,46.75559],[-121.56311,46.75613],[-121.56133,46.75756],[-121.5609,46.7581],[-121.56034,46.75954],[-121.55981,46.76003],[-121.55917,46.76016],[-121.55878,46.7601],[-121.55824,46.7598],[-121.55803,46.75947],[-121.55771,46.75858],[-121.5576,46.75771],[-121.55813,46.75624],[-121.55811,46.756],[-121.55782,46.75537],[-121.55755,46.75507],[-121.55689,46.75467]]]}}
