{"type":"Feature","properties":{"id":"stunt-road","name":"Stunt Road","difficulty":3,"character":"Technical"},"geometry":{"type":"MultiLineString","coordinates":[[[-118.66,34.10193],[-118.65877,34.10141],[-118.65836,34.10133],[-118.65545,34.10153],[-118.655,34.1015],[-118.65471,34.10139],[-118.65437,34.10104],[-118.65376,34.09989],[-118.65333,34.09851],[-118.65244,34.09767],[-118.65224,34.0973],[-118.65219,34.09647],[-118.65255,34.09565],[-118.65252,34.09533],[-118.65233,34.09508],[-118.65199,34.09487],[-118.65157,34.09481],[-118.65046,34.09515],[-118.64943,34.09525],[-118.64778,34.095],[-118.64736,34.09483],[-118.64716,34.09458],[-118.64711,34.09433],[-118.64725,34.09375],[-118.6475,34.0934],[-118.64788,34.09332],[-118.64905,34.0939],[-118.64955,34.09394],[-118.64975,34.0938],[-118.65006,34.09333],[-118.65067,34.09314],[-118.65123,34.09283],[-118.65177,34.09274],[-118.65223,34.09246],[-118.6524,34.09226],[-118.65248,34.09161],[-118.65317,34.09114],[-118.65343,34.09051],[-118.65373,34.09031],[-118.65489,34.09031],[-118.65597,34.09073],[-118.65706,34.09072],[-118.65785,34.09099],[-118.65834,34.09099],[-118.65896,34.0908],[-118.65934,34.09054],[-118.66022,34.08963],[-118.6606,34.08884],[-118.66097,34.08838],[-118.66132,34.08832],[-118.66239,34.08847],[-118.66351,34.08837],[-118.6638,34.08822],[-118.66494,34.08716],[-118.66502,34.08697],[-118.66488,34.08666],[-118.66457,34.08652],[-118.66378,34.08677],[-118.66353,34.08677],[-118.66035,34.08602],[-118.65974,34.08595],[-118.65772,34.08616],[-118.65735,34.08587],[-118.65698,34.08516],[-118.65659,34.08498],[-118.65495,34.08501],[-118.65388,34.08527],[-118.6531,34.08517],[-118.65275,34.08493],[-118.65174,34.08383],[-118.65072,34.08354],[-118.65042,34.08333],[-118.65021,34.08213],[-118.65075,34.08146],[-118.65087,34.08112],[-118.65074,34.08072],[-118.65044,34.08048],[-118.64982,34.08042],[-118.64736,34.08082],[-118.64603,34.08117],[-118.64574,34.08111]]]}}
