{"type":"Feature","properties":{"id":"suisun-valley","name":"Suisun Valley Road","difficulty":2,"character":"Medium speed"},"geometry":{"type":"MultiLineString","coordinates":[[[-122.12783,38.22179],[-122.12957,38.22345],[-122.12981,38.22381],[-122.12983,38.22449],[-122.12958,38.2269],[-122.12929,38.22823],[-122.12873,38.2296],[-122.12525,38.23667],[-122.12214,38.24424],[-122.12046,38.24871],[-122.11993,38.25405],[-122.11632,38.25966],[-122.11387,38.26281],[-122.11285,38.26798],[-122.11165,38.27241],[-122.11163,38.27315],[-122.11181,38.27399],[-122.11205,38.27452],[-122.11526,38.27937],[-122.11814,38.28443],[-122.11836,38.28557],[-122.1184,38.28906],[-122.11943,38.29203],[-122.12035,38.29641],[-122.12067,38.29663],[-122.12598,38.29703],[-122.12624,38.29709],[-122.12641,38.29725],[-122.1268,38.29798],[-122.12746,38.29963],[-122.12874,38.30175],[-122.12854,38.3046],[-122.12869,38.30516],[-122.12881,38.30665],[-122.12876,38.30779],[-122.12889,38.30914],[-122.12928,38.31104],[-122.12916,38.31232],[-122.12991,38.31374],[-122.13055,38.31394],[-122.13144,38.31379],[-122.13192,38.31383],[-122.13234,38.31425],[-122.13314,38.31476],[-122.13334,38.31521],[-122.13374,38.31553],[-122.13391,38.31584]]]}}
