{"type":"Feature","properties":{"id":"sunrise-highway","name":"Sunrise Highway \u00b7 S1","difficulty":2,"character":"Medium speed"},"geometry":{"type":"MultiLineString","coordinates":[[[-116.51125,32.81014],[-116.509,32.81343],[-116.50882,32.81385],[-116.50862,32.8153],[-116.5088,32.81568],[-116.50968,32.81653],[-116.50982,32.81701],[-116.5098,32.81771],[-116.51009,32.81832],[-116.51017,32.81877],[-116.50995,32.81931],[-116.50898,32.82011],[-116.50849,32.82143],[-116.50829,32.82172],[-116.50768,32.82207],[-116.50608,32.82205],[-116.50536,32.8223],[-116.50499,32.82262],[-116.50475,32.82299],[-116.50433,32.82422],[-116.50377,32.82464],[-116.50201,32.82492],[-116.50038,32.82442],[-116.49986,32.82441],[-116.49828,32.82509],[-116.49692,32.82525],[-116.49649,32.82547],[-116.49613,32.82592],[-116.4953,32.828],[-116.49525,32.82844],[-116.49538,32.82902],[-116.49589,32.82998],[-116.49595,32.83099],[-116.49628,32.83194],[-116.49628,32.83239],[-116.49597,32.83342],[-116.49597,32.83408],[-116.49672,32.83621],[-116.49672,32.83674],[-116.49653,32.83714],[-116.49619,32.83746],[-116.49525,32.83805],[-116.49506,32.83836],[-116.49504,32.83862],[-116.49526,32.83941],[-116.49522,32.84043],[-116.49568,32.84164],[-116.49566,32.84228],[-116.49532,32.84285],[-116.49464,32.84354],[-116.49435,32.84483],[-116.49342,32.84563],[-116.4925,32.84597],[-116.49014,32.84629],[-116.48981,32.84628],[-116.48824,32.84593],[-116.48768,32.84599],[-116.48727,32.84614],[-116.48686,32.84642],[-116.48599,32.84743],[-116.48561,32.849],[-116.48505,32.84964],[-116.48373,32.8503],[-116.48242,32.8516],[-116.48164,32.85209],[-116.48101,32.85224],[-116.47922,32.85234],[-116.47849,32.85258],[-116.47803,32.8529],[-116.47693,32.85424],[-116.47638,32.85465],[-116.47584,32.8549],[-116.47465,32.85521],[-116.47154,32.85563],[-116.47044,32.85557],[-116.46918,32.85524],[-116.46865,32.8552],[-116.46801,32.8553],[-116.46724,32.85559],[-116.46616,32.85637],[-116.46487,32.85688],[-116.46413,32.85742],[-116.46177,32.86143],[-116.46122,32.86191],[-116.46031,32.86218],[-116.45991,32.86218],[-116.45931,32.86205],[-116.45895,32.86186],[-116.4585,32.86148],[-116.45817,32.86074],[-116.45788,32.85866],[-116.45753,32.85791],[-116.45702,32.85745],[-116.45592,32.85681],[-116.45534,32.85631],[-116.45496,32.85582],[-116.45419,32.85415],[-116.4537,32.85347],[-116.45323,32.85303],[-116.45161,32.85196],[-116.451,32.85142],[-116.44862,32.84822],[-116.44637,32.84628],[-116.44582,32.84597],[-116.44322,32.84483],[-116.44249,32.84459],[-116.44163,32.84448],[-116.4406,32.84457],[-116.44009,32.84469],[-116.43952,32.84492],[-116.43881,32.84536],[-116.43737,32.84666],[-116.43636,32.84719],[-116.43579,32.84738],[-116.43443,32.84757],[-116.43236,32.84754],[-116.43132,32.8476],[-116.42645,32.84862],[-116.42584,32.84891],[-116.42525,32.84942],[-116.42422,32.85085],[-116.42318,32.85176],[-116.4228,32.85253],[-116.42271,32.85341],[-116.42319,32.85551],[-116.42311,32.85663],[-116.42271,32.85786],[-116.42188,32.85957],[-116.42053,32.86137],[-116.42031,32.8618],[-116.4202,32.86263],[-116.42054,32.86454],[-116.42039,32.86542],[-116.41936,32.86678],[-116.4185,32.86765],[-116.41601,32.86934],[-116.41575,32.86976],[-116.4157,32.87046],[-116.41741,32.87365],[-116.41817,32.87474],[-116.42496,32.88081],[-116.43677,32.88804],[-116.43797,32.88862],[-116.4387,32.88886],[-116.44126,32.88946],[-116.44299,32.8901],[-116.44403,32.89071],[-116.44614,32.89233],[-116.44734,32.89285],[-116.44806,32.89334],[-116.44854,32.89404],[-116.44895,32.89614],[-116.44978,32.89734],[-116.45022,32.89762],[-116.45066,32.89778],[-116.45196,32.89786],[-116.45241,32.89798],[-116.4529,32.89825],[-116.45333,32.89869],[-116.45539,32.90277],[-116.45877,32.90745],[-116.45999,32.91002],[-116.46067,32.91096],[-116.4619,32.91201],[-116.46501,32.91378],[-116.46559,32.91421],[-116.47717,32.92434],[-116.478,32.92467],[-116.47875,32.92468],[-116.48041,32.92405],[-116.48155,32.92392],[-116.48266,32.92418],[-116.48351,32.92476],[-116.48384,32.92516],[-116.48414,32.92581],[-116.48569,32.93388],[-116.4859,32.93454],[-116.48622,32.93506],[-116.48752,32.93666],[-116.49026,32.94125],[-116.49077,32.94191],[-116.49347,32.94434],[-116.49417,32.94482],[-116.49475,32.94499],[-116.49528,32.94503],[-116.49854,32.94468],[-116.49955,32.94489],[-116.49994,32.94512],[-116.50042,32.94561],[-116.50089,32.94696],[-116.50135,32.94755],[-116.50207,32.94794],[-116.50347,32.94816],[-116.50397,32.94834],[-116.50469,32.94893],[-116.50499,32.94964],[-116.50511,32.95086],[-116.50541,32.95154],[-116.506,32.95219],[-116.50711,32.95303],[-116.5077,32.95389],[-116.50872,32.95816],[-116.50891,32.95856],[-116.51004,32.96],[-116.51322,32.96693],[-116.51336,32.96754],[-116.51352,32.96964],[-116.51381,32.97042],[-116.51767,32.97484],[-116.51839,32.97532],[-116.51971,32.97551],[-116.52036,32.9757],[-116.52148,32.97664],[-116.52374,32.97755],[-116.52589,32.97918],[-116.52641,32.97937],[-116.52764,32.97963],[-116.52877,32.98042],[-116.53017,32.98076],[-116.53088,32.98116],[-116.53255,32.98378],[-116.53303,32.98471],[-116.53311,32.98516],[-116.53295,32.98773],[-116.53302,32.98886],[-116.53348,32.99019],[-116.53383,32.99079],[-116.53445,32.99152],[-116.53571,32.99252],[-116.53819,32.99389],[-116.53941,32.99415],[-116.54178,32.99418],[-116.54279,32.99433],[-116.54417,32.99479],[-116.5453,32.99548],[-116.55534,33.00435],[-116.55878,33.00934],[-116.55925,33.00991],[-116.56009,33.01049],[-116.56121,33.01092]]]}}
