{"type":"Feature","properties":{"id":"tesla-corral-hollow","name":"Tesla Road & Corral Hollow Road","difficulty":2,"character":"Medium speed"},"geometry":{"type":"MultiLineString","coordinates":[[[-121.74209,37.66522],[-121.6979,37.66501],[-121.69703,37.66504],[-121.69536,37.66528],[-121.68611,37.66525],[-121.68566,37.66505],[-121.68491,37.66445],[-121.68442,37.66429],[-121.67814,37.66305],[-121.67725,37.663],[-121.67527,37.66317],[-121.67441,37.66302],[-121.6737,37.66273],[-121.67309,37.66234],[-121.6725,37.66178],[-121.67,37.6593],[-121.6694,37.65855],[-121.66915,37.65789],[-121.66841,37.65356],[-121.6681,37.65295],[-121.66756,37.65249],[-121.66414,37.65082],[-121.66324,37.65051],[-121.66096,37.65045],[-121.65756,37.65059],[-121.65672,37.65053],[-121.65501,37.65024],[-121.6493,37.64687],[-121.64747,37.64555],[-121.6452,37.6433],[-121.64379,37.6429],[-121.64008,37.64142],[-121.63935,37.64136],[-121.63879,37.64145],[-121.63419,37.64294],[-121.6308,37.64442],[-121.62988,37.64516],[-121.6284,37.64568],[-121.62574,37.64593],[-121.62207,37.64662],[-121.61739,37.64908],[-121.61624,37.6495],[-121.61514,37.65009],[-121.61502,37.65025],[-121.61472,37.65146],[-121.61437,37.65173],[-121.61406,37.65174],[-121.61368,37.65152],[-121.61231,37.65002],[-121.6106,37.64921],[-121.61037,37.64877],[-121.61046,37.64827],[-121.61039,37.64807],[-121.61001,37.64779],[-121.6095,37.64765],[-121.60865,37.64785],[-121.60836,37.64807],[-121.60809,37.64945],[-121.60829,37.64987],[-121.60831,37.65023],[-121.60803,37.65062],[-121.60767,37.65074],[-121.60725,37.65075],[-121.60581,37.65053],[-121.60421,37.65093],[-121.60309,37.65092],[-121.60235,37.65067],[-121.60114,37.65044],[-121.60068,37.65017],[-121.60048,37.64979],[-121.60052,37.6495],[-121.60151,37.64907],[-121.6016,37.6489],[-121.60153,37.64872],[-121.60128,37.64861],[-121.60035,37.64852],[-121.59943,37.64853],[-121.59906,37.64832],[-121.59851,37.64735],[-121.59851,37.64709],[-121.5987,37.64665],[-121.59808,37.64531],[-121.59805,37.6447],[-121.59767,37.64441],[-121.59749,37.64394],[-121.5962,37.64308],[-121.59559,37.64203],[-121.59423,37.64104],[-121.59385,37.64052],[-121.59363,37.64039],[-121.59323,37.64041],[-121.59263,37.6406],[-121.59162,37.64149],[-121.59109,37.64161],[-121.5898,37.64134],[-121.58842,37.64041],[-121.58622,37.63971],[-121.58502,37.63913],[-121.58115,37.6384],[-121.57917,37.63825],[-121.57657,37.63767],[-121.57519,37.63757],[-121.57396,37.63768],[-121.57275,37.63798],[-121.57088,37.63868],[-121.56993,37.63875],[-121.56925,37.6386],[-121.56721,37.63786],[-121.56365,37.63696],[-121.55777,37.63622],[-121.55484,37.63536],[-121.55225,37.63519],[-121.54891,37.63518],[-121.54816,37.63511],[-121.54452,37.63424],[-121.53782,37.63187],[-121.53669,37.6314],[-121.53454,37.6303],[-121.53375,37.63001],[-121.52882,37.62893],[-121.5275,37.6288]]]}}
