{"type":"Feature","properties":{"id":"the-snake","name":"Mulholland Highway \u00b7 The Snake","difficulty":3,"character":"Technical"},"geometry":{"type":"MultiLineString","coordinates":[[[-118.75116,34.11309],[-118.75047,34.11321],[-118.74986,34.1132],[-118.74806,34.11254],[-118.74733,34.11205],[-118.74538,34.11015],[-118.74495,34.10994],[-118.74362,34.11003],[-118.74222,34.10955],[-118.74184,34.1095],[-118.74139,34.1096],[-118.74043,34.11009],[-118.73983,34.11005],[-118.73946,34.10983],[-118.73759,34.10786],[-118.73696,34.10748],[-118.73513,34.10701],[-118.73465,34.10705],[-118.73378,34.1074],[-118.73313,34.1073],[-118.73285,34.10708],[-118.73189,34.10543],[-118.73153,34.1052],[-118.73083,34.10528],[-118.72979,34.10608],[-118.7292,34.10614],[-118.72834,34.10544],[-118.7271,34.10532],[-118.72689,34.10521],[-118.72669,34.10496],[-118.72652,34.10423],[-118.72622,34.10399],[-118.72596,34.10393],[-118.7255,34.10405],[-118.72532,34.10428],[-118.72512,34.10494],[-118.7247,34.10516],[-118.72437,34.10514],[-118.72368,34.10477],[-118.72313,34.10467],[-118.72116,34.105],[-118.72067,34.10523],[-118.72049,34.10545],[-118.72039,34.1058],[-118.72119,34.10755],[-118.72126,34.1079],[-118.72095,34.10829],[-118.72053,34.10836],[-118.72013,34.10821],[-118.71969,34.10728],[-118.71806,34.10578],[-118.71753,34.10439],[-118.71724,34.10407],[-118.71684,34.10383],[-118.71628,34.10369],[-118.71327,34.10346],[-118.71233,34.10357],[-118.71139,34.10391]]]}}
