{"type":"Feature","properties":{"id":"tioga-pass","name":"Tioga Pass \u00b7 Hwy 120","difficulty":2,"character":"Technical"},"geometry":{"type":"MultiLineString","coordinates":[[[-119.25788,37.9109],[-119.25788,37.91212],[-119.25768,37.91318],[-119.2566,37.91637],[-119.25522,37.91857],[-119.25492,37.92066],[-119.25487,37.9214],[-119.25496,37.92188],[-119.25602,37.92403],[-119.25627,37.92478],[-119.25632,37.92539],[-119.25615,37.92624],[-119.2552,37.92821],[-119.25459,37.92888],[-119.25343,37.9295],[-119.25113,37.93019],[-119.2507,37.93048],[-119.25022,37.93108],[-119.24866,37.93387],[-119.24833,37.93466],[-119.24834,37.93501],[-119.24852,37.93547],[-119.24946,37.93677],[-119.24952,37.93721],[-119.2493,37.93776],[-119.24891,37.93811],[-119.2483,37.93832],[-119.24767,37.93832],[-119.24645,37.93812],[-119.24541,37.93823],[-119.24472,37.9385],[-119.24316,37.93968],[-119.24242,37.94004],[-119.24142,37.94026],[-119.24047,37.94024],[-119.23955,37.94002],[-119.23885,37.93969],[-119.23547,37.93689],[-119.23352,37.93584],[-119.23261,37.93563],[-119.23208,37.93571],[-119.23166,37.9359],[-119.23128,37.93626],[-119.23111,37.93664],[-119.23128,37.93815],[-119.23123,37.93856],[-119.23031,37.93973],[-119.23002,37.9411],[-119.22882,37.94237],[-119.22759,37.94411],[-119.22627,37.9456],[-119.22581,37.94751],[-119.22475,37.94896],[-119.22469,37.94936],[-119.22486,37.94985],[-119.22594,37.95082],[-119.22622,37.95139],[-119.22619,37.9518],[-119.22602,37.95212],[-119.22576,37.95239],[-119.2253,37.95263],[-119.22468,37.95273],[-119.22418,37.95266],[-119.22354,37.95234],[-119.22274,37.9517],[-119.22214,37.95144],[-119.21915,37.95079],[-119.21787,37.95027],[-119.21576,37.9498],[-119.21399,37.94953],[-119.21277,37.94949],[-119.21074,37.95014],[-119.20889,37.9502],[-119.20744,37.95045],[-119.20542,37.95011],[-119.20099,37.95008],[-119.19953,37.94989],[-119.19811,37.94957],[-119.19636,37.94903],[-119.1946,37.94832],[-119.19325,37.94814],[-119.19148,37.94777],[-119.19102,37.94778],[-119.19,37.94796],[-119.18932,37.94783],[-119.18894,37.94752],[-119.18842,37.94663],[-119.188,37.94623],[-119.18663,37.94529],[-119.18514,37.94474],[-119.18485,37.94453],[-119.18461,37.94413],[-119.18442,37.94333],[-119.18398,37.94269],[-119.18215,37.94139],[-119.18144,37.94071],[-119.17931,37.93794],[-119.17745,37.93361],[-119.17669,37.93261],[-119.17587,37.93205],[-119.17493,37.93166],[-119.17067,37.93059],[-119.16931,37.9304],[-119.16814,37.93047],[-119.16482,37.93112],[-119.16094,37.93103],[-119.1598,37.93124],[-119.15093,37.93394],[-119.1466,37.93598],[-119.13548,37.93985],[-119.13414,37.94023],[-119.13101,37.9407],[-119.12995,37.94076],[-119.12634,37.94046],[-119.1236,37.93977],[-119.12284,37.93966],[-119.12189,37.93968],[-119.12076,37.93995],[-119.11959,37.9406],[-119.1188,37.94154],[-119.11854,37.94221],[-119.11812,37.94426],[-119.11758,37.94517],[-119.117,37.94571],[-119.11462,37.94734],[-119.11404,37.94792],[-119.11356,37.94883],[-119.1131,37.95042]],[[-119.09131,37.8869],[-119.09011,37.88703]]]}}
