{"type":"Feature","properties":{"id":"topanga-canyon","name":"Topanga Canyon Boulevard \u00b7 SR 27","difficulty":2,"character":"Medium speed"},"geometry":{"type":"MultiLineString","coordinates":[[[-118.5793,34.04011],[-118.57928,34.04048],[-118.57869,34.04134],[-118.57865,34.04179],[-118.57876,34.04232],[-118.57969,34.04426],[-118.57966,34.04489],[-118.57947,34.04519],[-118.57919,34.04541],[-118.57759,34.04601],[-118.57717,34.04636],[-118.57703,34.04676],[-118.57722,34.047],[-118.5786,34.04765],[-118.57995,34.04804],[-118.58034,34.04841],[-118.58039,34.04887],[-118.58007,34.04959],[-118.58011,34.04993],[-118.58028,34.05017],[-118.5812,34.05068],[-118.58167,34.05156],[-118.58172,34.05226],[-118.5815,34.05376],[-118.58156,34.05504],[-118.58183,34.0554],[-118.58266,34.056],[-118.58343,34.05713],[-118.584,34.05855],[-118.58435,34.0603],[-118.58493,34.06153],[-118.58508,34.06246],[-118.5853,34.06273],[-118.58559,34.06289],[-118.58652,34.06313],[-118.5869,34.06351],[-118.58704,34.06436],[-118.58675,34.06549],[-118.58689,34.06699],[-118.58727,34.06836],[-118.58719,34.06884],[-118.58741,34.06945],[-118.58742,34.07001],[-118.58788,34.07067],[-118.58752,34.0719],[-118.58767,34.07219],[-118.5881,34.07246],[-118.58833,34.07275],[-118.58846,34.07419],[-118.58942,34.07482],[-118.59038,34.07474],[-118.59079,34.07484],[-118.59103,34.07509],[-118.5911,34.07577],[-118.59176,34.07649],[-118.59294,34.07716],[-118.59356,34.0779],[-118.59472,34.07834],[-118.59512,34.0786],[-118.59545,34.07908],[-118.59568,34.08024],[-118.596,34.08073],[-118.59808,34.08186],[-118.59875,34.08236],[-118.59894,34.08282],[-118.59891,34.08354],[-118.59906,34.08372],[-118.59966,34.08405],[-118.60012,34.08462],[-118.60002,34.08532],[-118.60125,34.08815],[-118.60177,34.08844],[-118.60393,34.08914],[-118.60422,34.08933],[-118.60438,34.08964],[-118.60424,34.08996],[-118.60373,34.09033],[-118.60322,34.09041],[-118.60242,34.09025],[-118.60212,34.09036],[-118.60198,34.09051],[-118.60181,34.09125],[-118.60168,34.09286],[-118.60235,34.09368],[-118.60237,34.09409],[-118.60156,34.0949],[-118.60111,34.09562],[-118.60096,34.09598],[-118.60094,34.09663],[-118.60084,34.09689],[-118.60001,34.09759],[-118.59915,34.09878],[-118.59828,34.09965],[-118.5979,34.10037],[-118.59639,34.10142],[-118.59598,34.10146],[-118.5953,34.10103],[-118.59485,34.10099],[-118.59413,34.10123],[-118.59279,34.10139],[-118.59187,34.10182],[-118.59147,34.10218],[-118.59153,34.10265],[-118.59252,34.10337],[-118.59273,34.10388],[-118.59268,34.10405],[-118.59219,34.1046],[-118.59178,34.10551],[-118.59176,34.10632],[-118.59143,34.10743],[-118.59152,34.10781],[-118.59193,34.10813],[-118.59215,34.10851],[-118.59217,34.10911],[-118.59202,34.10991],[-118.59215,34.11064],[-118.59206,34.11106],[-118.59174,34.11167],[-118.5907,34.11271],[-118.59053,34.11308],[-118.59065,34.11342],[-118.59156,34.11404],[-118.59189,34.11451],[-118.59224,34.11785],[-118.59188,34.11882],[-118.59201,34.11961],[-118.59058,34.12233],[-118.59044,34.12276],[-118.59067,34.12316],[-118.59102,34.1233],[-118.59132,34.12327],[-118.59161,34.12307],[-118.5923,34.12184],[-118.59271,34.12141],[-118.59358,34.1211],[-118.59413,34.12105],[-118.59447,34.12111],[-118.59489,34.1213],[-118.5952,34.12159],[-118.59559,34.12264],[-118.59581,34.12292],[-118.59615,34.12313],[-118.59885,34.12416],[-118.60045,34.12587],[-118.60049,34.12631],[-118.60024,34.12671],[-118.59986,34.12691],[-118.59872,34.127],[-118.59843,34.12724],[-118.59834,34.12749],[-118.59843,34.12781],[-118.59862,34.12795],[-118.59893,34.12805],[-118.60009,34.1281],[-118.60037,34.1283],[-118.60053,34.12864],[-118.6003,34.12913],[-118.59955,34.12974],[-118.59932,34.13008],[-118.59959,34.13144],[-118.59883,34.13361],[-118.59876,34.13406],[-118.59904,34.13654],[-118.59938,34.13704],[-118.60032,34.13789],[-118.60125,34.13913],[-118.60167,34.13935],[-118.60228,34.13947],[-118.60253,34.13967],[-118.60273,34.14047],[-118.60351,34.1417],[-118.60392,34.14175],[-118.60418,34.14161],[-118.60429,34.14139],[-118.6043,34.14085],[-118.60445,34.14069],[-118.60475,34.14064],[-118.60777,34.14141],[-118.60803,34.14154],[-118.60816,34.14173],[-118.60803,34.14206],[-118.6077,34.14214],[-118.60678,34.14159],[-118.60646,34.14154],[-118.60555,34.14164],[-118.60538,34.14177],[-118.60529,34.14202],[-118.60549,34.14261],[-118.60581,34.14307],[-118.6058,34.14336],[-118.60556,34.14365],[-118.60473,34.14385],[-118.60445,34.14409],[-118.6045,34.14445],[-118.60488,34.14463],[-118.60727,34.14405],[-118.60769,34.14427],[-118.60789,34.14488],[-118.60786,34.14517],[-118.60766,34.14542],[-118.60604,34.1457],[-118.60579,34.14584],[-118.60555,34.14615],[-118.60543,34.14666],[-118.60543,34.14789],[-118.60481,34.15062],[-118.60476,34.15118]]]}}
