{"type":"Feature","properties":{"id":"trail-ridge-road","name":"Trail Ridge Road \u00b7 US 34","difficulty":2,"character":"Medium speed"},"geometry":{"type":"MultiLineString","coordinates":[[[-105.52237,40.38031],[-105.523,40.38039],[-105.52494,40.38021],[-105.52746,40.38015],[-105.53005,40.38029],[-105.53189,40.38049],[-105.5337,40.38089],[-105.54082,40.38324],[-105.54623,40.38416],[-105.54762,40.38414],[-105.54891,40.38392],[-105.55294,40.38239],[-105.55344,40.38235],[-105.55418,40.38247],[-105.55493,40.38287],[-105.55599,40.38372],[-105.5565,40.38428],[-105.55666,40.38494],[-105.55637,40.38634],[-105.55662,40.38711],[-105.55688,40.38745],[-105.55784,40.38807],[-105.55988,40.38875],[-105.56094,40.38949],[-105.56252,40.39169],[-105.56264,40.39295],[-105.56277,40.39336],[-105.56307,40.39372],[-105.56398,40.39446],[-105.56483,40.39609],[-105.56534,40.39653],[-105.5676,40.3978],[-105.56905,40.39856],[-105.57064,40.39909],[-105.57178,40.39926],[-105.57407,40.39938],[-105.57459,40.39948],[-105.57757,40.40066],[-105.58258,40.40145],[-105.58669,40.40244],[-105.5895,40.40335],[-105.59516,40.40549],[-105.59667,40.40588],[-105.59786,40.40605],[-105.5993,40.40607],[-105.59955,40.40599],[-105.59976,40.40574],[-105.59981,40.40549],[-105.59968,40.40522],[-105.59847,40.40421],[-105.59841,40.4039],[-105.59866,40.40351],[-105.60104,40.4024],[-105.60197,40.40211],[-105.60325,40.40189],[-105.60664,40.40191],[-105.60778,40.40205],[-105.61014,40.40278],[-105.61224,40.4031],[-105.61961,40.40495],[-105.62039,40.40523],[-105.62187,40.4061],[-105.62272,40.4063],[-105.62352,40.40624],[-105.62426,40.40592],[-105.62718,40.40335],[-105.62747,40.4027],[-105.62748,40.40214],[-105.62663,40.40046],[-105.62654,40.39896],[-105.62623,40.3984],[-105.62396,40.39657],[-105.62327,40.39624],[-105.62267,40.39609],[-105.62205,40.39606],[-105.62025,40.39633],[-105.61937,40.3963],[-105.61746,40.39563],[-105.61641,40.39508],[-105.616,40.39472],[-105.61514,40.39368],[-105.61386,40.39267],[-105.61349,40.39225],[-105.613,40.39082],[-105.61218,40.38994],[-105.61156,40.38901],[-105.61131,40.38818],[-105.61091,40.38759],[-105.61088,40.38714],[-105.61266,40.3872],[-105.61331,40.38734],[-105.61581,40.38817],[-105.61732,40.3888],[-105.61841,40.38908],[-105.61886,40.38936],[-105.62056,40.39083],[-105.62384,40.39263],[-105.62535,40.39284],[-105.62746,40.39375],[-105.63084,40.3945],[-105.63202,40.39509],[-105.63346,40.39616],[-105.63398,40.39644],[-105.63457,40.39657],[-105.63665,40.39673],[-105.63732,40.39689],[-105.63831,40.3974],[-105.63867,40.39774],[-105.63907,40.39834],[-105.63933,40.3985],[-105.64343,40.39965],[-105.64431,40.39975],[-105.64539,40.39946],[-105.64709,40.39853],[-105.64882,40.39774],[-105.65046,40.39722],[-105.65058,40.39701],[-105.65047,40.39681],[-105.65007,40.39675],[-105.64762,40.39711],[-105.64712,40.39729],[-105.64585,40.3981],[-105.64488,40.3985],[-105.6443,40.39859],[-105.64368,40.39842],[-105.64222,40.39752],[-105.64086,40.39696],[-105.64,40.39588],[-105.63823,40.39449],[-105.63652,40.39351],[-105.63535,40.3933],[-105.63441,40.39263],[-105.63373,40.39176],[-105.63322,40.38965],[-105.6329,40.38883],[-105.63248,40.38836],[-105.63147,40.3881],[-105.63123,40.38792],[-105.63114,40.3876],[-105.63139,40.38724],[-105.63165,40.38713],[-105.63209,40.38713],[-105.63251,40.3873],[-105.63276,40.38751],[-105.63383,40.38912],[-105.63453,40.39142],[-105.6349,40.39185],[-105.63543,40.39204],[-105.63639,40.39211],[-105.63796,40.39254],[-105.63866,40.39282],[-105.64048,40.39385],[-105.642,40.3945],[-105.64277,40.39474],[-105.64337,40.39477],[-105.64549,40.39424],[-105.64664,40.39354],[-105.64811,40.39293],[-105.64846,40.39247],[-105.64874,40.39157],[-105.64927,40.39111],[-105.65017,40.39064],[-105.65147,40.39035],[-105.65182,40.39018],[-105.65296,40.38873],[-105.65355,40.38757],[-105.6539,40.38721],[-105.65433,40.38695],[-105.65672,40.38624],[-105.65792,40.38635],[-105.6591,40.38682],[-105.65955,40.38683],[-105.65987,40.38668],[-105.66033,40.38617],[-105.66077,40.38595],[-105.66185,40.38555],[-105.6633,40.38541],[-105.66408,40.38548],[-105.66503,40.38576],[-105.66586,40.38574],[-105.66696,40.38589],[-105.66746,40.38613],[-105.66818,40.38699],[-105.66849,40.38719],[-105.67009,40.38745],[-105.67363,40.38845],[-105.67437,40.38876],[-105.67482,40.389],[-105.67513,40.38931],[-105.67528,40.38979],[-105.67514,40.3902],[-105.67406,40.3917],[-105.67301,40.39241],[-105.67153,40.39307],[-105.67124,40.39338],[-105.6712,40.39373],[-105.67183,40.39489],[-105.67194,40.3955],[-105.67186,40.39614],[-105.67136,40.39691],[-105.66947,40.39831],[-105.66684,40.39917],[-105.66568,40.39935],[-105.66488,40.39993],[-105.6641,40.40021],[-105.66385,40.40047],[-105.66381,40.40094],[-105.66415,40.40129],[-105.66556,40.40194],[-105.66663,40.40223],[-105.66741,40.40224],[-105.6683,40.40214],[-105.66988,40.40163],[-105.67056,40.40117],[-105.67196,40.39976],[-105.67262,40.39873],[-105.67333,40.39824],[-105.67456,40.39771],[-105.67584,40.39739],[-105.6789,40.39635],[-105.68103,40.39508],[-105.6839,40.39396],[-105.68562,40.39295],[-105.68625,40.39272],[-105.68967,40.39255],[-105.691,40.39258],[-105.69187,40.39278],[-105.69345,40.39336],[-105.69605,40.39348],[-105.69878,40.39442],[-105.6992,40.39449],[-105.7001,40.39441],[-105.70122,40.39409],[-105.70267,40.39404],[-105.70702,40.39317],[-105.70785,40.39315],[-105.7084,40.39325],[-105.70935,40.39366],[-105.71053,40.39448],[-105.71105,40.39497],[-105.71115,40.39519],[-105.71045,40.39897],[-105.70982,40.4011],[-105.70987,40.40176],[-105.71026,40.40333],[-105.71063,40.4037],[-105.71103,40.40392],[-105.71351,40.40453],[-105.71422,40.40479],[-105.7148,40.40515],[-105.71629,40.40657],[-105.71771,40.40922],[-105.7182,40.40973],[-105.71877,40.41002],[-105.7194,40.41014],[-105.72138,40.41006],[-105.72187,40.41012],[-105.72227,40.41035],[-105.72327,40.41143],[-105.72395,40.41172],[-105.72477,40.41186],[-105.72577,40.41183],[-105.72817,40.41107],[-105.72918,40.41102],[-105.73075,40.4107],[-105.73221,40.41123],[-105.73373,40.41269],[-105.73426,40.413],[-105.73476,40.41313],[-105.73531,40.41314],[-105.73674,40.41291],[-105.73735,40.4129],[-105.73885,40.41325],[-105.73914,40.41316],[-105.74016,40.41247],[-105.74069,40.4123],[-105.74272,40.41214],[-105.74342,40.41231],[-105.7446,40.41312],[-105.745,40.41357],[-105.74498,40.41604],[-105.7453,40.41678],[-105.7457,40.41714],[-105.74823,40.41864],[-105.74888,40.41935],[-105.74907,40.42001],[-105.7491,40.42192],[-105.74882,40.4228],[-105.74889,40.42306],[-105.74909,40.42314],[-105.74937,40.42307],[-105.75002,40.42247],[-105.75192,40.42145],[-105.75255,40.42098],[-105.75294,40.421],[-105.75305,40.42128],[-105.75236,40.42205],[-105.75214,40.42268],[-105.75223,40.42334],[-105.75265,40.42404],[-105.75296,40.42435],[-105.75339,40.42456],[-105.75378,40.42462],[-105.7554,40.42459],[-105.75576,40.42472],[-105.75644,40.42518],[-105.75708,40.42585],[-105.75775,40.42685],[-105.7597,40.42844],[-105.76009,40.42918],[-105.76029,40.43026],[-105.76062,40.4307],[-105.76238,40.43182],[-105.76353,40.43231],[-105.76477,40.43247],[-105.76716,40.43247],[-105.76791,40.43259],[-105.76824,40.4328],[-105.7684,40.43316],[-105.76816,40.43388],[-105.76781,40.4345],[-105.76725,40.43501],[-105.76641,40.43542],[-105.76237,40.43683],[-105.76052,40.4379],[-105.75893,40.43928],[-105.75643,40.44033],[-105.75584,40.44073],[-105.75564,40.44111],[-105.75565,40.44143],[-105.7561,40.4421],[-105.75629,40.4426],[-105.75641,40.44327],[-105.75635,40.44376],[-105.75555,40.44488],[-105.75507,40.44577],[-105.75408,40.44681],[-105.75405,40.44696],[-105.75426,40.44714],[-105.75449,40.44712],[-105.75463,40.44701],[-105.75478,40.44656],[-105.755,40.44633],[-105.75807,40.44423],[-105.75854,40.44374],[-105.75945,40.44232],[-105.76003,40.44193],[-105.76187,40.44101],[-105.76429,40.44026],[-105.76603,40.43985],[-105.77008,40.43952],[-105.77182,40.43953],[-105.77358,40.43891],[-105.77584,40.43903],[-105.77724,40.43893],[-105.77952,40.43811],[-105.78166,40.43771],[-105.78364,40.43723],[-105.78487,40.43713],[-105.78588,40.4369],[-105.78658,40.43663],[-105.78806,40.43569],[-105.78838,40.43527],[-105.78873,40.43438],[-105.78905,40.43397],[-105.7894,40.43386],[-105.79051,40.43386],[-105.7912,40.43371],[-105.79262,40.433],[-105.79417,40.43249],[-105.79554,40.43162],[-105.79696,40.43094],[-105.79721,40.43074],[-105.79856,40.42875],[-105.79906,40.42841],[-105.80001,40.42815],[-105.80207,40.42809],[-105.80258,40.42786],[-105.8029,40.42744],[-105.803,40.42664],[-105.80334,40.42628],[-105.80408,40.42584],[-105.8082,40.42413],[-105.80914,40.42359],[-105.81022,40.4226],[-105.81136,40.42071],[-105.8118,40.42023],[-105.81586,40.41753],[-105.81638,40.41635],[-105.8179,40.41514],[-105.8182,40.41461],[-105.81814,40.41429],[-105.8177,40.41372],[-105.8175,40.41328],[-105.8169,40.41276],[-105.81689,40.41233],[-105.81715,40.41209],[-105.81848,40.41182],[-105.81905,40.41154],[-105.81957,40.41099],[-105.8201,40.40999],[-105.82094,40.40939],[-105.82096,40.40813],[-105.82078,40.40712],[-105.82096,40.40671],[-105.82125,40.40647],[-105.82279,40.40576],[-105.82399,40.40437],[-105.82492,40.4038],[-105.82559,40.40251],[-105.82724,40.40076],[-105.82769,40.40048],[-105.82942,40.39978],[-105.83108,40.39889],[-105.8321,40.39871],[-105.8332,40.39868],[-105.83482,40.39926],[-105.83511,40.39952],[-105.83511,40.39989],[-105.83469,40.40102],[-105.83513,40.40222],[-105.83517,40.4028],[-105.83494,40.40334],[-105.83401,40.40411],[-105.83391,40.40446],[-105.83417,40.4048],[-105.83484,40.40526],[-105.83575,40.40525],[-105.83621,40.40539],[-105.83735,40.40684],[-105.83752,40.40718],[-105.83749,40.40931],[-105.83758,40.40961],[-105.83778,40.40981],[-105.83895,40.41057],[-105.83934,40.41052],[-105.83944,40.41033],[-105.83921,40.41007],[-105.83877,40.41011],[-105.83846,40.40998],[-105.83806,40.40959],[-105.83797,40.40933],[-105.83846,40.40813],[-105.83839,40.40749],[-105.83867,40.40659],[-105.83853,40.40561],[-105.83882,40.4054],[-105.83921,40.40541],[-105.83948,40.40569],[-105.83908,40.40728],[-105.83929,40.40781],[-105.83956,40.40795],[-105.83986,40.40796],[-105.84056,40.40768],[-105.84116,40.40763],[-105.84173,40.4078],[-105.84308,40.40914],[-105.84359,40.41011],[-105.84374,40.41095],[-105.84388,40.41108],[-105.84427,40.41108],[-105.84442,40.41079],[-105.84381,40.40981],[-105.84322,40.40848],[-105.84351,40.40818],[-105.84379,40.40815],[-105.84409,40.40826],[-105.84426,40.40859],[-105.84412,40.40902],[-105.84418,40.40931],[-105.84498,40.41011],[-105.84551,40.41129],[-105.84501,40.41349],[-105.8452,40.41369],[-105.84594,40.41393],[-105.84638,40.4147],[-105.84659,40.41556],[-105.84745,40.41626],[-105.84785,40.41688],[-105.84822,40.41691],[-105.84836,40.41681],[-105.84837,40.41659],[-105.84748,40.41591],[-105.84702,40.41492],[-105.84691,40.41347],[-105.84702,40.41256],[-105.8478,40.41137],[-105.848,40.4106],[-105.84746,40.40943],[-105.8475,40.40834],[-105.84713,40.40732],[-105.84725,40.40662],[-105.84783,40.40581],[-105.84805,40.4053],[-105.84759,40.40352],[-105.84787,40.40268],[-105.84797,40.402],[-105.84813,40.39945],[-105.84762,40.39845],[-105.84503,40.39566],[-105.84473,40.39504],[-105.84468,40.39457],[-105.84489,40.39386],[-105.84733,40.38989],[-105.84744,40.38916],[-105.8473,40.38747],[-105.84772,40.38503],[-105.84808,40.38413],[-105.8494,40.38227],[-105.84964,40.38138],[-105.84965,40.38044],[-105.84981,40.37984],[-105.85022,40.3791],[-105.85203,40.37701],[-105.85291,40.37569],[-105.85318,40.37508],[-105.85397,40.37223],[-105.85365,40.37015],[-105.85371,40.36964],[-105.85432,40.36784],[-105.85438,40.36522],[-105.85561,40.36112],[-105.85551,40.35932],[-105.85566,40.35855],[-105.85763,40.35216],[-105.85739,40.34796],[-105.85789,40.34629],[-105.85798,40.3439],[-105.85775,40.34318],[-105.85676,40.34187],[-105.85672,40.34138],[-105.85742,40.33959],[-105.85755,40.33854],[-105.85732,40.33794],[-105.85554,40.33505],[-105.85496,40.33365],[-105.85481,40.33274],[-105.85475,40.33088],[-105.85451,40.33021],[-105.85394,40.32941],[-105.85372,40.3289],[-105.85392,40.32731],[-105.85261,40.32383],[-105.85253,40.32314],[-105.85269,40.32173],[-105.85263,40.32126],[-105.85223,40.32079],[-105.85169,40.32041],[-105.84693,40.31903],[-105.84577,40.31838],[-105.84522,40.31787],[-105.84353,40.31537],[-105.84319,40.31454],[-105.84192,40.30903],[-105.84165,40.30729],[-105.84179,40.30666],[-105.84258,40.30538],[-105.84266,40.30355],[-105.8432,40.30043],[-105.84278,40.29886],[-105.84271,40.29809],[-105.84282,40.28883],[-105.8427,40.28794],[-105.84218,40.28638],[-105.84177,40.28565],[-105.84107,40.28473],[-105.84003,40.28375],[-105.83735,40.28177],[-105.83662,40.28079],[-105.83642,40.28031],[-105.83627,40.27943],[-105.83612,40.27654],[-105.83489,40.27223],[-105.83404,40.26777],[-105.83118,40.26222],[-105.83094,40.26155],[-105.83093,40.2612],[-105.83116,40.26061],[-105.83156,40.26016],[-105.83204,40.25987],[-105.83315,40.25955],[-105.83699,40.25872],[-105.83776,40.25839],[-105.83817,40.25787],[-105.83824,40.25702],[-105.83785,40.25636],[-105.83743,40.25605],[-105.8359,40.25537],[-105.83528,40.25472],[-105.83504,40.25401],[-105.83492,40.25262],[-105.83497,40.25199]]]}}
