{"type":"Feature","properties":{"id":"tuna-canyon","name":"Tuna Canyon Road","difficulty":3,"character":"Technical"},"geometry":{"type":"MultiLineString","coordinates":[[[-118.6111,34.06814],[-118.61152,34.06813],[-118.61213,34.06843],[-118.61247,34.06842],[-118.613,34.06806],[-118.61353,34.06793],[-118.61372,34.06763],[-118.61412,34.0676],[-118.61428,34.06732],[-118.61467,34.06724],[-118.61481,34.06689],[-118.61504,34.06677],[-118.61565,34.06693],[-118.61614,34.06667],[-118.61637,34.06682],[-118.61661,34.06724],[-118.61683,34.0673],[-118.61708,34.06713],[-118.6173,34.06684],[-118.61723,34.06651],[-118.61737,34.06625],[-118.61691,34.06556],[-118.61653,34.06447],[-118.61692,34.06409],[-118.61694,34.06363],[-118.61705,34.06339],[-118.61749,34.06303],[-118.61763,34.0628],[-118.61746,34.06244],[-118.61767,34.06199],[-118.61747,34.06132],[-118.61761,34.06078],[-118.61757,34.06052],[-118.61688,34.05982],[-118.61642,34.05964],[-118.61563,34.05988],[-118.61494,34.05987],[-118.61408,34.06035],[-118.61378,34.06039],[-118.61279,34.06042],[-118.61218,34.06054],[-118.61171,34.06036],[-118.61142,34.06047],[-118.61032,34.0606],[-118.60994,34.06077],[-118.60944,34.06063],[-118.60886,34.06073],[-118.60851,34.06062],[-118.60812,34.06077],[-118.60653,34.06025],[-118.60582,34.06036],[-118.60521,34.05984],[-118.60476,34.06001],[-118.60462,34.05987],[-118.60448,34.05926],[-118.60432,34.05908],[-118.60367,34.05897],[-118.60289,34.05898],[-118.60216,34.0591],[-118.60165,34.05839],[-118.60167,34.05805],[-118.60091,34.05726],[-118.601,34.05711],[-118.60119,34.05705],[-118.60193,34.05697],[-118.60218,34.05684],[-118.60224,34.05666],[-118.60217,34.05661],[-118.60176,34.05667],[-118.60064,34.0564],[-118.60054,34.05628],[-118.60043,34.05557],[-118.60013,34.05522],[-118.59972,34.05496],[-118.59926,34.05486],[-118.59915,34.05429],[-118.59896,34.0541],[-118.59847,34.05388],[-118.59851,34.0535],[-118.59772,34.05305],[-118.59749,34.05278],[-118.59722,34.05264],[-118.59715,34.05243],[-118.59761,34.05181],[-118.59742,34.05167],[-118.59675,34.05162],[-118.59702,34.05097],[-118.59683,34.05052],[-118.59697,34.05017],[-118.59693,34.04996],[-118.5962,34.04984],[-118.59608,34.04955],[-118.59524,34.04894],[-118.59424,34.04775],[-118.594,34.04693],[-118.59249,34.04639],[-118.59189,34.04632],[-118.59162,34.04644],[-118.59128,34.0464],[-118.59078,34.04584],[-118.59016,34.04579],[-118.5898,34.04563],[-118.58956,34.04567],[-118.5895,34.0458],[-118.58988,34.046],[-118.59047,34.04651],[-118.5904,34.04672],[-118.58989,34.04653],[-118.58892,34.04634],[-118.58854,34.04596],[-118.58832,34.04555],[-118.58876,34.04479],[-118.58899,34.04409],[-118.58952,34.04377],[-118.5899,34.04368],[-118.59002,34.04349],[-118.58966,34.04283],[-118.58963,34.04234],[-118.58928,34.04137],[-118.58887,34.04106],[-118.58885,34.04094],[-118.58897,34.04023],[-118.58947,34.03946]]]}}
