{"type":"Feature","properties":{"id":"tunitas","name":"Tunitas Creek Road","difficulty":3,"character":"Technical"},"geometry":{"type":"MultiLineString","coordinates":[[[-122.39764,37.35881],[-122.3945,37.35931],[-122.39295,37.35994],[-122.39257,37.3602],[-122.39148,37.36136],[-122.38935,37.36465],[-122.3881,37.36532],[-122.38496,37.36857],[-122.38233,37.37027],[-122.38075,37.37238],[-122.37872,37.37401],[-122.37778,37.37488],[-122.37713,37.37529],[-122.37581,37.37558],[-122.37454,37.37658],[-122.37441,37.37696],[-122.37446,37.37814],[-122.3749,37.37913],[-122.37463,37.3794],[-122.37457,37.37963],[-122.37463,37.38067],[-122.37365,37.38219],[-122.37347,37.38327],[-122.37322,37.38365],[-122.37308,37.38421],[-122.37307,37.3849],[-122.37264,37.38585],[-122.37256,37.38642],[-122.37217,37.38695],[-122.37209,37.38769],[-122.37174,37.38801],[-122.3717,37.38854],[-122.3712,37.38936],[-122.37097,37.3896],[-122.36975,37.39013],[-122.3695,37.3908],[-122.36912,37.39108],[-122.36876,37.39118],[-122.36817,37.39118],[-122.36789,37.39132],[-122.36789,37.39173],[-122.36762,37.39228],[-122.36716,37.39268],[-122.36713,37.39307],[-122.3673,37.39337],[-122.36702,37.39417],[-122.36669,37.3946],[-122.3663,37.39484],[-122.3662,37.39537],[-122.36603,37.39548],[-122.36533,37.39561],[-122.36505,37.39581],[-122.36508,37.39632],[-122.3649,37.39661],[-122.36503,37.39692],[-122.36496,37.39716],[-122.36446,37.39753],[-122.36397,37.39821],[-122.36371,37.39876],[-122.36326,37.39916],[-122.36252,37.40024],[-122.36219,37.40048],[-122.36171,37.40066],[-122.361,37.40127],[-122.3606,37.40232],[-122.36029,37.40268],[-122.35966,37.40311],[-122.35934,37.40365],[-122.35827,37.40433],[-122.35802,37.40476],[-122.35712,37.40495],[-122.35641,37.40496],[-122.35559,37.40518],[-122.3546,37.40593],[-122.3542,37.40607],[-122.35323,37.40615],[-122.35255,37.407],[-122.35183,37.40759],[-122.35121,37.40789],[-122.35093,37.40814],[-122.35075,37.40871],[-122.35102,37.40935],[-122.35069,37.41139],[-122.35115,37.41296],[-122.35161,37.41326],[-122.35155,37.41337],[-122.35108,37.41355],[-122.35097,37.41405],[-122.35116,37.41448],[-122.35064,37.41481],[-122.35178,37.416],[-122.35277,37.41668],[-122.35282,37.41681],[-122.35273,37.41687],[-122.3515,37.41671],[-122.35074,37.41641],[-122.35058,37.41643],[-122.35049,37.41765],[-122.35071,37.41796],[-122.35121,37.41811],[-122.35167,37.41892],[-122.3515,37.41904],[-122.35115,37.41897],[-122.35092,37.41901],[-122.35077,37.41932],[-122.35084,37.41969],[-122.3506,37.41998],[-122.3502,37.42001],[-122.34987,37.41956],[-122.34946,37.41951],[-122.34903,37.41915],[-122.34882,37.41909],[-122.34829,37.41927],[-122.34822,37.41985],[-122.34811,37.42],[-122.34757,37.42016],[-122.34705,37.41996],[-122.3467,37.42023],[-122.34671,37.42085],[-122.347,37.42164],[-122.34735,37.42178],[-122.34835,37.42167],[-122.34891,37.42193],[-122.34846,37.42245],[-122.34806,37.42342],[-122.34785,37.42351],[-122.34685,37.42358],[-122.34639,37.42382],[-122.34614,37.42377],[-122.34511,37.42329],[-122.34448,37.42323],[-122.34384,37.42224],[-122.34357,37.42206],[-122.34334,37.42217],[-122.343,37.42276],[-122.34234,37.42306],[-122.34182,37.42304],[-122.34132,37.42268],[-122.34109,37.42262],[-122.34065,37.42281],[-122.33996,37.4227],[-122.33925,37.42286],[-122.33875,37.42283],[-122.3385,37.42273],[-122.33769,37.42199],[-122.33674,37.42187],[-122.33557,37.42143],[-122.33496,37.42105],[-122.33325,37.42105],[-122.33246,37.42075],[-122.33209,37.42099],[-122.33188,37.42099],[-122.3317,37.42055],[-122.33154,37.42043],[-122.33106,37.42044],[-122.33019,37.42005],[-122.33003,37.42018],[-122.33008,37.42091],[-122.32997,37.42109],[-122.32895,37.42116],[-122.3283,37.42147],[-122.32835,37.42177],[-122.32874,37.42213],[-122.32896,37.42252],[-122.32903,37.42269],[-122.32894,37.42286],[-122.32869,37.4229],[-122.32829,37.42278],[-122.32761,37.42237],[-122.32724,37.42198],[-122.32682,37.42171],[-122.32636,37.42151],[-122.32596,37.42149],[-122.32567,37.42191],[-122.32559,37.42254],[-122.32535,37.42306],[-122.32534,37.42352],[-122.32521,37.42359],[-122.32459,37.42321],[-122.32409,37.4226],[-122.32349,37.42223],[-122.32321,37.4215],[-122.32223,37.42149],[-122.32183,37.42126],[-122.32157,37.42027],[-122.32103,37.41995],[-122.32038,37.42005],[-122.32026,37.42018],[-122.32043,37.42074],[-122.32009,37.4212],[-122.3201,37.42142],[-122.32034,37.42197],[-122.32039,37.42257],[-122.32072,37.42303],[-122.32079,37.42381],[-122.3206,37.42415],[-122.32014,37.42437]]]}}
