{"type":"Feature","properties":{"id":"umunhum","name":"Mount Umunhum Road","difficulty":3,"character":"Low speed"},"geometry":{"type":"MultiLineString","coordinates":[[[-121.89814,37.16041],[-121.89815,37.16051],[-121.89802,37.16043],[-121.89851,37.16012],[-121.89895,37.16001],[-121.89946,37.1595],[-121.90007,37.1597],[-121.9003,37.15969],[-121.90097,37.15926],[-121.90381,37.15881],[-121.904,37.15865],[-121.90402,37.15847],[-121.90349,37.15811],[-121.90264,37.15823],[-121.90171,37.15805],[-121.90167,37.1579],[-121.9019,37.15752],[-121.90113,37.15714],[-121.90093,37.15605],[-121.90039,37.15578],[-121.89954,37.15509],[-121.89925,37.15465],[-121.89888,37.15311],[-121.89896,37.15222],[-121.89915,37.1519],[-121.89916,37.15149],[-121.89786,37.15088],[-121.89719,37.15095],[-121.89655,37.15083],[-121.89607,37.15039],[-121.89589,37.14923],[-121.89638,37.14833],[-121.89672,37.148],[-121.89685,37.14738],[-121.89671,37.14728],[-121.89602,37.14716],[-121.89576,37.14678],[-121.89524,37.14633],[-121.89506,37.14623],[-121.89472,37.14625],[-121.89422,37.14666],[-121.89411,37.14694],[-121.89485,37.14763],[-121.895,37.14815],[-121.89499,37.14858],[-121.89517,37.14893],[-121.89516,37.14953],[-121.89481,37.14985],[-121.89441,37.15048],[-121.89463,37.15107],[-121.89356,37.15178],[-121.89378,37.15276],[-121.8936,37.15341],[-121.89323,37.15407],[-121.8932,37.15464],[-121.89287,37.15465],[-121.89267,37.15431],[-121.89265,37.15378],[-121.89296,37.15318],[-121.89285,37.15303],[-121.89258,37.15303],[-121.89242,37.15311],[-121.89208,37.15368],[-121.89207,37.15462],[-121.89186,37.15515],[-121.89147,37.1557],[-121.89109,37.15578],[-121.89089,37.15571],[-121.88982,37.15513],[-121.88954,37.15515],[-121.88933,37.15545],[-121.88904,37.15561],[-121.88878,37.15563],[-121.88845,37.1554],[-121.88805,37.15487],[-121.88732,37.15458],[-121.88663,37.1549],[-121.88592,37.15493],[-121.885,37.1558],[-121.88403,37.15609],[-121.88227,37.15633],[-121.88103,37.15717],[-121.87978,37.15741],[-121.87951,37.15769],[-121.87871,37.15805],[-121.87823,37.15846],[-121.87743,37.1587],[-121.87716,37.15894],[-121.87657,37.15893],[-121.8764,37.159],[-121.87557,37.15979],[-121.87509,37.1601],[-121.875,37.16028],[-121.87504,37.16059],[-121.87537,37.16082],[-121.87562,37.16116],[-121.87547,37.16154],[-121.87555,37.16194],[-121.87546,37.16216],[-121.8751,37.16235],[-121.87432,37.16227],[-121.87391,37.16235],[-121.87378,37.16246],[-121.87378,37.16267],[-121.87404,37.16317],[-121.87454,37.16358],[-121.87488,37.16412],[-121.87453,37.1649],[-121.87476,37.16536],[-121.87469,37.16581],[-121.8751,37.16618],[-121.87513,37.16643],[-121.87493,37.16649],[-121.87451,37.16644],[-121.87382,37.16675],[-121.87321,37.16683],[-121.87293,37.16716],[-121.87259,37.16731],[-121.87095,37.16748],[-121.87035,37.16735],[-121.86988,37.16752],[-121.86948,37.16801],[-121.86952,37.16857],[-121.86942,37.16875],[-121.86889,37.16944],[-121.86848,37.16976],[-121.86816,37.17036],[-121.86761,37.17063],[-121.86721,37.17115],[-121.86632,37.17137],[-121.86605,37.17168],[-121.86601,37.1719],[-121.86637,37.17219],[-121.86647,37.17241],[-121.86613,37.17298],[-121.86537,37.17359],[-121.86455,37.17385],[-121.86453,37.1741],[-121.86498,37.17456],[-121.8649,37.17486],[-121.86423,37.17534],[-121.8636,37.17535]]]}}
