{"type":"Feature","properties":{"id":"upper-big-tujunga","name":"Upper Big Tujunga Canyon Road","difficulty":2,"character":"Medium speed"},"geometry":{"type":"MultiLineString","coordinates":[[[-118.1198,34.32929],[-118.11981,34.32891],[-118.11997,34.32847],[-118.12092,34.32767],[-118.12116,34.3273],[-118.12144,34.32586],[-118.1217,34.32529],[-118.12223,34.32474],[-118.12331,34.32391],[-118.12442,34.32253],[-118.12469,34.32186],[-118.12465,34.32126],[-118.12436,34.32068],[-118.12353,34.31955],[-118.12292,34.31783],[-118.12253,34.31733],[-118.12201,34.31707],[-118.11897,34.31629],[-118.11832,34.31577],[-118.11735,34.31437],[-118.11689,34.314],[-118.11634,34.31375],[-118.11345,34.31297],[-118.1123,34.3127],[-118.11172,34.31271],[-118.11112,34.31291],[-118.11027,34.31366],[-118.10981,34.31392],[-118.10911,34.31404],[-118.10723,34.31386],[-118.10643,34.31389],[-118.10564,34.31424],[-118.10441,34.31515],[-118.10395,34.31534],[-118.10331,34.3154],[-118.10102,34.31485],[-118.0995,34.31495],[-118.0988,34.31486],[-118.0964,34.31402],[-118.09586,34.31366],[-118.09552,34.31318],[-118.09531,34.31187],[-118.09494,34.31119],[-118.09429,34.31081],[-118.09312,34.3106],[-118.08962,34.31002],[-118.08898,34.30998],[-118.08458,34.31068],[-118.08323,34.31067],[-118.08173,34.31029],[-118.07918,34.30899],[-118.07525,34.30818],[-118.07427,34.30836],[-118.07202,34.30966],[-118.07147,34.30989],[-118.07066,34.30996],[-118.07007,34.30979],[-118.06964,34.30954],[-118.06929,34.30915],[-118.06914,34.30881],[-118.06898,34.30774],[-118.06885,34.30752],[-118.06855,34.30717],[-118.0676,34.30645],[-118.06649,34.305],[-118.06589,34.30468],[-118.06324,34.30394],[-118.06262,34.30341],[-118.06219,34.30248],[-118.06161,34.30183],[-118.05996,34.30045],[-118.05843,34.29963],[-118.05814,34.29917],[-118.05785,34.29785],[-118.05798,34.29633],[-118.05778,34.29586],[-118.05736,34.29548],[-118.05532,34.29478],[-118.05335,34.29451],[-118.05271,34.29422],[-118.05091,34.2926],[-118.05034,34.29151],[-118.04999,34.29105],[-118.04971,34.29086],[-118.04809,34.29035],[-118.04769,34.28997],[-118.0472,34.28894],[-118.04685,34.28859],[-118.04495,34.28783],[-118.04396,34.28683],[-118.04202,34.28555],[-118.04171,34.28492],[-118.04173,34.28445],[-118.04228,34.28348],[-118.04245,34.28292],[-118.04224,34.28209],[-118.04186,34.28173],[-118.04107,34.2814],[-118.03702,34.28035],[-118.03617,34.28036],[-118.03391,34.28076],[-118.03297,34.28069],[-118.02876,34.27947],[-118.02807,34.27915],[-118.0277,34.27876],[-118.02753,34.27825],[-118.02759,34.27775],[-118.02789,34.2773],[-118.02833,34.27697],[-118.03043,34.27622],[-118.03164,34.2756],[-118.03237,34.27541],[-118.03451,34.27529],[-118.03732,34.27443],[-118.03984,34.27432],[-118.04313,34.27334],[-118.04332,34.27321],[-118.04339,34.27295]]]}}
