{"type":"Feature","properties":{"id":"uvas","name":"Uvas Road","difficulty":2,"character":"Medium speed"},"geometry":{"type":"MultiLineString","coordinates":[[[-121.748,37.15116],[-121.74727,37.15079],[-121.74672,37.15062],[-121.74429,37.15006],[-121.74227,37.14911],[-121.7406,37.14815],[-121.73936,37.14691],[-121.73815,37.14516],[-121.73744,37.14307],[-121.73568,37.13997],[-121.73569,37.13968],[-121.73609,37.13864],[-121.7364,37.13738],[-121.73656,37.13661],[-121.73655,37.13589],[-121.73607,37.13463],[-121.73575,37.13297],[-121.73525,37.13129],[-121.73406,37.12899],[-121.73331,37.12653],[-121.73325,37.12592],[-121.73359,37.12524],[-121.73434,37.1248],[-121.73672,37.12459],[-121.73727,37.12443],[-121.73834,37.12389],[-121.74033,37.12221],[-121.74064,37.12192],[-121.74091,37.12147],[-121.7413,37.11988],[-121.74127,37.11944],[-121.74092,37.11859],[-121.74043,37.11794],[-121.73928,37.11583],[-121.73894,37.11416],[-121.73841,37.11325],[-121.7349,37.11012],[-121.73182,37.10823],[-121.72858,37.1051],[-121.72695,37.10416],[-121.72568,37.10388],[-121.7254,37.1037],[-121.72466,37.10266],[-121.72441,37.10203],[-121.7237,37.10123],[-121.72353,37.10113],[-121.72279,37.10104],[-121.72191,37.10028],[-121.72171,37.09996],[-121.72138,37.09869],[-121.72048,37.09735],[-121.72045,37.09694],[-121.72066,37.0954],[-121.7199,37.09381],[-121.71938,37.09048],[-121.71686,37.08823],[-121.71546,37.08608],[-121.71467,37.08551],[-121.71373,37.08501],[-121.71178,37.08296],[-121.71126,37.08221],[-121.71071,37.08044],[-121.71032,37.08001],[-121.70983,37.07973],[-121.70771,37.07907],[-121.70738,37.0789],[-121.70698,37.07851],[-121.7067,37.07792],[-121.70654,37.07645],[-121.70621,37.07581],[-121.70603,37.07563],[-121.70346,37.07417],[-121.70295,37.07376],[-121.70265,37.07328],[-121.70256,37.07291],[-121.70306,37.07014],[-121.70293,37.06954],[-121.70267,37.06913],[-121.69963,37.0667],[-121.69864,37.06643],[-121.6971,37.06629],[-121.69486,37.06523],[-121.69181,37.06397],[-121.68918,37.06269],[-121.68861,37.0626],[-121.68683,37.06283],[-121.6863,37.06279],[-121.68539,37.06244],[-121.68467,37.062],[-121.68241,37.06146],[-121.68059,37.0609]]]}}
