{"type":"Feature","properties":{"id":"watsonville-road","name":"Watsonville Road","difficulty":2,"character":"Medium speed"},"geometry":{"type":"MultiLineString","coordinates":[[[-121.63546,37.10775],[-121.63661,37.10663],[-121.63749,37.1056],[-121.64209,37.09955],[-121.64877,37.09106],[-121.64924,37.09061],[-121.65206,37.08874],[-121.65287,37.08797],[-121.65322,37.08743],[-121.65353,37.08628],[-121.65325,37.08387],[-121.65336,37.08292],[-121.65388,37.08189],[-121.65573,37.07901],[-121.66251,37.06227],[-121.66286,37.06034],[-121.66291,37.05945],[-121.66275,37.05881],[-121.66068,37.05456],[-121.66007,37.05384],[-121.65579,37.04992],[-121.65407,37.04806],[-121.65324,37.04591],[-121.65327,37.04541],[-121.65356,37.04445],[-121.65485,37.04232],[-121.65506,37.0418],[-121.65614,37.0378],[-121.65642,37.03499],[-121.65665,37.0344],[-121.65733,37.03351],[-121.65742,37.03258],[-121.65719,37.0318],[-121.65628,37.03034],[-121.65613,37.02963],[-121.65625,37.02718],[-121.65574,37.02551],[-121.65487,37.02389],[-121.65452,37.02364],[-121.65281,37.02296],[-121.65009,37.02145],[-121.64967,37.02116],[-121.64913,37.02058],[-121.64901,37.02005],[-121.64913,37.01941],[-121.6494,37.01902],[-121.65014,37.01844],[-121.65029,37.01821],[-121.65034,37.01346]]]}}
