{"type":"Feature","properties":{"id":"westside-sonoma","name":"Westside Road \u00b7 Sonoma County","difficulty":2,"character":"Low speed"},"geometry":{"type":"MultiLineString","coordinates":[[[-122.87252,38.60747],[-122.88453,38.6038],[-122.88489,38.60353],[-122.88519,38.60309],[-122.88535,38.6013],[-122.88519,38.60091],[-122.88297,38.59797],[-122.88245,38.59514],[-122.88181,38.59402],[-122.88086,38.59288],[-122.88009,38.59143],[-122.87979,38.58985],[-122.88041,38.58831],[-122.88062,38.58364],[-122.88047,38.58259],[-122.87993,38.58157],[-122.87822,38.57982],[-122.87756,38.57873],[-122.87731,38.57792],[-122.87722,38.57644],[-122.87625,38.57497],[-122.87594,38.57432],[-122.8751,38.57188],[-122.87509,38.57069],[-122.87477,38.56996],[-122.87437,38.56959],[-122.87327,38.56932],[-122.87264,38.56902],[-122.87174,38.5681],[-122.87146,38.56767],[-122.87114,38.56638],[-122.87109,38.56344],[-122.87114,38.56287],[-122.87152,38.56183],[-122.87136,38.56058],[-122.87085,38.55976],[-122.8694,38.5586],[-122.86886,38.55802],[-122.86871,38.55774],[-122.86884,38.55721],[-122.86964,38.55609],[-122.86991,38.55588],[-122.8706,38.55563],[-122.87085,38.55535],[-122.87092,38.54726],[-122.87142,38.54376],[-122.87178,38.54222],[-122.87128,38.53959],[-122.87049,38.53703],[-122.87038,38.53606],[-122.87027,38.53592],[-122.86995,38.53581],[-122.86839,38.5358],[-122.86819,38.53571],[-122.86804,38.53548],[-122.86813,38.53077],[-122.86832,38.52948],[-122.86728,38.52658],[-122.86652,38.5255],[-122.8661,38.52445],[-122.86619,38.52338],[-122.86613,38.52263],[-122.86652,38.52116],[-122.86648,38.52042],[-122.86674,38.51887],[-122.86708,38.51853],[-122.86746,38.51845],[-122.86773,38.51849],[-122.87094,38.51955],[-122.87175,38.52012],[-122.87268,38.5205],[-122.87508,38.52101],[-122.87636,38.52148],[-122.87703,38.52137],[-122.87834,38.52147],[-122.87932,38.52131],[-122.88099,38.52129],[-122.88195,38.52119],[-122.88378,38.52119],[-122.88409,38.52108],[-122.88438,38.52064],[-122.88498,38.52027],[-122.88533,38.51989],[-122.88585,38.51973],[-122.88987,38.52013],[-122.89,38.51991],[-122.88987,38.51862],[-122.89087,38.51693],[-122.89096,38.51653],[-122.88858,38.51199],[-122.88857,38.5111],[-122.88838,38.51062],[-122.88807,38.51009],[-122.88725,38.50933],[-122.88644,38.50827],[-122.8867,38.5059],[-122.88694,38.50534],[-122.8876,38.50477],[-122.88835,38.50378],[-122.88966,38.50347],[-122.8911,38.5024],[-122.89251,38.50189],[-122.89387,38.502],[-122.89523,38.50172],[-122.89562,38.50171],[-122.89777,38.50206],[-122.8994,38.50243],[-122.89984,38.50283],[-122.90093,38.5048],[-122.9012,38.50579],[-122.90152,38.50583],[-122.90213,38.50548],[-122.90262,38.50555],[-122.90326,38.50585],[-122.90368,38.50631],[-122.90464,38.50687],[-122.90524,38.50757],[-122.90571,38.50781],[-122.90647,38.50803],[-122.90716,38.50865],[-122.90905,38.50931],[-122.90975,38.50965],[-122.91064,38.50976],[-122.91107,38.51011],[-122.91175,38.51028],[-122.91329,38.511],[-122.91436,38.51112],[-122.916,38.51163],[-122.91768,38.5117],[-122.91858,38.51192],[-122.92006,38.51209],[-122.92397,38.51151],[-122.92671,38.51039],[-122.92716,38.51013],[-122.92805,38.50916],[-122.92897,38.50858],[-122.92883,38.50833]]]}}
