{"type":"Feature","properties":{"id":"west-alpine","name":"West Alpine Road","difficulty":3,"character":"Technical"},"geometry":{"type":"MultiLineString","coordinates":[[[-122.26509,37.29991],[-122.26438,37.29934],[-122.26359,37.29899],[-122.26287,37.29854],[-122.26187,37.29751],[-122.26165,37.29739],[-122.26078,37.2974],[-122.26001,37.29687],[-122.25949,37.29687],[-122.25909,37.29698],[-122.25844,37.29677],[-122.2582,37.29679],[-122.25805,37.29694],[-122.25751,37.29711],[-122.25697,37.29696],[-122.25661,37.29671],[-122.25634,37.29669],[-122.25522,37.2974],[-122.25446,37.29766],[-122.2513,37.29771],[-122.24913,37.29717],[-122.24833,37.2965],[-122.24791,37.29655],[-122.24748,37.29631],[-122.24689,37.29623],[-122.24615,37.29632],[-122.24554,37.29604],[-122.24492,37.29563],[-122.24467,37.29523],[-122.24403,37.29481],[-122.24344,37.29471],[-122.24163,37.29413],[-122.24048,37.29405],[-122.23939,37.2944],[-122.23879,37.29403],[-122.2383,37.29337],[-122.23819,37.29342],[-122.23815,37.2938],[-122.23792,37.29385],[-122.23692,37.29333],[-122.23645,37.29263],[-122.23576,37.29223],[-122.23484,37.292],[-122.23424,37.29172],[-122.23361,37.29162],[-122.23349,37.29168],[-122.2335,37.29182],[-122.23434,37.29234],[-122.23422,37.29252],[-122.23379,37.29246],[-122.23316,37.29195],[-122.2315,37.29161],[-122.23152,37.29131],[-122.23182,37.29108],[-122.23176,37.29095],[-122.23029,37.29066],[-122.22961,37.29075],[-122.22956,37.29063],[-122.22973,37.29018],[-122.23028,37.28996],[-122.23154,37.28975],[-122.23221,37.28941],[-122.23218,37.28925],[-122.23136,37.28953],[-122.23032,37.28948],[-122.22958,37.28925],[-122.22844,37.28944],[-122.22777,37.2897],[-122.22602,37.28972],[-122.22551,37.28988],[-122.22539,37.2902],[-122.22478,37.29018],[-122.22432,37.29057],[-122.22404,37.29063],[-122.22373,37.29054],[-122.22321,37.29003],[-122.22294,37.2899],[-122.22143,37.28961],[-122.22108,37.28922],[-122.22018,37.28885],[-122.21959,37.28874],[-122.21919,37.28831],[-122.21845,37.2881],[-122.21832,37.28736],[-122.21814,37.28719],[-122.21792,37.28721],[-122.21646,37.28801],[-122.21566,37.28878],[-122.21542,37.28883],[-122.21424,37.28874],[-122.21397,37.2888],[-122.21354,37.28936],[-122.21298,37.28963],[-122.21237,37.28954],[-122.21093,37.29064],[-122.21045,37.29148],[-122.21063,37.29209],[-122.21055,37.29286],[-122.21142,37.29408],[-122.21139,37.29436],[-122.21104,37.29443],[-122.21041,37.29433],[-122.21011,37.2944],[-122.20968,37.2947],[-122.20905,37.29477],[-122.20834,37.29522],[-122.208,37.29532],[-122.20714,37.29527],[-122.20608,37.29476],[-122.2058,37.29472],[-122.20563,37.29482],[-122.20556,37.29509],[-122.20566,37.29524],[-122.20667,37.29601],[-122.20685,37.29634],[-122.20659,37.29682],[-122.20668,37.29748],[-122.20613,37.29798],[-122.20591,37.29882],[-122.20555,37.29912],[-122.20528,37.29955],[-122.20524,37.29978],[-122.20555,37.30025],[-122.20552,37.30046],[-122.20498,37.3007],[-122.20457,37.30101],[-122.20409,37.30102],[-122.2037,37.30131],[-122.20348,37.30168],[-122.20298,37.30178],[-122.20285,37.30192],[-122.20274,37.30258],[-122.2023,37.303],[-122.20217,37.30303],[-122.20167,37.30276],[-122.20098,37.30268],[-122.20087,37.30279],[-122.20092,37.30328],[-122.2008,37.3036],[-122.20045,37.30418],[-122.19999,37.30437],[-122.19989,37.30451],[-122.1996,37.30533],[-122.19927,37.30539],[-122.19853,37.30518],[-122.19743,37.30534],[-122.19691,37.30553],[-122.19643,37.30615],[-122.19646,37.30637],[-122.19719,37.30641],[-122.19755,37.30659],[-122.19754,37.30696],[-122.19795,37.30747],[-122.19739,37.30865],[-122.19753,37.31047],[-122.19785,37.31148],[-122.19763,37.31218],[-122.19788,37.31259],[-122.19689,37.3138],[-122.19687,37.31395],[-122.19714,37.3143],[-122.19714,37.31447],[-122.19654,37.31471],[-122.1964,37.31492],[-122.19683,37.31535],[-122.19693,37.316],[-122.19684,37.31619],[-122.19651,37.31634],[-122.19604,37.31636],[-122.19562,37.31687],[-122.19499,37.31653],[-122.19446,37.31653],[-122.19431,37.31621],[-122.19419,37.31616],[-122.19386,37.31624],[-122.19368,37.31644],[-122.19341,37.31645],[-122.19302,37.31623],[-122.19255,37.31612],[-122.19234,37.31558],[-122.19189,37.31536],[-122.19152,37.31538],[-122.1912,37.31529],[-122.19072,37.31469],[-122.19027,37.31458],[-122.18994,37.31439],[-122.1882,37.31496],[-122.18727,37.31498]],[[-122.26547,37.29948],[-122.26508,37.29938],[-122.26461,37.29955]],[[-122.18858,37.32146],[-122.18852,37.32126]]]}}
