{"type":"Feature","properties":{"id":"white-pass","name":"White Pass \u00b7 US 12","difficulty":1,"character":"Medium speed"},"geometry":{"type":"MultiLineString","coordinates":[[[-121.67111,46.60644],[-121.66384,46.61815],[-121.66169,46.62067],[-121.66017,46.6221],[-121.65886,46.62314],[-121.6435,46.63289],[-121.63272,46.63959],[-121.61812,46.64697],[-121.61597,46.6479],[-121.60887,46.65055],[-121.60679,46.65158],[-121.60576,46.65228],[-121.60285,46.65473],[-121.60246,46.65539],[-121.60132,46.65985],[-121.60102,46.66047],[-121.60034,46.66121],[-121.59628,46.66436],[-121.59582,46.665],[-121.59509,46.66665],[-121.59434,46.66749],[-121.59094,46.66938],[-121.58993,46.6697],[-121.58772,46.67004],[-121.58652,46.67035],[-121.58571,46.67074],[-121.58266,46.6727],[-121.58161,46.67309],[-121.57903,46.67374],[-121.57821,46.67412],[-121.57764,46.67452],[-121.57716,46.67502],[-121.57672,46.67577],[-121.57512,46.67994],[-121.57484,46.68113],[-121.57485,46.6824],[-121.57511,46.68314],[-121.57572,46.68391],[-121.57636,46.6844],[-121.57799,46.68524],[-121.57885,46.68607],[-121.57918,46.68669],[-121.57969,46.68846],[-121.57961,46.68903],[-121.57928,46.68945],[-121.57886,46.68971],[-121.57574,46.6911],[-121.57498,46.69125],[-121.57297,46.6913],[-121.57227,46.69146],[-121.5716,46.69175],[-121.57116,46.69214],[-121.57056,46.69332],[-121.56924,46.69428],[-121.56862,46.69559],[-121.56814,46.69596],[-121.56735,46.6962],[-121.56673,46.69621],[-121.56356,46.69577],[-121.56245,46.69546],[-121.56146,46.695],[-121.56063,46.6944],[-121.55995,46.69369],[-121.55883,46.69141],[-121.55852,46.69101],[-121.55792,46.69055],[-121.55677,46.69004],[-121.55465,46.68948],[-121.55302,46.6888],[-121.5512,46.68769],[-121.55085,46.68738],[-121.5497,46.68524],[-121.54905,46.68451],[-121.5485,46.68409],[-121.54756,46.6836],[-121.54308,46.68178],[-121.54183,46.6811],[-121.53946,46.67957],[-121.53879,46.67927],[-121.53786,46.67903],[-121.53707,46.67897],[-121.53298,46.67916],[-121.53223,46.67898],[-121.53024,46.67812],[-121.52941,46.67799],[-121.52811,46.67805],[-121.52737,46.67787],[-121.52543,46.67711],[-121.52372,46.67602],[-121.52059,46.67491],[-121.51954,46.67426],[-121.51744,46.67259],[-121.51642,46.67211],[-121.51543,46.67185],[-121.51421,46.67173],[-121.51051,46.67183],[-121.50786,46.67126],[-121.50587,46.67092],[-121.50508,46.67087],[-121.50372,46.67106],[-121.5018,46.67177],[-121.50039,46.67185],[-121.49623,46.67106],[-121.49246,46.66983],[-121.49155,46.66971],[-121.48962,46.66973],[-121.48861,46.66943],[-121.48807,46.66903],[-121.48719,46.66792],[-121.48662,46.6674],[-121.48195,46.66442],[-121.48155,46.66399],[-121.48082,46.66267],[-121.47773,46.66029],[-121.47553,46.6579],[-121.47386,46.65704],[-121.47328,46.65662],[-121.47194,46.65443],[-121.47108,46.65351],[-121.46921,46.65227],[-121.46684,46.65114],[-121.46533,46.64995],[-121.46277,46.64836],[-121.46228,46.64768],[-121.46153,46.64546],[-121.46127,46.645],[-121.45904,46.64297],[-121.45711,46.64065],[-121.45612,46.63998],[-121.45208,46.63798],[-121.45091,46.63723],[-121.44988,46.6364],[-121.44731,46.63342],[-121.4472,46.63282],[-121.44783,46.63071],[-121.44795,46.62988],[-121.44753,46.62913],[-121.44614,46.62827],[-121.44565,46.62774],[-121.4455,46.62713],[-121.44569,46.62632],[-121.44567,46.62583],[-121.44545,46.62544],[-121.44509,46.62507],[-121.44436,46.6247],[-121.44281,46.62435],[-121.4414,46.6238],[-121.44041,46.6237],[-121.43681,46.62426],[-121.4362,46.62456],[-121.43532,46.62533],[-121.43422,46.62578],[-121.42764,46.62721],[-121.42382,46.62749],[-121.42204,46.62785],[-121.41853,46.62928],[-121.41363,46.63045],[-121.41244,46.63084],[-121.41116,46.6315],[-121.40935,46.63285],[-121.40817,46.63338],[-121.39832,46.63546],[-121.39505,46.63646],[-121.3869,46.63969],[-121.38292,46.64199],[-121.37796,46.64427],[-121.37744,46.64465],[-121.37714,46.64521],[-121.377,46.64793],[-121.37687,46.64827],[-121.37631,46.64879],[-121.37542,46.64905],[-121.37488,46.64904],[-121.37436,46.64894],[-121.37257,46.64823],[-121.37185,46.64804],[-121.37066,46.64802],[-121.36801,46.6483],[-121.36433,46.64898],[-121.36353,46.6494],[-121.36197,46.65111],[-121.36178,46.65172],[-121.36207,46.65323],[-121.36173,46.65383],[-121.36099,46.65433],[-121.36029,46.65452],[-121.35849,46.65457],[-121.35799,46.65467],[-121.35716,46.65506],[-121.35535,46.65618],[-121.3543,46.65658],[-121.34891,46.65714],[-121.34386,46.65854],[-121.34171,46.65937],[-121.34107,46.65936],[-121.34014,46.65897],[-121.33961,46.65807],[-121.33955,46.6568],[-121.33933,46.65624],[-121.33891,46.65598],[-121.33839,46.65589],[-121.33462,46.65623],[-121.33295,46.65658],[-121.33039,46.65727],[-121.32801,46.65756],[-121.31699,46.65734],[-121.31303,46.65708],[-121.31067,46.65706],[-121.30891,46.65684],[-121.30817,46.65666],[-121.3053,46.65549],[-121.30365,46.65492],[-121.30098,46.65348],[-121.29906,46.65295],[-121.29793,46.65282],[-121.29648,46.65319],[-121.296,46.65318],[-121.29541,46.65292],[-121.29439,46.65211],[-121.2933,46.65174],[-121.28887,46.65167],[-121.2838,46.65141],[-121.28201,46.65112],[-121.28032,46.65061],[-121.2787,46.64978],[-121.27774,46.64909],[-121.27679,46.64817],[-121.27532,46.64636],[-121.27458,46.64568],[-121.27358,46.64507],[-121.27223,46.64481],[-121.2643,46.64502],[-121.26313,46.64498],[-121.26139,46.64477],[-121.25739,46.64391],[-121.25556,46.64378],[-121.25392,46.64402],[-121.24876,46.64585],[-121.24798,46.64599],[-121.24676,46.64605],[-121.23759,46.64495],[-121.23253,46.64364],[-121.23038,46.64326],[-121.22944,46.6432],[-121.22732,46.64325],[-121.22355,46.64365],[-121.2225,46.64362],[-121.22052,46.64332],[-121.21933,46.64325],[-121.21661,46.64346],[-121.21373,46.64333],[-121.2116,46.64347],[-121.21079,46.64342],[-121.20731,46.64286],[-121.20359,46.64274],[-121.20234,46.64287],[-121.19858,46.64371],[-121.19743,46.6438],[-121.19352,46.64367],[-121.19044,46.64325],[-121.18944,46.6433],[-121.18813,46.64356],[-121.18708,46.64357],[-121.18301,46.64293],[-121.18212,46.6429],[-121.18135,46.64301],[-121.18069,46.64323],[-121.17718,46.64519],[-121.17607,46.64566],[-121.17197,46.6468],[-121.17033,46.64708],[-121.16862,46.64704],[-121.16545,46.64668],[-121.16322,46.64666],[-121.16119,46.64649],[-121.15812,46.64576],[-121.1576,46.64557],[-121.15593,46.64452],[-121.15538,46.64432],[-121.15403,46.64417],[-121.1533,46.64424],[-121.15236,46.64446],[-121.14443,46.64769],[-121.14353,46.64822],[-121.14192,46.64956],[-121.13939,46.65068],[-121.13531,46.65323],[-121.13271,46.65412],[-121.13188,46.65455],[-121.13134,46.65522],[-121.12984,46.65901],[-121.12809,46.66125],[-121.127,46.66418],[-121.12652,46.66474],[-121.1259,46.66508],[-121.12512,46.66527],[-121.12446,46.6653],[-121.11786,46.66494],[-121.11374,46.66502],[-121.11143,46.66521],[-121.1045,46.66643],[-121.10271,46.66666],[-121.10055,46.66685],[-121.09578,46.66696],[-121.09482,46.66709],[-121.09403,46.66734],[-121.09309,46.66786],[-121.08309,46.67409],[-121.0814,46.67502],[-121.07964,46.67557],[-121.07277,46.6766],[-121.06953,46.67704],[-121.0678,46.67697],[-121.0668,46.67676],[-121.06337,46.67551],[-121.06206,46.67515],[-121.06133,46.67505],[-121.05761,46.67487],[-121.05668,46.67494],[-121.05412,46.67534],[-121.05268,46.67543],[-121.05166,46.67538],[-121.0431,46.67405],[-121.03818,46.67249],[-121.03664,46.67222],[-121.03285,46.67251],[-121.02881,46.67202],[-121.02621,46.67186],[-121.0241,46.67197],[-121.02127,46.67239],[-121.02047,46.67242],[-121.01965,46.67232],[-121.01778,46.67167],[-121.01633,46.67151],[-121.0155,46.6716],[-121.01475,46.67181],[-121.01218,46.67294],[-121.01143,46.6731],[-121.01055,46.67317],[-121.00944,46.67309],[-121.00874,46.67291],[-121.00795,46.6726],[-121.00616,46.67149],[-121.00542,46.67124],[-121.00464,46.67112],[-121.00382,46.67114],[-121.00139,46.67149],[-121.00012,46.6715],[-120.9836,46.67023],[-120.9812,46.67034],[-120.97478,46.67125],[-120.97337,46.67174],[-120.97219,46.67247],[-120.97036,46.67473],[-120.96918,46.67558],[-120.96789,46.67628],[-120.95907,46.68019],[-120.95779,46.68097],[-120.95453,46.6834],[-120.9538,46.68374],[-120.95255,46.6839],[-120.94428,46.68326],[-120.94247,46.68343],[-120.94108,46.68383],[-120.94023,46.6842],[-120.93762,46.68597],[-120.93583,46.68677],[-120.93379,46.68738],[-120.9277,46.68877],[-120.92554,46.68944],[-120.92408,46.69002],[-120.92334,46.69035],[-120.92292,46.69065],[-120.92245,46.69121],[-120.92182,46.69383],[-120.92153,46.69429],[-120.92076,46.69498],[-120.91971,46.69547],[-120.91855,46.69569],[-120.91738,46.69568],[-120.91217,46.69478],[-120.90793,46.69392],[-120.90647,46.69376],[-120.90507,46.69381],[-120.90382,46.69401],[-120.90287,46.69426],[-120.90169,46.69472],[-120.90071,46.69527],[-120.9,46.69579],[-120.89895,46.6967],[-120.89844,46.69747],[-120.89844,46.69822],[-120.89949,46.70044],[-120.89979,46.70207],[-120.89977,46.70246],[-120.89958,46.70284],[-120.89912,46.70338],[-120.89875,46.70361],[-120.89787,46.70392],[-120.89459,46.70436],[-120.89298,46.70486],[-120.88738,46.70779],[-120.88645,46.70836],[-120.88567,46.70901],[-120.88496,46.70994],[-120.88416,46.71183],[-120.88349,46.71246],[-120.88284,46.71274],[-120.88206,46.71285],[-120.88123,46.71282],[-120.87699,46.71211],[-120.87603,46.71203],[-120.87514,46.71203],[-120.87391,46.71219],[-120.87202,46.71287],[-120.86575,46.71577],[-120.86442,46.71626],[-120.86294,46.71652],[-120.85342,46.71736],[-120.85275,46.71752],[-120.85196,46.7178],[-120.85133,46.71816],[-120.84928,46.72001],[-120.84794,46.72078],[-120.84598,46.72143],[-120.84408,46.72171],[-120.84219,46.72169],[-120.84049,46.72141],[-120.83895,46.72088],[-120.83642,46.71957],[-120.83575,46.71936],[-120.83482,46.71922],[-120.83396,46.71923],[-120.83322,46.71934],[-120.82855,46.72069],[-120.82697,46.72092],[-120.82593,46.72091],[-120.82462,46.72074],[-120.82315,46.7203],[-120.82109,46.71952],[-120.82031,46.71934],[-120.81915,46.71937],[-120.81812,46.71968],[-120.81765,46.71997],[-120.81706,46.72055],[-120.81242,46.72567],[-120.81132,46.72662],[-120.8102,46.72738],[-120.8081,46.72846],[-120.79597,46.73316],[-120.79456,46.73386],[-120.7936,46.73445],[-120.79217,46.73556],[-120.79102,46.73675],[-120.79059,46.73738],[-120.78967,46.73932],[-120.789,46.74354],[-120.78846,46.74831],[-120.78608,46.74835],[-120.7816,46.74876],[-120.78018,46.74867],[-120.77195,46.74746],[-120.75672,46.744],[-120.74059,46.73956],[-120.69525,46.7268]]]}}
