{"type":"Feature","properties":{"id":"wolf-pen-gap","name":"Wolf Pen Gap Road \u00b7 GA 180","difficulty":2,"character":"Technical"},"geometry":{"type":"MultiLineString","coordinates":[[[-84.02234,34.68886],[-84.02174,34.6891],[-84.01912,34.69091],[-84.01798,34.69274],[-84.01766,34.69446],[-84.01734,34.69468],[-84.01596,34.69507],[-84.01557,34.69529],[-84.01515,34.6966],[-84.01452,34.69766],[-84.01428,34.69784],[-84.01328,34.69828],[-84.01284,34.69871],[-84.01262,34.69928],[-84.01248,34.70037],[-84.01228,34.70074],[-84.01165,34.70128],[-84.01107,34.70201],[-84.00972,34.70302],[-84.00762,34.70506],[-84.00615,34.70596],[-84.00552,34.70621],[-84.00404,34.70644],[-84.00219,34.70646],[-84.00062,34.70659],[-83.99791,34.7073],[-83.99741,34.70751],[-83.99676,34.70935],[-83.9974,34.71039],[-83.99745,34.71147],[-83.99592,34.71541],[-83.99566,34.71585],[-83.9945,34.71665],[-83.99307,34.71806],[-83.99192,34.7185],[-83.99023,34.71959],[-83.98871,34.72013],[-83.9878,34.7209],[-83.98695,34.72141],[-83.98616,34.72168],[-83.98488,34.72195],[-83.98427,34.72225],[-83.98383,34.72271],[-83.983,34.72408],[-83.98091,34.72509],[-83.97845,34.72718],[-83.97825,34.72748],[-83.97799,34.72824],[-83.9775,34.73087],[-83.97731,34.73131],[-83.97676,34.73209],[-83.97661,34.73246],[-83.97651,34.73325],[-83.97655,34.73387],[-83.97743,34.7349],[-83.97771,34.73568],[-83.97768,34.73608],[-83.97728,34.73706],[-83.97718,34.73762],[-83.9772,34.73846],[-83.97743,34.73913],[-83.9774,34.73935],[-83.97709,34.73999],[-83.97685,34.74022],[-83.97586,34.74043],[-83.97495,34.74107],[-83.97438,34.74183],[-83.97429,34.74201],[-83.9743,34.74326],[-83.97405,34.74451],[-83.97415,34.74509],[-83.97435,34.74542],[-83.97638,34.74724],[-83.9773,34.74853],[-83.97745,34.74908],[-83.97754,34.75029],[-83.97709,34.75117],[-83.97648,34.75192],[-83.97555,34.75228],[-83.97357,34.75364],[-83.97339,34.75405],[-83.97329,34.75485],[-83.97308,34.75509],[-83.97253,34.75528],[-83.97149,34.75523],[-83.97096,34.75539],[-83.96966,34.75622],[-83.96668,34.75788],[-83.96579,34.75873],[-83.96521,34.75901],[-83.96485,34.75893],[-83.96459,34.75842],[-83.96428,34.75814],[-83.9626,34.75761],[-83.9623,34.75762],[-83.96139,34.75848],[-83.96096,34.75904],[-83.9604,34.75934],[-83.96007,34.75997],[-83.95985,34.76008],[-83.95926,34.75996],[-83.95902,34.76014],[-83.9585,34.76086],[-83.95792,34.7608],[-83.95753,34.76086],[-83.9572,34.76064],[-83.95682,34.76061],[-83.95629,34.76074],[-83.95438,34.76163],[-83.95418,34.76191],[-83.95357,34.76389],[-83.95336,34.76407],[-83.95259,34.7639],[-83.95011,34.76424],[-83.94981,34.76421],[-83.9497,34.76408],[-83.94979,34.76361],[-83.94971,34.76339],[-83.94894,34.76304],[-83.94863,34.76246],[-83.94829,34.7621],[-83.94794,34.76209],[-83.94728,34.76229],[-83.94702,34.76243],[-83.94684,34.76266],[-83.94641,34.76286],[-83.9462,34.76346],[-83.94528,34.76446],[-83.94495,34.76521],[-83.94483,34.76584],[-83.94394,34.76666],[-83.9432,34.76687],[-83.94255,34.76719],[-83.94136,34.76691],[-83.94017,34.76696],[-83.93995,34.76687],[-83.93972,34.76652],[-83.93958,34.76602],[-83.93991,34.76473],[-83.93986,34.76454],[-83.93965,34.76449],[-83.93949,34.76521],[-83.93914,34.7658],[-83.93907,34.76636],[-83.93961,34.76792],[-83.93953,34.76806],[-83.93911,34.76801],[-83.93853,34.76773],[-83.93559,34.76665],[-83.9351,34.76595],[-83.93464,34.76579],[-83.93407,34.7658],[-83.93389,34.76538],[-83.93344,34.765],[-83.93327,34.76499],[-83.93267,34.76529],[-83.93217,34.76481],[-83.93177,34.76477],[-83.93121,34.76499],[-83.93119,34.76555],[-83.93105,34.76568],[-83.92984,34.76568],[-83.92961,34.76597],[-83.92908,34.76611],[-83.92866,34.76651],[-83.92799,34.76642],[-83.92636,34.76721],[-83.92617,34.76716],[-83.92585,34.76686],[-83.92535,34.76671],[-83.92475,34.76688],[-83.92423,34.76727],[-83.92414,34.76755],[-83.92417,34.7681],[-83.92375,34.76878],[-83.92356,34.76893],[-83.92282,34.7687],[-83.92163,34.76873],[-83.91958,34.76929],[-83.9187,34.76984],[-83.91794,34.77048],[-83.91741,34.77122],[-83.91705,34.77199],[-83.91678,34.7723],[-83.9164,34.77252],[-83.91577,34.77261],[-83.91533,34.77253],[-83.91423,34.77186]]]}}
