{"type":"Feature","properties":{"id":"yakima-canyon-road","name":"Yakima Canyon Road \u00b7 SR 821","difficulty":2,"character":"Technical"},"geometry":{"type":"MultiLineString","coordinates":[[[-120.49718,46.92621],[-120.51009,46.92616],[-120.50821,46.91838],[-120.50793,46.9155],[-120.50765,46.91489],[-120.50556,46.9124],[-120.50513,46.91082],[-120.50477,46.91004],[-120.50393,46.90929],[-120.49452,46.90417],[-120.494,46.90381],[-120.49334,46.90311],[-120.4929,46.90206],[-120.49292,46.90111],[-120.49335,46.9002],[-120.49467,46.89891],[-120.49542,46.89845],[-120.49679,46.89813],[-120.49793,46.89816],[-120.49974,46.89839],[-120.50236,46.89892],[-120.50288,46.89891],[-120.50364,46.89866],[-120.50401,46.89835],[-120.50421,46.89791],[-120.50405,46.89733],[-120.50299,46.89606],[-120.5003,46.89446],[-120.49895,46.89338],[-120.49846,46.89286],[-120.49758,46.89165],[-120.49641,46.88915],[-120.49363,46.88527],[-120.49277,46.88443],[-120.49218,46.88408],[-120.49103,46.88361],[-120.49037,46.88345],[-120.4897,46.88336],[-120.4883,46.88339],[-120.48645,46.88382],[-120.4843,46.88502],[-120.48287,46.88547],[-120.48127,46.8856],[-120.47887,46.88531],[-120.47752,46.8849],[-120.47612,46.8842],[-120.47529,46.88356],[-120.47473,46.88277],[-120.47422,46.88147],[-120.47411,46.88073],[-120.47422,46.87999],[-120.47479,46.87888],[-120.47562,46.87778],[-120.47663,46.87689],[-120.47782,46.87618],[-120.4789,46.8757],[-120.48245,46.87474],[-120.48328,46.87466],[-120.4848,46.87476],[-120.48581,46.87489],[-120.48708,46.87521],[-120.48765,46.87544],[-120.49207,46.87806],[-120.49294,46.87838],[-120.49367,46.87841],[-120.4941,46.87834],[-120.49479,46.87803],[-120.49528,46.8774],[-120.49521,46.87665],[-120.49431,46.87569],[-120.49336,46.87497],[-120.48984,46.87292],[-120.48841,46.87237],[-120.4851,46.87173],[-120.48407,46.87139],[-120.48293,46.87081],[-120.48167,46.86972],[-120.47928,46.86705],[-120.47879,46.86603],[-120.47854,46.86506],[-120.47855,46.86391],[-120.47878,46.8624],[-120.47916,46.8614],[-120.48017,46.85972],[-120.48247,46.85683],[-120.48262,46.85607],[-120.48248,46.85574],[-120.48208,46.85529],[-120.48148,46.85495],[-120.48067,46.85476],[-120.47231,46.85483],[-120.46525,46.85397],[-120.46434,46.85368],[-120.4635,46.85311],[-120.46172,46.85092],[-120.46116,46.85003],[-120.46108,46.84931],[-120.46145,46.84862],[-120.46254,46.84776],[-120.46276,46.8474],[-120.46296,46.84547],[-120.46283,46.8448],[-120.46253,46.84414],[-120.46194,46.84341],[-120.46066,46.84253],[-120.45968,46.84213],[-120.45704,46.84152],[-120.45612,46.84101],[-120.45575,46.84065],[-120.45478,46.83905],[-120.45425,46.83729],[-120.45433,46.83689],[-120.45504,46.8358],[-120.45505,46.83528],[-120.45476,46.83434],[-120.45483,46.83386],[-120.45863,46.8306],[-120.45998,46.82895],[-120.46079,46.82776],[-120.46072,46.82718],[-120.46037,46.82654],[-120.45961,46.82452],[-120.45921,46.82315],[-120.45879,46.82252],[-120.45545,46.81908],[-120.4537,46.81741],[-120.45281,46.81669],[-120.45139,46.81571],[-120.44674,46.81319],[-120.44409,46.81153],[-120.44265,46.81045],[-120.44067,46.80829],[-120.44027,46.80764],[-120.44015,46.80716],[-120.44044,46.80488],[-120.44072,46.80408],[-120.44111,46.80354],[-120.44239,46.80239],[-120.44404,46.80143],[-120.44534,46.80093],[-120.44736,46.80042],[-120.44873,46.80031],[-120.44947,46.80034],[-120.45127,46.80065],[-120.45251,46.80097],[-120.45745,46.80246],[-120.45832,46.80258],[-120.45911,46.80258],[-120.46071,46.80221],[-120.46162,46.80169],[-120.46215,46.8011],[-120.46248,46.80034],[-120.46248,46.79965],[-120.46221,46.79893],[-120.46027,46.79656],[-120.45919,46.79568],[-120.45256,46.79132],[-120.45197,46.7908],[-120.45083,46.78931],[-120.45045,46.78834],[-120.45047,46.78647],[-120.45148,46.78423],[-120.4535,46.78067],[-120.45378,46.77977],[-120.45379,46.77899],[-120.45357,46.77819],[-120.45303,46.77737],[-120.44858,46.77258],[-120.44823,46.7721],[-120.44813,46.77166],[-120.44857,46.76901],[-120.44912,46.76838],[-120.45121,46.7675],[-120.45498,46.76647],[-120.45555,46.76607],[-120.45578,46.76573],[-120.45586,46.76531],[-120.45572,46.76492],[-120.45366,46.76295],[-120.45307,46.76214],[-120.45287,46.76119],[-120.45307,46.75895],[-120.4533,46.75834],[-120.45379,46.75777],[-120.45664,46.75567],[-120.45705,46.75522],[-120.45716,46.75491],[-120.45705,46.7543],[-120.45567,46.75261],[-120.45544,46.75221],[-120.45535,46.75167],[-120.45578,46.75088],[-120.45835,46.74869],[-120.45852,46.74819],[-120.45837,46.7479],[-120.45783,46.74761],[-120.45561,46.7473],[-120.45198,46.74646],[-120.45112,46.74606],[-120.44969,46.74512],[-120.44885,46.74432],[-120.44763,46.74237],[-120.44736,46.74136],[-120.44745,46.74013],[-120.44781,46.7392],[-120.44898,46.7373],[-120.44974,46.73649],[-120.45165,46.73478],[-120.45288,46.73307],[-120.45286,46.73053],[-120.45272,46.72969],[-120.45244,46.72915],[-120.45213,46.72882],[-120.45042,46.72731],[-120.45009,46.72689],[-120.44984,46.72611],[-120.44996,46.72523],[-120.45105,46.72299],[-120.4524,46.72188],[-120.4543,46.7211],[-120.45572,46.72022],[-120.45621,46.71977],[-120.4573,46.71835],[-120.45824,46.7175],[-120.46106,46.71575],[-120.46264,46.71458],[-120.46394,46.71333],[-120.46992,46.70611],[-120.47077,46.70556],[-120.47274,46.70469],[-120.47333,46.70404],[-120.47863,46.68393],[-120.47931,46.68306],[-120.48294,46.68061],[-120.48327,46.6803],[-120.48344,46.67994],[-120.48339,46.6794],[-120.48305,46.67896],[-120.48014,46.6772]]]}}
