{"type":"Feature","properties":{"id":"yerba-buena-little-sycamore","name":"Yerba Buena / Little Sycamore","difficulty":3,"character":"Technical"},"geometry":{"type":"MultiLineString","coordinates":[[[-118.96313,34.05313],[-118.96307,34.0534],[-118.96321,34.05506],[-118.96391,34.05562],[-118.96433,34.05614],[-118.96514,34.058],[-118.96524,34.05869],[-118.9651,34.05913],[-118.96443,34.0599],[-118.96444,34.06021],[-118.96466,34.06076],[-118.96421,34.06165],[-118.96409,34.06222],[-118.96383,34.06272],[-118.96339,34.0632],[-118.96344,34.06426],[-118.96268,34.06498],[-118.96238,34.06544],[-118.96163,34.06559],[-118.9613,34.06579],[-118.96098,34.06634],[-118.96098,34.06676],[-118.96086,34.06695],[-118.95963,34.06786],[-118.95906,34.06802],[-118.95859,34.06843],[-118.95799,34.06877],[-118.95795,34.0689],[-118.95809,34.06903],[-118.9588,34.06916],[-118.95893,34.06933],[-118.95861,34.07011],[-118.9585,34.0707],[-118.95745,34.07145],[-118.95753,34.0716],[-118.95803,34.07191],[-118.9582,34.07227],[-118.95811,34.07293],[-118.95768,34.07355],[-118.95713,34.07375],[-118.95665,34.07415],[-118.95528,34.07469],[-118.95504,34.07506],[-118.95452,34.07524],[-118.95388,34.07599],[-118.95338,34.07623],[-118.95296,34.07659],[-118.95177,34.07653],[-118.95153,34.07663],[-118.95127,34.07695],[-118.95081,34.07859],[-118.95085,34.0791],[-118.9511,34.07941],[-118.95118,34.07972],[-118.95087,34.08068],[-118.95113,34.08136],[-118.95121,34.08199],[-118.95121,34.08222],[-118.95097,34.08278],[-118.95112,34.08371],[-118.95102,34.08395],[-118.95061,34.08437],[-118.9509,34.08507],[-118.95059,34.08599],[-118.95016,34.08653],[-118.9501,34.08693],[-118.94976,34.08758],[-118.94898,34.08808],[-118.94816,34.08877],[-118.94756,34.08964],[-118.94759,34.09003],[-118.94749,34.09031],[-118.9471,34.09039],[-118.94677,34.09059],[-118.9463,34.09123],[-118.94645,34.09153],[-118.94741,34.09184],[-118.94804,34.09219],[-118.94826,34.09241],[-118.94821,34.09294],[-118.94735,34.09339],[-118.94716,34.09363],[-118.94766,34.09404],[-118.9477,34.09422],[-118.94754,34.09475],[-118.94772,34.09499],[-118.94818,34.09516],[-118.94817,34.09557],[-118.94835,34.09583],[-118.94834,34.09601],[-118.94787,34.09629],[-118.9478,34.09715],[-118.94738,34.09732],[-118.94692,34.09772],[-118.94647,34.09777],[-118.94619,34.09817],[-118.94516,34.0983],[-118.94465,34.09848],[-118.9442,34.09841],[-118.94397,34.09859],[-118.94343,34.09973],[-118.94334,34.1012],[-118.94315,34.10129],[-118.94236,34.10136],[-118.94206,34.10193],[-118.94209,34.10218],[-118.94267,34.10317],[-118.94252,34.10408],[-118.9422,34.10439],[-118.94206,34.10473],[-118.94213,34.10511],[-118.94203,34.10551],[-118.94223,34.10636],[-118.94257,34.107],[-118.94257,34.10722],[-118.94201,34.10743],[-118.94182,34.10761],[-118.94175,34.10785],[-118.94183,34.1082],[-118.94158,34.10855],[-118.94013,34.1092],[-118.93986,34.1098],[-118.93934,34.10974],[-118.93918,34.10981],[-118.93881,34.11068],[-118.93843,34.11065],[-118.93791,34.11016],[-118.93749,34.11006],[-118.93674,34.1103],[-118.93637,34.11068],[-118.93611,34.11068],[-118.93594,34.11057],[-118.93566,34.11004],[-118.93492,34.10948],[-118.93446,34.10934],[-118.93418,34.10914],[-118.93377,34.10906],[-118.93317,34.10928],[-118.93292,34.1095],[-118.93251,34.10946],[-118.93219,34.10981],[-118.93177,34.10991],[-118.93133,34.11034],[-118.93153,34.11104],[-118.93099,34.11141],[-118.93084,34.112],[-118.93036,34.11217],[-118.9293,34.11292],[-118.92898,34.11295],[-118.92873,34.11281],[-118.92876,34.11199],[-118.92868,34.11174],[-118.92821,34.11146],[-118.9273,34.11158],[-118.92721,34.11149],[-118.92718,34.11098],[-118.92699,34.11083],[-118.92674,34.11081],[-118.92657,34.11089],[-118.92646,34.11112],[-118.92647,34.11188],[-118.92632,34.1124],[-118.92599,34.1125],[-118.92561,34.11239],[-118.92533,34.11241],[-118.92486,34.11278],[-118.92418,34.11308],[-118.92403,34.1135],[-118.92384,34.11366],[-118.9237,34.11368],[-118.92322,34.11348],[-118.92247,34.11352],[-118.92233,34.11364],[-118.92201,34.11432],[-118.92179,34.11443],[-118.92134,34.11438],[-118.92097,34.11414],[-118.9205,34.11418],[-118.92002,34.11442],[-118.91845,34.11444],[-118.91825,34.11436],[-118.91765,34.11375],[-118.91725,34.11319],[-118.9171,34.11231],[-118.91745,34.11194],[-118.91785,34.11188],[-118.91802,34.11172],[-118.91796,34.11148],[-118.91752,34.11096],[-118.91712,34.11071],[-118.91668,34.11058],[-118.91593,34.11098],[-118.91499,34.11086],[-118.91486,34.11001],[-118.91436,34.10975],[-118.91425,34.10951],[-118.9139,34.10923],[-118.91391,34.10866],[-118.91248,34.10847],[-118.91113,34.10757],[-118.91043,34.10768],[-118.90963,34.10752],[-118.90922,34.10756],[-118.90905,34.10783],[-118.90901,34.10862],[-118.90825,34.10917],[-118.90773,34.10994],[-118.90757,34.11004],[-118.90711,34.11],[-118.90656,34.11016],[-118.90631,34.11008],[-118.90601,34.10971],[-118.9053,34.1094],[-118.90519,34.10884],[-118.90505,34.10872],[-118.90367,34.1088],[-118.90352,34.10856],[-118.90352,34.10823],[-118.90306,34.1081],[-118.9028,34.10746],[-118.90252,34.10716],[-118.90252,34.10687],[-118.90241,34.10679],[-118.90152,34.10684],[-118.90035,34.10662],[-118.89962,34.10698],[-118.89892,34.10678],[-118.89864,34.10699],[-118.89806,34.10696],[-118.89639,34.10776],[-118.89574,34.10774],[-118.8956,34.10759],[-118.8956,34.10734],[-118.89643,34.10669],[-118.89651,34.10642],[-118.89636,34.10623],[-118.89592,34.10606],[-118.89446,34.10584],[-118.89377,34.10561],[-118.89337,34.10541],[-118.8931,34.10507],[-118.89257,34.10509],[-118.89212,34.10476],[-118.89162,34.10459],[-118.89111,34.10426],[-118.89048,34.10459],[-118.88951,34.10442],[-118.88872,34.10383],[-118.88862,34.10359],[-118.88897,34.10274],[-118.88866,34.10208],[-118.88869,34.10148],[-118.88753,34.09992],[-118.88761,34.09934],[-118.88751,34.09895],[-118.88736,34.09882],[-118.88627,34.09842],[-118.88542,34.09777],[-118.88434,34.09744],[-118.88384,34.09696],[-118.88367,34.09623],[-118.88283,34.09516],[-118.88288,34.09376],[-118.88093,34.09096],[-118.88052,34.0888]]]}}
